[{"TargetData":[{"Zip":"90003","LessThan10K":"0.2","MoreThan10K":"0.5","MoreThan25K":"0.26","MoreThan50K":"0.05","First":"Christy","Last":"Manchester","Phone_h":"(719) 090-8967","Phone_m":"(889) 572-6666","Phone_w":"(111) 469-3053","Address":"123 Anywhere Street","City":"Los Angeles","State":"CA"},{"Zip":"90001","LessThan10K":"0.2","MoreThan10K":"0.5","MoreThan25K":"0.26","MoreThan50K":"0.05","First":"Adrienne","Last":"Degnan","Phone_h":"(587) 627-3797","Phone_m":"(422) 428-7850","Phone_w":"(348) 160-0341","Address":"1715 Scott Dr","City":"Los Angeles","State":"CA"},{"Zip":"90002","LessThan10K":"0.22","MoreThan10K":"0.48","MoreThan25K":"0.25","MoreThan50K":"0.05","First":"Vonda","Last":"Alford","Phone_h":"(052) 873-0753","Phone_m":"(124) 880-9345","Phone_w":"(483) 894-8864","Address":"777 West Filmore","City":"Los Angeles","State":"CA"},{"Zip":"90002","LessThan10K":"0.22","MoreThan10K":"0.48","MoreThan25K":"0.25","MoreThan50K":"0.05","First":"Nadine","Last":"Poindexter","Phone_h":"(822) 883-4953","Phone_m":"(889) 168-2232","Phone_w":"(765) 632-8198","Address":"48920 San Carlos","City":"Santa Fe","State":"CA"},{"Zip":"90003","LessThan10K":"0.23","MoreThan10K":"0.48","MoreThan25K":"0.24","MoreThan50K":"0.04","First":"Wilton","Last":"Eder","Phone_h":"(081) 812-9212","Phone_m":"(519) 781-7349","Phone_w":"(495) 641-8733","Address":"48920 San Carlos","City":"Santa Fe","State":"CA"},{"Zip":"90003","LessThan10K":"0.23","MoreThan10K":"0.48","MoreThan25K":"0.24","MoreThan50K":"0.04","First":"Theodore","Last":"Dane","Phone_h":"(782) 939-5130","Phone_m":"(438) 871-8432","Phone_w":"(981) 367-9449","Address":"123 Anywhere Street","City":"Santa Fe","State":"CA"},{"Zip":"90005","LessThan10K":"0.22","MoreThan10K":"0.45","MoreThan25K":"0.23","MoreThan50K":"0.1","First":"Milan","Last":"Montelongo","Phone_h":"(332) 056-7564","Phone_m":"(103) 497-3086","Phone_w":"(873) 279-0758","Address":"123 Anywhere Street","City":"Los Angeles","State":"CA"},{"Zip":"90005","LessThan10K":"0.22","MoreThan10K":"0.45","MoreThan25K":"0.23","MoreThan50K":"0.1","First":"Rosella","Last":"Axelson","Phone_h":"(732) 864-9055","Phone_m":"(163) 652-9989","Phone_w":"(784) 538-9392","Address":"9 IBM Path","City":"Cupertino","State":"CA"},{"Zip":"90006","LessThan10K":"0.24","MoreThan10K":"0.51","MoreThan25K":"0.21","MoreThan50K":"0.04","First":"Sofia","Last":"Warfield","Phone_h":"(423) 165-7500","Phone_m":"(459) 671-1175","Phone_w":"(288) 418-0508","Address":"1715 Scott Dr","City":"San Francisco","State":"CA"},{"Zip":"90006","LessThan10K":"0.24","MoreThan10K":"0.51","MoreThan25K":"0.21","MoreThan50K":"0.04","First":"Theron","Last":"Nelms","Phone_h":"(429) 858-7313","Phone_m":"(177) 333-0904","Phone_w":"(208) 118-4488","Address":"777 West Filmore","City":"Salt Lake City","State":"CA"},{"Zip":"90007","LessThan10K":"0.28","MoreThan10K":"0.45","MoreThan25K":"0.21","MoreThan50K":"0.06","First":"Brendon","Last":"Bourque","Phone_h":"(074) 130-5661","Phone_m":"(824) 166-9685","Phone_w":"(609) 734-4206","Address":"111 Silicon Valley Road","City":"Denver","State":"CA"},{"Zip":"90007","LessThan10K":"0.28","MoreThan10K":"0.45","MoreThan25K":"0.21","MoreThan50K":"0.06","First":"Ernesto","Last":"Warr","Phone_h":"(156) 718-2277","Phone_m":"(150) 850-9755","Phone_w":"(071) 173-4447","Address":"111 Silicon Valley Road","City":"Los Angeles","State":"CA"},{"Zip":"90011","LessThan10K":"0.23","MoreThan10K":"0.52","MoreThan25K":"0.22","MoreThan50K":"0.03","First":"Stefan","Last":"Severin","Phone_h":"(582) 300-4042","Phone_m":"(268) 145-0601","Phone_w":"(962) 144-6362","Address":"9 IBM Path","City":"San Francisco","State":"CA"},{"Zip":"90011","LessThan10K":"0.23","MoreThan10K":"0.52","MoreThan25K":"0.22","MoreThan50K":"0.03","First":"Dee","Last":"Langer","Phone_h":"(541) 518-2913","Phone_m":"(342) 304-1521","Phone_w":"(833) 492-1061","Address":"48920 San Carlos","City":"Salt Lake City","State":"CA"},{"Zip":"90012","LessThan10K":"0.26","MoreThan10K":"0.38","MoreThan25K":"0.2","MoreThan50K":"0.16","First":"Catalina","Last":"Moretti","Phone_h":"(056) 715-0989","Phone_m":"(225) 727-1032","Phone_w":"(224) 982-7315","Address":"9 IBM Path","City":"San Mateo","State":"CA"},{"Zip":"90012","LessThan10K":"0.26","MoreThan10K":"0.38","MoreThan25K":"0.2","MoreThan50K":"0.16","First":"Ralph","Last":"Carlino","Phone_h":"(602) 363-4258","Phone_m":"(665) 718-7209","Phone_w":"(916) 921-1010","Address":"111 Silicon Valley Road","City":"San Mateo","State":"CA"},{"Zip":"90013","LessThan10K":"0.3","MoreThan10K":"0.37","MoreThan25K":"0.17","MoreThan50K":"0.15","First":"Freida","Last":"Pattison","Phone_h":"(572) 163-9985","Phone_m":"(090) 105-2414","Phone_w":"(610) 131-5970","Address":"1715 Scott Dr","City":"San Jose","State":"CA"},{"Zip":"90013","LessThan10K":"0.3","MoreThan10K":"0.37","MoreThan25K":"0.17","MoreThan50K":"0.15","First":"Carmella","Last":"Kemble","Phone_h":"(820) 150-5208","Phone_m":"(219) 217-0963","Phone_w":"(085) 210-3124","Address":"111 Silicon Valley Road","City":"St. Petersburg","State":"CA"},{"Zip":"90014","LessThan10K":"0.26","MoreThan10K":"0.43","MoreThan25K":"0.19","MoreThan50K":"0.12","First":"Jewell","Last":"Landrum","Phone_h":"(276) 268-2375","Phone_m":"(398) 140-0114","Phone_w":"(553) 607-3891","Address":"48920 San Carlos","City":"Salt Lake City","State":"CA"},{"Zip":"90014","LessThan10K":"0.26","MoreThan10K":"0.43","MoreThan25K":"0.19","MoreThan50K":"0.12","First":"Minerva","Last":"Carolina","Phone_h":"(171) 363-2483","Phone_m":"(592) 305-0697","Phone_w":"(530) 655-5702","Address":"48920 San Carlos","City":"Santa Fe","State":"CA"},{"Zip":"90015","LessThan10K":"0.24","MoreThan10K":"0.49","MoreThan25K":"0.21","MoreThan50K":"0.07","First":"Felton","Last":"Slavens","Phone_h":"(376) 475-0104","Phone_m":"(470) 079-4418","Phone_w":"(634) 142-6788","Address":"999 Baker Way","City":"Persistance","State":"CA"},{"Zip":"90015","LessThan10K":"0.24","MoreThan10K":"0.49","MoreThan25K":"0.21","MoreThan50K":"0.07","First":"Gail","Last":"Roa","Phone_h":"(447) 111-8336","Phone_m":"(273) 822-8068","Phone_w":"(940) 671-2770","Address":"9 IBM Path","City":"San Jose","State":"CA"}]},{"TargetData":[{"Zip":"90017","LessThan10K":"0.26","MoreThan10K":"0.47","MoreThan25K":"0.16","MoreThan50K":"0.11","First":"Berta","Last":"Reeves","Phone_h":"(953) 879-6325","Phone_m":"(393) 686-8574","Phone_w":"(108) 496-6665","Address":"777 West Filmore","City":"San Jose","State":"CA"},{"Zip":"90017","LessThan10K":"0.26","MoreThan10K":"0.47","MoreThan25K":"0.16","MoreThan50K":"0.11","First":"Alta","Last":"Kerwin","Phone_h":"(993) 010-5890","Phone_m":"(142) 000-0359","Phone_w":"(680) 840-0245","Address":"345 Sugar Blvd.","City":"Denver","State":"CA"},{"Zip":"90018","LessThan10K":"0.21","MoreThan10K":"0.42","MoreThan25K":"0.28","MoreThan50K":"0.1","First":"Edwina","Last":"Henning","Phone_h":"(516) 391-3078","Phone_m":"(064) 446-2729","Phone_w":"(466) 215-3780","Address":"48920 San Carlos","City":"Denver","State":"CA"},{"Zip":"90018","LessThan10K":"0.21","MoreThan10K":"0.42","MoreThan25K":"0.28","MoreThan50K":"0.1","First":"Myles","Last":"Sterrett","Phone_h":"(284) 366-1111","Phone_m":"(438) 321-6469","Phone_w":"(484) 548-5964","Address":"345 Sugar Blvd.","City":"San Jose","State":"CA"},{"Zip":"90020-0001","LessThan10K":"0.21","MoreThan10K":"0.41","MoreThan25K":"0.27","MoreThan50K":"0.11","First":"Jake","Last":"Kraus","Phone_h":"(628) 971-4290","Phone_m":"(157) 082-0244","Phone_w":"(138) 510-5317","Address":"9 IBM Path","City":"Alabama","State":"CA"},{"Zip":"90020-0001","LessThan10K":"0.21","MoreThan10K":"0.41","MoreThan25K":"0.27","MoreThan50K":"0.11","First":"Jordan","Last":"Whitt","Phone_h":"(617) 350-6962","Phone_m":"(106) 322-5676","Phone_w":"(216) 454-8948","Address":"123 Anywhere Street","City":"Alabama","State":"CA"},{"Zip":"90021","LessThan10K":"0.26","MoreThan10K":"0.41","MoreThan25K":"0.18","MoreThan50K":"0.15","First":"Bradford","Last":"Roane","Phone_h":"(495) 226-4886","Phone_m":"(759) 292-0210","Phone_w":"(034) 098-5411","Address":"321 University Ave.","City":"Cupertino","State":"CA"},{"Zip":"90021","LessThan10K":"0.26","MoreThan10K":"0.41","MoreThan25K":"0.18","MoreThan50K":"0.15","First":"Selma","Last":"Wormley","Phone_h":"(319) 764-4485","Phone_m":"(900) 188-3827","Phone_w":"(212) 220-8842","Address":"321 University Ave.","City":"Cupertino","State":"CA"},{"Zip":"90028","LessThan10K":"0.22","MoreThan10K":"0.4","MoreThan25K":"0.28","MoreThan50K":"0.1","First":"Tom","Last":"Benham","Phone_h":"(444) 806-4186","Phone_m":"(500) 335-0436","Phone_w":"(510) 375-8267","Address":"123 Anywhere Street","City":"Cupertino","State":"CA"},{"Zip":"90028","LessThan10K":"0.22","MoreThan10K":"0.4","MoreThan25K":"0.28","MoreThan50K":"0.1","First":"Zelda","Last":"Mann","Phone_h":"(413) 226-4028","Phone_m":"(371) 530-4054","Phone_w":"(328) 987-4214","Address":"9 IBM Path","City":"San Jose","State":"CA"},{"Zip":"90029","LessThan10K":"0.23","MoreThan10K":"0.44","MoreThan25K":"0.25","MoreThan50K":"0.08","First":"Greta","Last":"Rusk","Phone_h":"(794) 881-1242","Phone_m":"(655) 574-6601","Phone_w":"(352) 813-9352","Address":"999 Baker Way","City":"St. Petersburg","State":"CA"},{"Zip":"90029","LessThan10K":"0.23","MoreThan10K":"0.44","MoreThan25K":"0.25","MoreThan50K":"0.08","First":"Edwardo","Last":"Linhart","Phone_h":"(794) 264-4916","Phone_m":"(962) 537-7542","Phone_w":"(652) 181-0349","Address":"1715 Scott Dr","City":"Santa Fe","State":"CA"},{"Zip":"90031","LessThan10K":"0.23","MoreThan10K":"0.41","MoreThan25K":"0.26","MoreThan50K":"0.09","First":"Colby","Last":"Grigg","Phone_h":"(400) 495-0489","Phone_m":"(798) 271-7150","Phone_w":"(975) 168-8475","Address":"321 University Ave.","City":"San Mateo","State":"CA"},{"Zip":"90031","LessThan10K":"0.23","MoreThan10K":"0.41","MoreThan25K":"0.26","MoreThan50K":"0.09","First":"Abram","Last":"Sorrels","Phone_h":"(679) 923-3078","Phone_m":"(028) 013-4434","Phone_w":"(302) 458-2517","Address":"9 IBM Path","City":"Salt Lake City","State":"CA"},{"Zip":"90033","LessThan10K":"0.23","MoreThan10K":"0.47","MoreThan25K":"0.24","MoreThan50K":"0.05","First":"Jeannette","Last":"Stoddard","Phone_h":"(224) 250-9019","Phone_m":"(185) 012-9878","Phone_w":"(265) 428-3808","Address":"321 University Ave.","City":"San Jose","State":"CA"},{"Zip":"90033","LessThan10K":"0.23","MoreThan10K":"0.47","MoreThan25K":"0.24","MoreThan50K":"0.05","First":"Dane","Last":"Swallow","Phone_h":"(955) 946-5215","Phone_m":"(661) 756-7200","Phone_w":"(029) 817-8339","Address":"9 IBM Path","City":"Alabama","State":"CA"},{"Zip":"90037","LessThan10K":"0.24","MoreThan10K":"0.48","MoreThan25K":"0.23","MoreThan50K":"0.04","First":"Keneth","Last":"Giffin","Phone_h":"(810) 369-6189","Phone_m":"(769) 213-3383","Phone_w":"(135) 929-5719","Address":"1715 Scott Dr","City":"Salt Lake City","State":"CA"},{"Zip":"90037","LessThan10K":"0.24","MoreThan10K":"0.48","MoreThan25K":"0.23","MoreThan50K":"0.04","First":"Herb","Last":"Stoll","Phone_h":"(261) 411-5453","Phone_m":"(195) 899-6978","Phone_w":"(558) 531-8607","Address":"48920 San Carlos","City":"San Mateo","State":"CA"},{"Zip":"90038","LessThan10K":"0.21","MoreThan10K":"0.43","MoreThan25K":"0.26","MoreThan50K":"0.09","First":"Timothy","Last":"Dowdy","Phone_h":"(226) 224-4748","Phone_m":"(254) 316-5089","Phone_w":"(642) 308-3576","Address":"1715 Scott Dr","City":"Ohio","State":"CA"},{"Zip":"90038","LessThan10K":"0.21","MoreThan10K":"0.43","MoreThan25K":"0.26","MoreThan50K":"0.09","First":"Kelley","Last":"Larrick","Phone_h":"(209) 485-0554","Phone_m":"(623) 590-7759","Phone_w":"(978) 688-6195","Address":"9 IBM Path","City":"Sunnyvale","State":"CA"},{"Zip":"90044","LessThan10K":"0.23","MoreThan10K":"0.45","MoreThan25K":"0.25","MoreThan50K":"0.07","First":"Guy","Last":"Fluker","Phone_h":"(608) 178-1109","Phone_m":"(448) 520-3372","Phone_w":"(348) 517-9282","Address":"345 Sugar Blvd.","City":"San Francisco","State":"CA"},{"Zip":"90044","LessThan10K":"0.23","MoreThan10K":"0.45","MoreThan25K":"0.25","MoreThan50K":"0.07","First":"Lidia","Last":"Troxler","Phone_h":"(554) 012-2024","Phone_m":"(987) 990-1372","Phone_w":"(053) 581-1475","Address":"67321 West Siam St.","City":"Sunnyvale","State":"CA"}]},{"TargetData":[{"Zip":"90055","LessThan10K":"0.26","MoreThan10K":"0.41","MoreThan25K":"0.25","MoreThan50K":"0.08","First":"Ursula","Last":"Presnell","Phone_h":"(932) 992-3389","Phone_m":"(124) 765-8379","Phone_w":"(204) 067-4218","Address":"111 Silicon Valley Road","City":"Santa Fe","State":"CA"},{"Zip":"90055","LessThan10K":"0.26","MoreThan10K":"0.41","MoreThan25K":"0.25","MoreThan50K":"0.08","First":"Kristie","Last":"Fleming","Phone_h":"(959) 993-5689","Phone_m":"(105) 779-9268","Phone_w":"(148) 797-3285","Address":"111 Silicon Valley Road","City":"San Mateo","State":"CA"},{"Zip":"90057","LessThan10K":"0.24","MoreThan10K":"0.48","MoreThan25K":"0.22","MoreThan50K":"0.05","First":"Latonya","Last":"Gipe","Phone_h":"(937) 081-8314","Phone_m":"(204) 324-5916","Phone_w":"(586) 588-5722","Address":"777 West Filmore","City":"San Jose","State":"CA"},{"Zip":"90057","LessThan10K":"0.24","MoreThan10K":"0.48","MoreThan25K":"0.22","MoreThan50K":"0.05","First":"Christian","Last":"Leavens","Phone_h":"(906) 020-4056","Phone_m":"(827) 227-3482","Phone_w":"(646) 981-1231","Address":"1715 Scott Dr","City":"Denver","State":"CA"},{"Zip":"90058","LessThan10K":"0.24","MoreThan10K":"0.43","MoreThan25K":"0.21","MoreThan50K":"0.12","First":"Santo","Last":"Marro","Phone_h":"(517) 486-1537","Phone_m":"(459) 055-2767","Phone_w":"(929) 810-5452","Address":"999 Baker Way","City":"San Francisco","State":"CA"},{"Zip":"90058","LessThan10K":"0.24","MoreThan10K":"0.43","MoreThan25K":"0.21","MoreThan50K":"0.12","First":"Connie","Last":"Fishman","Phone_h":"(522) 245-6460","Phone_m":"(802) 313-1159","Phone_w":"(646) 681-5436","Address":"999 Baker Way","City":"Sunnyvale","State":"CA"},{"Zip":"90059","LessThan10K":"0.23","MoreThan10K":"0.44","MoreThan25K":"0.26","MoreThan50K":"0.07","First":"Jamison","Last":"Hershey","Phone_h":"(566) 015-6417","Phone_m":"(452) 452-8222","Phone_w":"(935) 193-8439","Address":"999 Baker Way","City":"Sunnyvale","State":"CA"},{"Zip":"90059","LessThan10K":"0.23","MoreThan10K":"0.44","MoreThan25K":"0.26","MoreThan50K":"0.07","First":"Camilla","Last":"Urbanski","Phone_h":"(463) 364-3319","Phone_m":"(810) 811-0087","Phone_w":"(196) 762-7596","Address":"67321 West Siam St.","City":"Santa Fe","State":"CA"},{"Zip":"90062","LessThan10K":"0.21","MoreThan10K":"0.41","MoreThan25K":"0.29","MoreThan50K":"0.09","First":"Pedro","Last":"Iles","Phone_h":"(053) 079-6468","Phone_m":"(128) 032-7079","Phone_w":"(560) 443-9184","Address":"321 University Ave.","City":"San Mateo","State":"CA"},{"Zip":"90062","LessThan10K":"0.21","MoreThan10K":"0.41","MoreThan25K":"0.29","MoreThan50K":"0.09","First":"Wally","Last":"Husby","Phone_h":"(865) 491-3316","Phone_m":"(863) 282-8355","Phone_w":"(736) 633-1534","Address":"321 University Ave.","City":"Salt Lake City","State":"CA"},{"Zip":"90070","LessThan10K":"0.22","MoreThan10K":"0.33","MoreThan25K":"0.32","MoreThan50K":"0.14","First":"Jesus","Last":"Leigh","Phone_h":"(250) 369-2999","Phone_m":"(046) 774-5724","Phone_w":"(902) 965-9775","Address":"999 Baker Way","City":"Santa Monica","State":"CA"},{"Zip":"90070","LessThan10K":"0.22","MoreThan10K":"0.33","MoreThan25K":"0.32","MoreThan50K":"0.14","First":"Nickolas","Last":"Velasco","Phone_h":"(859) 755-3540","Phone_m":"(906) 041-9564","Phone_w":"(621) 123-9410","Address":"9 IBM Path","City":"San Mateo","State":"CA"},{"Zip":"90078","LessThan10K":"0.24","MoreThan10K":"0.3","MoreThan25K":"0.29","MoreThan50K":"0.17","First":"Gregory","Last":"Meadors","Phone_h":"(087) 580-1059","Phone_m":"(560) 118-9099","Phone_w":"(180) 846-0872","Address":"111 Silicon Valley Road","City":"Denver","State":"CA"},{"Zip":"90078","LessThan10K":"0.24","MoreThan10K":"0.3","MoreThan25K":"0.29","MoreThan50K":"0.17","First":"Brandi","Last":"Severson","Phone_h":"(758) 674-7711","Phone_m":"(648) 915-9308","Phone_w":"(852) 193-0328","Address":"123 Anywhere Street","City":"San Mateo","State":"CA"},{"Zip":"90089","LessThan10K":"0.3","MoreThan10K":"0.34","MoreThan25K":"0.19","MoreThan50K":"0.16","First":"Greta","Last":"Cammack","Phone_h":"(111) 499-9600","Phone_m":"(569) 045-4612","Phone_w":"(066) 573-2797","Address":"48920 San Carlos","City":"St. Petersburg","State":"CA"},{"Zip":"90089","LessThan10K":"0.3","MoreThan10K":"0.34","MoreThan25K":"0.19","MoreThan50K":"0.16","First":"Granville","Last":"Cuevas","Phone_h":"(310) 210-5600","Phone_m":"(288) 708-1438","Phone_w":"(828) 611-4383","Address":"67321 West Siam St.","City":"Persistance","State":"CA"},{"Zip":"90093","LessThan10K":"0.24","MoreThan10K":"0.28","MoreThan25K":"0.32","MoreThan50K":"0.17","First":"Patricia","Last":"Hannan","Phone_h":"(867) 425-9648","Phone_m":"(748) 333-0212","Phone_w":"(632) 962-4089","Address":"777 West Filmore","City":"Alabama","State":"CA"},{"Zip":"90093","LessThan10K":"0.24","MoreThan10K":"0.28","MoreThan25K":"0.32","MoreThan50K":"0.17","First":"Rhea","Last":"Jefcoat","Phone_h":"(439) 340-4185","Phone_m":"(367) 926-3964","Phone_w":"(528) 339-6520","Address":"999 Baker Way","City":"San Jose","State":"CA"},{"Zip":"90263","LessThan10K":"0.63","MoreThan10K":"0.17","MoreThan25K":"0.11","MoreThan50K":"0.09","First":"Louise","Last":"Nitz","Phone_h":"(533) 934-4970","Phone_m":"(553) 063-7736","Phone_w":"(540) 915-5310","Address":"345 Sugar Blvd.","City":"Sunnyvale","State":"CA"},{"Zip":"90263","LessThan10K":"0.63","MoreThan10K":"0.17","MoreThan25K":"0.11","MoreThan50K":"0.09","First":"John","Last":"Desousa","Phone_h":"(822) 441-0214","Phone_m":"(441) 695-2941","Phone_w":"(168) 007-2464","Address":"1715 Scott Dr","City":"San Jose","State":"CA"},{"Zip":"90310","LessThan10K":"0.28","MoreThan10K":"0.31","MoreThan25K":"0.3","MoreThan50K":"0.11","First":"Federico","Last":"Tylor","Phone_h":"(637) 988-6622","Phone_m":"(732) 551-8715","Phone_w":"(390) 648-0992","Address":"777 West Filmore","City":"Santa Fe","State":"CA"},{"Zip":"90310","LessThan10K":"0.28","MoreThan10K":"0.31","MoreThan25K":"0.3","MoreThan50K":"0.11","First":"Genaro","Last":"Cousins","Phone_h":"(231) 926-9013","Phone_m":"(067) 140-1479","Phone_w":"(641) 870-5777","Address":"321 University Ave.","City":"Sunnyvale","State":"CA"}]},{"TargetData":[{"Zip":"90408","LessThan10K":"0.24","MoreThan10K":"0.18","MoreThan25K":"0.29","MoreThan50K":"0.3","First":"Marcelino","Last":"Scully","Phone_h":"(246) 931-0008","Phone_m":"(626) 158-0316","Phone_w":"(621) 896-3915","Address":"111 Silicon Valley Road","City":"Santa Monica","State":"CA"},{"Zip":"90408","LessThan10K":"0.24","MoreThan10K":"0.18","MoreThan25K":"0.29","MoreThan50K":"0.3","First":"Nathan","Last":"Yee","Phone_h":"(115) 085-9839","Phone_m":"(511) 376-1095","Phone_w":"(623) 759-8406","Address":"1715 Scott Dr","City":"Santa Monica","State":"CA"},{"Zip":"90813","LessThan10K":"0.25","MoreThan10K":"0.47","MoreThan25K":"0.23","MoreThan50K":"0.05","First":"Noe","Last":"Kellar","Phone_h":"(095) 618-0570","Phone_m":"(210) 471-9347","Phone_w":"(741) 937-1869","Address":"777 West Filmore","City":"Denver","State":"CA"},{"Zip":"90813","LessThan10K":"0.25","MoreThan10K":"0.47","MoreThan25K":"0.23","MoreThan50K":"0.05","First":"Earlene","Last":"Manns","Phone_h":"(996) 600-5133","Phone_m":"(961) 503-9038","Phone_w":"(060) 977-1453","Address":"9 IBM Path","City":"Kansas City","State":"CA"},{"Zip":"91114","LessThan10K":"0.22","MoreThan10K":"0.31","MoreThan25K":"0.31","MoreThan50K":"0.16","First":"Kennith","Last":"Wingert","Phone_h":"(614) 438-3932","Phone_m":"(476) 533-0654","Phone_w":"(684) 420-5479","Address":"1715 Scott Dr","City":"Santa Fe","State":"CA"},{"Zip":"91114","LessThan10K":"0.22","MoreThan10K":"0.31","MoreThan25K":"0.31","MoreThan50K":"0.16","First":"Faye","Last":"Graybill","Phone_h":"(928) 135-8358","Phone_m":"(820) 908-1317","Phone_w":"(556) 215-3877","Address":"345 Sugar Blvd.","City":"Alabama","State":"CA"},{"Zip":"91125","LessThan10K":"0.24","MoreThan10K":"0.5","MoreThan25K":"0.15","MoreThan50K":"0.11","First":"Coleman","Last":"Mclachlan","Phone_h":"(573) 325-5384","Phone_m":"(832) 854-2890","Phone_w":"(095) 691-0424","Address":"48920 San Carlos","City":"Persistance","State":"CA"},{"Zip":"91125","LessThan10K":"0.24","MoreThan10K":"0.5","MoreThan25K":"0.15","MoreThan50K":"0.11","First":"Myles","Last":"Tamplin","Phone_h":"(499) 716-3544","Phone_m":"(909) 705-3326","Phone_w":"(012) 668-1184","Address":"777 West Filmore","City":"Alabama","State":"CA"},{"Zip":"91205","LessThan10K":"0.24","MoreThan10K":"0.33","MoreThan25K":"0.28","MoreThan50K":"0.16","First":"Mikel","Last":"Dail","Phone_h":"(931) 830-4968","Phone_m":"(204) 356-5756","Phone_w":"(769) 559-4769","Address":"345 Sugar Blvd.","City":"San Mateo","State":"CA"},{"Zip":"91205","LessThan10K":"0.24","MoreThan10K":"0.33","MoreThan25K":"0.28","MoreThan50K":"0.16","First":"Elsa","Last":"Carmona","Phone_h":"(784) 323-3143","Phone_m":"(764) 948-5943","Phone_w":"(681) 608-8436","Address":"777 West Filmore","City":"Kansas City","State":"CA"},{"Zip":"91305","LessThan10K":"0.24","MoreThan10K":"0.27","MoreThan25K":"0.35","MoreThan50K":"0.14","First":"Ola","Last":"Schwarz","Phone_h":"(125) 262-4476","Phone_m":"(669) 046-6589","Phone_w":"(290) 660-6926","Address":"321 University Ave.","City":"Santa Fe","State":"CA"},{"Zip":"91305","LessThan10K":"0.24","MoreThan10K":"0.27","MoreThan25K":"0.35","MoreThan50K":"0.14","First":"Guadalupe","Last":"Feemster","Phone_h":"(186) 414-2211","Phone_m":"(878) 241-5030","Phone_w":"(593) 413-3513","Address":"777 West Filmore","City":"Alabama","State":"CA"},{"Zip":"91330","LessThan10K":"0.45","MoreThan10K":"0.23","MoreThan25K":"0.23","MoreThan50K":"0.09","First":"Betsy","Last":"Fujimoto","Phone_h":"(091) 919-6769","Phone_m":"(241) 668-6621","Phone_w":"(169) 481-0423","Address":"321 University Ave.","City":"Denver","State":"CA"},{"Zip":"91330","LessThan10K":"0.45","MoreThan10K":"0.23","MoreThan25K":"0.23","MoreThan50K":"0.09","First":"Milton","Last":"Hug","Phone_h":"(228) 131-5180","Phone_m":"(653) 751-8796","Phone_w":"(934) 291-1645","Address":"777 West Filmore","City":"Ohio","State":"CA"},{"Zip":"91603","LessThan10K":"0.21","MoreThan10K":"0.25","MoreThan25K":"0.31","MoreThan50K":"0.23","First":"Tommy","Last":"Garretson","Phone_h":"(849) 803-7087","Phone_m":"(987) 524-8277","Phone_w":"(618) 400-3338","Address":"1715 Scott Dr","City":"Salt Lake City","State":"CA"},{"Zip":"91603","LessThan10K":"0.21","MoreThan10K":"0.25","MoreThan25K":"0.31","MoreThan50K":"0.23","First":"Laurence","Last":"Cheng","Phone_h":"(086) 816-6839","Phone_m":"(099) 244-5443","Phone_w":"(534) 882-0424","Address":"9 IBM Path","City":"San Mateo","State":"CA"},{"Zip":"91733","LessThan10K":"0.21","MoreThan10K":"0.42","MoreThan25K":"0.27","MoreThan50K":"0.1","First":"Marc","Last":"Boysen","Phone_h":"(010) 310-1491","Phone_m":"(163) 479-3800","Phone_w":"(932) 176-5790","Address":"123 Anywhere Street","City":"St. Petersburg","State":"CA"},{"Zip":"91733","LessThan10K":"0.21","MoreThan10K":"0.42","MoreThan25K":"0.27","MoreThan50K":"0.1","First":"Charmaine","Last":"Jenning","Phone_h":"(362) 327-7575","Phone_m":"(637) 726-3982","Phone_w":"(787) 206-6425","Address":"9 IBM Path","City":"Denver","State":"CA"},{"Zip":"91755","LessThan10K":"0.21","MoreThan10K":"0.29","MoreThan25K":"0.27","MoreThan50K":"0.23","First":"Johnnie","Last":"Clark","Phone_h":"(908) 303-8722","Phone_m":"(853) 004-3979","Phone_w":"(292) 182-1269","Address":"9 IBM Path","City":"Cupertino","State":"CA"},{"Zip":"91755","LessThan10K":"0.21","MoreThan10K":"0.29","MoreThan25K":"0.27","MoreThan50K":"0.23","First":"Casandra","Last":"Lung","Phone_h":"(649) 658-7938","Phone_m":"(406) 409-7423","Phone_w":"(674) 046-0599","Address":"999 Baker Way","City":"San Francisco","State":"CA"},{"Zip":"91770","LessThan10K":"0.22","MoreThan10K":"0.34","MoreThan25K":"0.28","MoreThan50K":"0.16","First":"Beth","Last":"Hitchens","Phone_h":"(535) 927-5262","Phone_m":"(618) 800-2363","Phone_w":"(847) 865-9775","Address":"123 Anywhere Street","City":"Kansas City","State":"CA"},{"Zip":"91770","LessThan10K":"0.22","MoreThan10K":"0.34","MoreThan25K":"0.28","MoreThan50K":"0.16","First":"Shari","Last":"Ruffner","Phone_h":"(064) 589-4611","Phone_m":"(935) 116-0828","Phone_w":"(980) 474-6169","Address":"67321 West Siam St.","City":"Santa Fe","State":"CA"}]},{"TargetData":[{"Zip":"91776","LessThan10K":"0.21","MoreThan10K":"0.32","MoreThan25K":"0.29","MoreThan50K":"0.18","First":"Neal","Last":"Hubbard","Phone_h":"(545) 599-8500","Phone_m":"(323) 957-8380","Phone_w":"(083) 775-2105","Address":"345 Sugar Blvd.","City":"Ohio","State":"CA"},{"Zip":"91776","LessThan10K":"0.21","MoreThan10K":"0.32","MoreThan25K":"0.29","MoreThan50K":"0.18","First":"Jimmie","Last":"Curry","Phone_h":"(327) 111-3094","Phone_m":"(122) 425-7313","Phone_w":"(326) 321-0865","Address":"111 Silicon Valley Road","City":"St. Petersburg","State":"CA"},{"Zip":"91785","LessThan10K":"0.23","MoreThan10K":"0.2","MoreThan25K":"0.27","MoreThan50K":"0.3","First":"Martina","Last":"Mathias","Phone_h":"(144) 480-3291","Phone_m":"(203) 435-8312","Phone_w":"(283) 341-0564","Address":"123 Anywhere Street","City":"Ohio","State":"CA"},{"Zip":"91785","LessThan10K":"0.23","MoreThan10K":"0.2","MoreThan25K":"0.27","MoreThan50K":"0.3","First":"Jeanine","Last":"Kula","Phone_h":"(086) 399-9539","Phone_m":"(981) 840-7908","Phone_w":"(931) 190-6505","Address":"48920 San Carlos","City":"Salt Lake City","State":"CA"},{"Zip":"91934","LessThan10K":"0.24","MoreThan10K":"0.3","MoreThan25K":"0.29","MoreThan50K":"0.17","First":"Concetta","Last":"Landers","Phone_h":"(260) 264-0997","Phone_m":"(639) 025-8219","Phone_w":"(652) 263-7287","Address":"321 University Ave.","City":"Los Angeles","State":"CA"},{"Zip":"91934","LessThan10K":"0.24","MoreThan10K":"0.3","MoreThan25K":"0.29","MoreThan50K":"0.17","First":"Anastasia","Last":"Delosreyes","Phone_h":"(736) 413-2026","Phone_m":"(854) 907-1294","Phone_w":"(773) 831-3571","Address":"321 University Ave.","City":"Cupertino","State":"CA"},{"Zip":"91963","LessThan10K":"0.21","MoreThan10K":"0.32","MoreThan25K":"0.27","MoreThan50K":"0.21","First":"Quentin","Last":"Blackmore","Phone_h":"(897) 288-0908","Phone_m":"(055) 620-4083","Phone_w":"(765) 089-5081","Address":"9 IBM Path","City":"San Mateo","State":"CA"},{"Zip":"91963","LessThan10K":"0.21","MoreThan10K":"0.32","MoreThan25K":"0.27","MoreThan50K":"0.21","First":"Rhonda","Last":"Mckee","Phone_h":"(081) 547-8300","Phone_m":"(048) 688-2987","Phone_w":"(521) 088-5581","Address":"321 University Ave.","City":"Persistance","State":"CA"},{"Zip":"91980","LessThan10K":"0.21","MoreThan10K":"0.51","MoreThan25K":"0.23","MoreThan50K":"0.05","First":"Gregory","Last":"Bangs","Phone_h":"(941) 178-2903","Phone_m":"(683) 652-3019","Phone_w":"(461) 167-2227","Address":"321 University Ave.","City":"St. Petersburg","State":"CA"},{"Zip":"91980","LessThan10K":"0.21","MoreThan10K":"0.51","MoreThan25K":"0.23","MoreThan50K":"0.05","First":"Charles","Last":"Sisneros","Phone_h":"(486) 725-9234","Phone_m":"(859) 785-1149","Phone_w":"(369) 284-9601","Address":"999 Baker Way","City":"Ohio","State":"CA"},{"Zip":"92105","LessThan10K":"0.22","MoreThan10K":"0.41","MoreThan25K":"0.27","MoreThan50K":"0.1","First":"Dorian","Last":"Bean","Phone_h":"(928) 408-2982","Phone_m":"(560) 569-5860","Phone_w":"(153) 683-3140","Address":"345 Sugar Blvd.","City":"Kansas City","State":"CA"},{"Zip":"92105","LessThan10K":"0.22","MoreThan10K":"0.41","MoreThan25K":"0.27","MoreThan50K":"0.1","First":"Lenny","Last":"Guillotte","Phone_h":"(153) 560-9978","Phone_m":"(649) 038-8113","Phone_w":"(047) 792-7156","Address":"1715 Scott Dr","City":"Salt Lake City","State":"CA"},{"Zip":"92112","LessThan10K":"0.21","MoreThan10K":"0.37","MoreThan25K":"0.25","MoreThan50K":"0.17","First":"Essie","Last":"Schantz","Phone_h":"(068) 688-5731","Phone_m":"(288) 508-2176","Phone_w":"(306) 467-1072","Address":"777 West Filmore","City":"San Jose","State":"CA"},{"Zip":"92112","LessThan10K":"0.21","MoreThan10K":"0.37","MoreThan25K":"0.25","MoreThan50K":"0.17","First":"Dorothy","Last":"Grosz","Phone_h":"(703) 774-6996","Phone_m":"(472) 587-6132","Phone_w":"(650) 829-6343","Address":"345 Sugar Blvd.","City":"Alabama","State":"CA"},{"Zip":"92113","LessThan10K":"0.22","MoreThan10K":"0.46","MoreThan25K":"0.26","MoreThan50K":"0.06","First":"Terence","Last":"Whitchurch","Phone_h":"(155) 251-7106","Phone_m":"(672) 083-6885","Phone_w":"(442) 957-2100","Address":"123 Anywhere Street","City":"Santa Fe","State":"CA"},{"Zip":"92113","LessThan10K":"0.22","MoreThan10K":"0.46","MoreThan25K":"0.26","MoreThan50K":"0.06","First":"Rosendo","Last":"Markowitz","Phone_h":"(835) 008-8659","Phone_m":"(848) 067-8091","Phone_w":"(043) 317-9409","Address":"777 West Filmore","City":"Kansas City","State":"CA"},{"Zip":"92162","LessThan10K":"0.21","MoreThan10K":"0.29","MoreThan25K":"0.36","MoreThan50K":"0.14","First":"Mavis","Last":"Peralta","Phone_h":"(682) 057-4691","Phone_m":"(284) 655-1377","Phone_w":"(045) 053-7892","Address":"777 West Filmore","City":"Santa Fe","State":"CA"},{"Zip":"92162","LessThan10K":"0.21","MoreThan10K":"0.29","MoreThan25K":"0.36","MoreThan50K":"0.14","First":"Benito","Last":"Monge","Phone_h":"(017) 400-0084","Phone_m":"(419) 597-9420","Phone_w":"(305) 459-3448","Address":"1715 Scott Dr","City":"San Francisco","State":"CA"},{"Zip":"92173","LessThan10K":"0.22","MoreThan10K":"0.45","MoreThan25K":"0.25","MoreThan50K":"0.08","First":"Rich","Last":"Rambert","Phone_h":"(989) 391-0404","Phone_m":"(935) 012-4296","Phone_w":"(398) 695-8855","Address":"67321 West Siam St.","City":"Salt Lake City","State":"CA"},{"Zip":"92173","LessThan10K":"0.22","MoreThan10K":"0.45","MoreThan25K":"0.25","MoreThan50K":"0.08","First":"Stella","Last":"Bunting","Phone_h":"(651) 863-0868","Phone_m":"(513) 830-0955","Phone_w":"(638) 052-6329","Address":"321 University Ave.","City":"Cupertino","State":"CA"},{"Zip":"92202","LessThan10K":"0.21","MoreThan10K":"0.45","MoreThan25K":"0.26","MoreThan50K":"0.08","First":"Timothy","Last":"Navarette","Phone_h":"(116) 521-5653","Phone_m":"(326) 100-4366","Phone_w":"(307) 092-0989","Address":"1715 Scott Dr","City":"Denver","State":"CA"},{"Zip":"92202","LessThan10K":"0.21","MoreThan10K":"0.45","MoreThan25K":"0.26","MoreThan50K":"0.08","First":"Victoria","Last":"Principato","Phone_h":"(788) 410-9531","Phone_m":"(669) 176-8202","Phone_w":"(141) 877-4411","Address":"111 Silicon Valley Road","City":"Persistance","State":"CA"}]},{"TargetData":[{"Zip":"92203","LessThan10K":"0.23","MoreThan10K":"0.39","MoreThan25K":"0.25","MoreThan50K":"0.13","First":"Beau","Last":"Byrnes","Phone_h":"(222) 657-9010","Phone_m":"(780) 849-7642","Phone_w":"(238) 867-5234","Address":"321 University Ave.","City":"Denver","State":"CA"},{"Zip":"92203","LessThan10K":"0.23","MoreThan10K":"0.39","MoreThan25K":"0.25","MoreThan50K":"0.13","First":"Shannon","Last":"Bays","Phone_h":"(345) 874-8658","Phone_m":"(467) 153-1294","Phone_w":"(705) 274-3391","Address":"111 Silicon Valley Road","City":"Santa Monica","State":"CA"},{"Zip":"92225","LessThan10K":"0.22","MoreThan10K":"0.29","MoreThan25K":"0.23","MoreThan50K":"0.26","First":"Adolfo","Last":"Gabbard","Phone_h":"(190) 059-1752","Phone_m":"(205) 471-3081","Phone_w":"(815) 714-9839","Address":"48920 San Carlos","City":"Kansas City","State":"CA"},{"Zip":"92225","LessThan10K":"0.22","MoreThan10K":"0.29","MoreThan25K":"0.23","MoreThan50K":"0.26","First":"Marylou","Last":"Dominguez","Phone_h":"(963) 536-3261","Phone_m":"(901) 521-1847","Phone_w":"(746) 734-9592","Address":"321 University Ave.","City":"San Jose","State":"CA"},{"Zip":"92227","LessThan10K":"0.25","MoreThan10K":"0.31","MoreThan25K":"0.23","MoreThan50K":"0.22","First":"Elijah","Last":"Winder","Phone_h":"(536) 579-1768","Phone_m":"(041) 337-8957","Phone_w":"(175) 809-9451","Address":"1715 Scott Dr","City":"San Mateo","State":"CA"},{"Zip":"92227","LessThan10K":"0.25","MoreThan10K":"0.31","MoreThan25K":"0.23","MoreThan50K":"0.22","First":"Chris","Last":"Carnevale","Phone_h":"(197) 204-8141","Phone_m":"(213) 485-5067","Phone_w":"(134) 782-2667","Address":"9 IBM Path","City":"Salt Lake City","State":"CA"},{"Zip":"92230","LessThan10K":"0.25","MoreThan10K":"0.4","MoreThan25K":"0.24","MoreThan50K":"0.11","First":"Esperanza","Last":"Escarcega","Phone_h":"(091) 121-6868","Phone_m":"(959) 599-1256","Phone_w":"(142) 837-4369","Address":"777 West Filmore","City":"Cupertino","State":"CA"},{"Zip":"92230","LessThan10K":"0.25","MoreThan10K":"0.4","MoreThan25K":"0.24","MoreThan50K":"0.11","First":"Lorenzo","Last":"Keech","Phone_h":"(461) 682-8843","Phone_m":"(426) 558-2927","Phone_w":"(412) 530-3605","Address":"777 West Filmore","City":"San Jose","State":"CA"},{"Zip":"92231","LessThan10K":"0.35","MoreThan10K":"0.41","MoreThan25K":"0.16","MoreThan50K":"0.08","First":"Lindsay","Last":"Holst","Phone_h":"(573) 101-0974","Phone_m":"(217) 592-3866","Phone_w":"(514) 992-1564","Address":"999 Baker Way","City":"Alabama","State":"CA"},{"Zip":"92231","LessThan10K":"0.35","MoreThan10K":"0.41","MoreThan25K":"0.16","MoreThan50K":"0.08","First":"Greta","Last":"Carreras","Phone_h":"(812) 780-1243","Phone_m":"(525) 388-9881","Phone_w":"(219) 315-7156","Address":"123 Anywhere Street","City":"Ohio","State":"CA"},{"Zip":"92232","LessThan10K":"0.3","MoreThan10K":"0.43","MoreThan25K":"0.19","MoreThan50K":"0.07","First":"Brent","Last":"Pigg","Phone_h":"(250) 584-6924","Phone_m":"(519) 265-7681","Phone_w":"(486) 148-8440","Address":"67321 West Siam St.","City":"Denver","State":"CA"},{"Zip":"92232","LessThan10K":"0.3","MoreThan10K":"0.43","MoreThan25K":"0.19","MoreThan50K":"0.07","First":"Gerald","Last":"Eliason","Phone_h":"(197) 592-6577","Phone_m":"(078) 556-3026","Phone_w":"(026) 216-6495","Address":"777 West Filmore","City":"Santa Fe","State":"CA"},{"Zip":"92233","LessThan10K":"0.26","MoreThan10K":"0.28","MoreThan25K":"0.26","MoreThan50K":"0.21","First":"Flora","Last":"Schmid","Phone_h":"(706) 064-0131","Phone_m":"(440) 260-5019","Phone_w":"(782) 168-1411","Address":"777 West Filmore","City":"Santa Monica","State":"CA"},{"Zip":"92233","LessThan10K":"0.26","MoreThan10K":"0.28","MoreThan25K":"0.26","MoreThan50K":"0.21","First":"Cecil","Last":"Freel","Phone_h":"(604) 066-4954","Phone_m":"(189) 345-9345","Phone_w":"(973) 097-5121","Address":"999 Baker Way","City":"Salt Lake City","State":"CA"},{"Zip":"92236","LessThan10K":"0.24","MoreThan10K":"0.48","MoreThan25K":"0.23","MoreThan50K":"0.05","First":"Cliff","Last":"Fridley","Phone_h":"(432) 400-0410","Phone_m":"(643) 743-0143","Phone_w":"(754) 922-5775","Address":"48920 San Carlos","City":"Denver","State":"CA"},{"Zip":"92236","LessThan10K":"0.24","MoreThan10K":"0.48","MoreThan25K":"0.23","MoreThan50K":"0.05","First":"Alissa","Last":"Villanueva","Phone_h":"(873) 491-2135","Phone_m":"(395) 305-4472","Phone_w":"(009) 715-2548","Address":"111 Silicon Valley Road","City":"Los Angeles","State":"CA"},{"Zip":"92240","LessThan10K":"0.21","MoreThan10K":"0.39","MoreThan25K":"0.27","MoreThan50K":"0.13","First":"Janna","Last":"Scherr","Phone_h":"(501) 319-7254","Phone_m":"(115) 569-6043","Phone_w":"(486) 930-7066","Address":"1715 Scott Dr","City":"Ohio","State":"CA"},{"Zip":"92240","LessThan10K":"0.21","MoreThan10K":"0.39","MoreThan25K":"0.27","MoreThan50K":"0.13","First":"Opal","Last":"Remick","Phone_h":"(137) 483-6528","Phone_m":"(199) 284-7327","Phone_w":"(682) 624-3658","Address":"345 Sugar Blvd.","City":"Salt Lake City","State":"CA"},{"Zip":"92242","LessThan10K":"0.21","MoreThan10K":"0.37","MoreThan25K":"0.24","MoreThan50K":"0.17","First":"Lemuel","Last":"Gowin","Phone_h":"(398) 642-3515","Phone_m":"(356) 989-7692","Phone_w":"(050) 047-7166","Address":"111 Silicon Valley Road","City":"Los Angeles","State":"CA"},{"Zip":"92242","LessThan10K":"0.21","MoreThan10K":"0.37","MoreThan25K":"0.24","MoreThan50K":"0.17","First":"Harris","Last":"Brister","Phone_h":"(399) 711-5567","Phone_m":"(851) 062-6918","Phone_w":"(304) 931-7734","Address":"123 Anywhere Street","City":"Santa Fe","State":"CA"},{"Zip":"92243","LessThan10K":"0.24","MoreThan10K":"0.33","MoreThan25K":"0.22","MoreThan50K":"0.21","First":"Stuart","Last":"Fikes","Phone_h":"(520) 611-1940","Phone_m":"(393) 826-6622","Phone_w":"(568) 429-7606","Address":"999 Baker Way","City":"San Mateo","State":"CA"},{"Zip":"92243","LessThan10K":"0.24","MoreThan10K":"0.33","MoreThan25K":"0.22","MoreThan50K":"0.21","First":"Barry","Last":"Mateer","Phone_h":"(519) 647-8453","Phone_m":"(581) 731-3206","Phone_w":"(634) 062-8177","Address":"999 Baker Way","City":"Ohio","State":"CA"}]},{"TargetData":[{"Zip":"92249","LessThan10K":"0.27","MoreThan10K":"0.39","MoreThan25K":"0.23","MoreThan50K":"0.11","First":"Armando","Last":"Loredo","Phone_h":"(731) 100-0523","Phone_m":"(183) 582-5999","Phone_w":"(226) 210-0339","Address":"777 West Filmore","City":"Salt Lake City","State":"CA"},{"Zip":"92249","LessThan10K":"0.27","MoreThan10K":"0.39","MoreThan25K":"0.23","MoreThan50K":"0.11","First":"Harley","Last":"Myler","Phone_h":"(290) 371-7348","Phone_m":"(229) 320-6596","Phone_w":"(827) 514-5503","Address":"1715 Scott Dr","City":"San Jose","State":"CA"},{"Zip":"92250","LessThan10K":"0.21","MoreThan10K":"0.32","MoreThan25K":"0.25","MoreThan50K":"0.22","First":"Florencio","Last":"Spradley","Phone_h":"(265) 642-9440","Phone_m":"(173) 441-6423","Phone_w":"(683) 880-1264","Address":"345 Sugar Blvd.","City":"Los Angeles","State":"CA"},{"Zip":"92250","LessThan10K":"0.21","MoreThan10K":"0.32","MoreThan25K":"0.25","MoreThan50K":"0.22","First":"Ignacio","Last":"Walt","Phone_h":"(225) 356-5776","Phone_m":"(480) 714-8634","Phone_w":"(507) 047-1108","Address":"123 Anywhere Street","City":"Ohio","State":"CA"},{"Zip":"92252","LessThan10K":"0.22","MoreThan10K":"0.32","MoreThan25K":"0.27","MoreThan50K":"0.19","First":"Hector","Last":"Harlow","Phone_h":"(070) 027-5672","Phone_m":"(579) 504-1361","Phone_w":"(313) 906-7913","Address":"123 Anywhere Street","City":"San Jose","State":"CA"},{"Zip":"92252","LessThan10K":"0.22","MoreThan10K":"0.32","MoreThan25K":"0.27","MoreThan50K":"0.19","First":"Richie","Last":"Stpeter","Phone_h":"(293) 706-9242","Phone_m":"(802) 989-9978","Phone_w":"(289) 772-5801","Address":"345 Sugar Blvd.","City":"Persistance","State":"CA"},{"Zip":"92254","LessThan10K":"0.31","MoreThan10K":"0.53","MoreThan25K":"0.14","MoreThan50K":"0.02","First":"Larry","Last":"Mozee","Phone_h":"(690) 506-2381","Phone_m":"(097) 100-8741","Phone_w":"(703) 291-2257","Address":"9 IBM Path","City":"Denver","State":"CA"},{"Zip":"92254","LessThan10K":"0.31","MoreThan10K":"0.53","MoreThan25K":"0.14","MoreThan50K":"0.02","First":"Carissa","Last":"Miceli","Phone_h":"(317) 650-3284","Phone_m":"(764) 009-8980","Phone_w":"(237) 471-8569","Address":"67321 West Siam St.","City":"Salt Lake City","State":"CA"},{"Zip":"92257","LessThan10K":"0.29","MoreThan10K":"0.35","MoreThan25K":"0.24","MoreThan50K":"0.12","First":"Lesa","Last":"Absher","Phone_h":"(712) 256-2288","Phone_m":"(182) 719-4911","Phone_w":"(228) 542-4463","Address":"123 Anywhere Street","City":"Kansas City","State":"CA"},{"Zip":"92257","LessThan10K":"0.29","MoreThan10K":"0.35","MoreThan25K":"0.24","MoreThan50K":"0.12","First":"Marylou","Last":"Acklin","Phone_h":"(592) 858-0593","Phone_m":"(446) 732-1037","Phone_w":"(710) 491-6146","Address":"1715 Scott Dr","City":"Santa Fe","State":"CA"},{"Zip":"92258","LessThan10K":"0.27","MoreThan10K":"0.43","MoreThan25K":"0.23","MoreThan50K":"0.07","First":"Judi","Last":"Leppert","Phone_h":"(890) 497-2101","Phone_m":"(748) 939-3520","Phone_w":"(349) 108-2437","Address":"111 Silicon Valley Road","City":"Kansas City","State":"CA"},{"Zip":"92258","LessThan10K":"0.27","MoreThan10K":"0.43","MoreThan25K":"0.23","MoreThan50K":"0.07","First":"Orlando","Last":"Lupo","Phone_h":"(886) 810-0831","Phone_m":"(983) 429-8747","Phone_w":"(716) 990-4247","Address":"321 University Ave.","City":"Santa Fe","State":"CA"},{"Zip":"92266","LessThan10K":"0.32","MoreThan10K":"0.32","MoreThan25K":"0.22","MoreThan50K":"0.14","First":"Marilyn","Last":"Raine","Phone_h":"(581) 197-1931","Phone_m":"(764) 274-7513","Phone_w":"(341) 426-1793","Address":"1715 Scott Dr","City":"Sunnyvale","State":"CA"},{"Zip":"92266","LessThan10K":"0.32","MoreThan10K":"0.32","MoreThan25K":"0.22","MoreThan50K":"0.14","First":"Shelia","Last":"Lane","Phone_h":"(662) 481-1808","Phone_m":"(933) 676-2995","Phone_w":"(808) 281-5277","Address":"345 Sugar Blvd.","City":"San Francisco","State":"CA"},{"Zip":"92273","LessThan10K":"0.23","MoreThan10K":"0.35","MoreThan25K":"0.3","MoreThan50K":"0.12","First":"Kristopher","Last":"Robles","Phone_h":"(847) 582-9714","Phone_m":"(603) 119-0152","Phone_w":"(569) 940-9363","Address":"67321 West Siam St.","City":"Ohio","State":"CA"},{"Zip":"92273","LessThan10K":"0.23","MoreThan10K":"0.35","MoreThan25K":"0.3","MoreThan50K":"0.12","First":"Leona","Last":"Tiggs","Phone_h":"(000) 563-5206","Phone_m":"(457) 204-5267","Phone_w":"(052) 628-3225","Address":"1715 Scott Dr","City":"Denver","State":"CA"},{"Zip":"92274","LessThan10K":"0.26","MoreThan10K":"0.5","MoreThan25K":"0.19","MoreThan50K":"0.05","First":"Andrea","Last":"Shisler","Phone_h":"(047) 831-3220","Phone_m":"(058) 474-7169","Phone_w":"(238) 370-5898","Address":"1715 Scott Dr","City":"Kansas City","State":"CA"},{"Zip":"92274","LessThan10K":"0.26","MoreThan10K":"0.5","MoreThan25K":"0.19","MoreThan50K":"0.05","First":"Faith","Last":"Tuthill","Phone_h":"(027) 477-8184","Phone_m":"(029) 215-8444","Phone_w":"(222) 888-1045","Address":"345 Sugar Blvd.","City":"Kansas City","State":"CA"},{"Zip":"92275","LessThan10K":"0.22","MoreThan10K":"0.34","MoreThan25K":"0.28","MoreThan50K":"0.16","First":"Rosario","Last":"Metzger","Phone_h":"(669) 362-7469","Phone_m":"(264) 486-4879","Phone_w":"(946) 181-1140","Address":"9 IBM Path","City":"Sunnyvale","State":"CA"},{"Zip":"92275","LessThan10K":"0.22","MoreThan10K":"0.34","MoreThan25K":"0.28","MoreThan50K":"0.16","First":"Cesar","Last":"Mcdermott","Phone_h":"(194) 228-9628","Phone_m":"(603) 589-0689","Phone_w":"(882) 159-7534","Address":"345 Sugar Blvd.","City":"St. Petersburg","State":"CA"},{"Zip":"92281","LessThan10K":"0.24","MoreThan10K":"0.38","MoreThan25K":"0.25","MoreThan50K":"0.12","First":"Aurora","Last":"Gafford","Phone_h":"(417) 905-7167","Phone_m":"(928) 295-5625","Phone_w":"(080) 879-7948","Address":"1715 Scott Dr","City":"Ohio","State":"CA"},{"Zip":"92281","LessThan10K":"0.24","MoreThan10K":"0.38","MoreThan25K":"0.25","MoreThan50K":"0.12","First":"Bridgett","Last":"Sisler","Phone_h":"(238) 993-6953","Phone_m":"(216) 569-1883","Phone_w":"(410) 707-2680","Address":"48920 San Carlos","City":"St. Petersburg","State":"CA"}]},{"TargetData":[{"Zip":"92283","LessThan10K":"0.26","MoreThan10K":"0.47","MoreThan25K":"0.21","MoreThan50K":"0.06","First":"Isiah","Last":"Kapoor","Phone_h":"(405) 705-1484","Phone_m":"(854) 470-0598","Phone_w":"(550) 877-0883","Address":"67321 West Siam St.","City":"Alabama","State":"CA"},{"Zip":"92283","LessThan10K":"0.26","MoreThan10K":"0.47","MoreThan25K":"0.21","MoreThan50K":"0.06","First":"Ethan","Last":"Rodriquez","Phone_h":"(785) 261-6070","Phone_m":"(009) 412-4496","Phone_w":"(831) 984-3556","Address":"111 Silicon Valley Road","City":"Los Angeles","State":"CA"},{"Zip":"92284","LessThan10K":"0.21","MoreThan10K":"0.27","MoreThan25K":"0.28","MoreThan50K":"0.24","First":"Marlin","Last":"Delamora","Phone_h":"(477) 712-1756","Phone_m":"(108) 597-6917","Phone_w":"(734) 833-9797","Address":"9 IBM Path","City":"Los Angeles","State":"CA"},{"Zip":"92284","LessThan10K":"0.21","MoreThan10K":"0.27","MoreThan25K":"0.28","MoreThan50K":"0.24","First":"Adrienne","Last":"Flournoy","Phone_h":"(673) 359-8102","Phone_m":"(738) 794-4548","Phone_w":"(577) 949-0804","Address":"345 Sugar Blvd.","City":"Ohio","State":"CA"},{"Zip":"92285","LessThan10K":"0.26","MoreThan10K":"0.38","MoreThan25K":"0.26","MoreThan50K":"0.1","First":"Dwayne","Last":"Remley","Phone_h":"(430) 267-9796","Phone_m":"(651) 078-8811","Phone_w":"(668) 739-0568","Address":"9 IBM Path","City":"Los Angeles","State":"CA"},{"Zip":"92285","LessThan10K":"0.26","MoreThan10K":"0.38","MoreThan25K":"0.26","MoreThan50K":"0.1","First":"Robyn","Last":"Shepherd","Phone_h":"(047) 258-3230","Phone_m":"(655) 921-3075","Phone_w":"(760) 327-7202","Address":"777 West Filmore","City":"Ohio","State":"CA"},{"Zip":"92311","LessThan10K":"0.21","MoreThan10K":"0.27","MoreThan25K":"0.27","MoreThan50K":"0.26","First":"Newton","Last":"Lora","Phone_h":"(121) 031-4008","Phone_m":"(432) 189-0013","Phone_w":"(787) 470-5656","Address":"1715 Scott Dr","City":"Los Angeles","State":"CA"},{"Zip":"92311","LessThan10K":"0.21","MoreThan10K":"0.27","MoreThan25K":"0.27","MoreThan50K":"0.26","First":"Alexis","Last":"Woolard","Phone_h":"(462) 487-1965","Phone_m":"(417) 645-9428","Phone_w":"(631) 115-4623","Address":"111 Silicon Valley Road","City":"San Francisco","State":"CA"},{"Zip":"92314","LessThan10K":"0.22","MoreThan10K":"0.25","MoreThan25K":"0.25","MoreThan50K":"0.27","First":"Nita","Last":"Puleo","Phone_h":"(064) 774-7773","Phone_m":"(831) 355-5360","Phone_w":"(036) 312-3516","Address":"9 IBM Path","City":"Sunnyvale","State":"CA"},{"Zip":"92314","LessThan10K":"0.22","MoreThan10K":"0.25","MoreThan25K":"0.25","MoreThan50K":"0.27","First":"Coleman","Last":"Krell","Phone_h":"(535) 969-5188","Phone_m":"(638) 164-7674","Phone_w":"(876) 555-4448","Address":"777 West Filmore","City":"Cupertino","State":"CA"},{"Zip":"92315","LessThan10K":"0.22","MoreThan10K":"0.27","MoreThan25K":"0.24","MoreThan50K":"0.27","First":"Nigel","Last":"Mcgrail","Phone_h":"(565) 919-4439","Phone_m":"(016) 733-5222","Phone_w":"(746) 848-7437","Address":"123 Anywhere Street","City":"Ohio","State":"CA"},{"Zip":"92315","LessThan10K":"0.22","MoreThan10K":"0.27","MoreThan25K":"0.24","MoreThan50K":"0.27","First":"Patti","Last":"Willeford","Phone_h":"(176) 639-4510","Phone_m":"(406) 121-9613","Phone_w":"(066) 941-3958","Address":"345 Sugar Blvd.","City":"Denver","State":"CA"},{"Zip":"92321","LessThan10K":"0.25","MoreThan10K":"0.27","MoreThan25K":"0.21","MoreThan50K":"0.27","First":"Magdalena","Last":"Vanhoy","Phone_h":"(502) 060-7790","Phone_m":"(070) 504-9713","Phone_w":"(208) 614-8061","Address":"345 Sugar Blvd.","City":"Santa Fe","State":"CA"},{"Zip":"92321","LessThan10K":"0.25","MoreThan10K":"0.27","MoreThan25K":"0.21","MoreThan50K":"0.27","First":"Kimberly","Last":"Mccowan","Phone_h":"(368) 940-7423","Phone_m":"(034) 483-7937","Phone_w":"(861) 179-9585","Address":"111 Silicon Valley Road","City":"Sunnyvale","State":"CA"},{"Zip":"92341","LessThan10K":"0.23","MoreThan10K":"0.21","MoreThan25K":"0.19","MoreThan50K":"0.37","First":"Wilber","Last":"Linthicum","Phone_h":"(665) 999-4953","Phone_m":"(915) 317-1136","Phone_w":"(142) 102-7001","Address":"777 West Filmore","City":"Persistance","State":"CA"},{"Zip":"92341","LessThan10K":"0.23","MoreThan10K":"0.21","MoreThan25K":"0.19","MoreThan50K":"0.37","First":"Tracey","Last":"Langley","Phone_h":"(473) 111-8303","Phone_m":"(951) 893-7050","Phone_w":"(381) 710-9919","Address":"9 IBM Path","City":"Salt Lake City","State":"CA"},{"Zip":"92347","LessThan10K":"0.22","MoreThan10K":"0.24","MoreThan25K":"0.31","MoreThan50K":"0.23","First":"Dennis","Last":"Wynn","Phone_h":"(943) 873-8959","Phone_m":"(732) 753-7001","Phone_w":"(824) 881-5903","Address":"999 Baker Way","City":"Denver","State":"CA"},{"Zip":"92347","LessThan10K":"0.22","MoreThan10K":"0.24","MoreThan25K":"0.31","MoreThan50K":"0.23","First":"Ward","Last":"Bustos","Phone_h":"(868) 865-9741","Phone_m":"(940) 903-4465","Phone_w":"(822) 009-5137","Address":"777 West Filmore","City":"San Mateo","State":"CA"},{"Zip":"92356","LessThan10K":"0.24","MoreThan10K":"0.3","MoreThan25K":"0.28","MoreThan50K":"0.18","First":"Clare","Last":"Schlemmer","Phone_h":"(821) 534-4771","Phone_m":"(455) 894-5954","Phone_w":"(553) 485-6630","Address":"321 University Ave.","City":"Alabama","State":"CA"},{"Zip":"92356","LessThan10K":"0.24","MoreThan10K":"0.3","MoreThan25K":"0.28","MoreThan50K":"0.18","First":"Neville","Last":"Cropper","Phone_h":"(439) 680-0231","Phone_m":"(591) 900-9378","Phone_w":"(701) 705-6614","Address":"777 West Filmore","City":"San Mateo","State":"CA"},{"Zip":"92363","LessThan10K":"0.25","MoreThan10K":"0.31","MoreThan25K":"0.21","MoreThan50K":"0.22","First":"Hilda","Last":"Rocco","Phone_h":"(380) 563-7130","Phone_m":"(479) 474-0837","Phone_w":"(458) 687-9284","Address":"48920 San Carlos","City":"Los Angeles","State":"CA"},{"Zip":"92363","LessThan10K":"0.25","MoreThan10K":"0.31","MoreThan25K":"0.21","MoreThan50K":"0.22","First":"Marcelino","Last":"Hafner","Phone_h":"(434) 285-2557","Phone_m":"(901) 327-0392","Phone_w":"(562) 255-1279","Address":"777 West Filmore","City":"Persistance","State":"CA"}]},{"TargetData":[{"Zip":"92365","LessThan10K":"0.23","MoreThan10K":"0.25","MoreThan25K":"0.27","MoreThan50K":"0.26","First":"Ginger","Last":"Troncoso","Phone_h":"(030) 082-3214","Phone_m":"(314) 766-3335","Phone_w":"(417) 133-0157","Address":"777 West Filmore","City":"St. Petersburg","State":"CA"},{"Zip":"92365","LessThan10K":"0.23","MoreThan10K":"0.25","MoreThan25K":"0.27","MoreThan50K":"0.26","First":"Louella","Last":"Harrah","Phone_h":"(219) 656-0964","Phone_m":"(637) 959-8150","Phone_w":"(587) 540-8791","Address":"321 University Ave.","City":"Los Angeles","State":"CA"},{"Zip":"92368","LessThan10K":"0.22","MoreThan10K":"0.37","MoreThan25K":"0.27","MoreThan50K":"0.14","First":"Errol","Last":"Jarrell","Phone_h":"(153) 615-9979","Phone_m":"(721) 639-6024","Phone_w":"(177) 351-2041","Address":"111 Silicon Valley Road","City":"Denver","State":"CA"},{"Zip":"92368","LessThan10K":"0.22","MoreThan10K":"0.37","MoreThan25K":"0.27","MoreThan50K":"0.14","First":"Lacy","Last":"Heyer","Phone_h":"(327) 993-3329","Phone_m":"(677) 605-1212","Phone_w":"(973) 031-5788","Address":"999 Baker Way","City":"Sunnyvale","State":"CA"},{"Zip":"92386","LessThan10K":"0.24","MoreThan10K":"0.32","MoreThan25K":"0.26","MoreThan50K":"0.18","First":"Phillip","Last":"Richey","Phone_h":"(731) 992-2590","Phone_m":"(071) 624-5183","Phone_w":"(349) 758-5076","Address":"321 University Ave.","City":"St. Petersburg","State":"CA"},{"Zip":"92386","LessThan10K":"0.24","MoreThan10K":"0.32","MoreThan25K":"0.26","MoreThan50K":"0.18","First":"Irene","Last":"Morelock","Phone_h":"(182) 882-0545","Phone_m":"(949) 171-5627","Phone_w":"(744) 283-1059","Address":"48920 San Carlos","City":"St. Petersburg","State":"CA"},{"Zip":"92401","LessThan10K":"0.31","MoreThan10K":"0.44","MoreThan25K":"0.17","MoreThan50K":"0.08","First":"Colton","Last":"Haston","Phone_h":"(998) 986-2127","Phone_m":"(899) 478-7248","Phone_w":"(694) 394-4267","Address":"9 IBM Path","City":"Ohio","State":"CA"},{"Zip":"92401","LessThan10K":"0.31","MoreThan10K":"0.44","MoreThan25K":"0.17","MoreThan50K":"0.08","First":"Jan","Last":"Pressley","Phone_h":"(701) 691-7963","Phone_m":"(978) 725-5603","Phone_w":"(111) 785-2316","Address":"48920 San Carlos","City":"Santa Fe","State":"CA"},{"Zip":"92404","LessThan10K":"0.21","MoreThan10K":"0.32","MoreThan25K":"0.27","MoreThan50K":"0.2","First":"Harold","Last":"Varney","Phone_h":"(428) 821-5676","Phone_m":"(135) 969-1372","Phone_w":"(795) 702-6012","Address":"123 Anywhere Street","City":"Denver","State":"CA"},{"Zip":"92404","LessThan10K":"0.21","MoreThan10K":"0.32","MoreThan25K":"0.27","MoreThan50K":"0.2","First":"Lavonne","Last":"Mckoy","Phone_h":"(035) 341-1621","Phone_m":"(877) 950-2449","Phone_w":"(102) 429-6923","Address":"345 Sugar Blvd.","City":"Denver","State":"CA"},{"Zip":"92408","LessThan10K":"0.24","MoreThan10K":"0.37","MoreThan25K":"0.26","MoreThan50K":"0.13","First":"Callie","Last":"Byron","Phone_h":"(926) 183-9075","Phone_m":"(453) 548-0579","Phone_w":"(408) 734-9990","Address":"67321 West Siam St.","City":"San Jose","State":"CA"},{"Zip":"92408","LessThan10K":"0.24","MoreThan10K":"0.37","MoreThan25K":"0.26","MoreThan50K":"0.13","First":"Garfield","Last":"Henrickson","Phone_h":"(456) 925-5422","Phone_m":"(843) 488-4431","Phone_w":"(663) 473-2019","Address":"321 University Ave.","City":"Kansas City","State":"CA"},{"Zip":"92410","LessThan10K":"0.26","MoreThan10K":"0.42","MoreThan25K":"0.25","MoreThan50K":"0.07","First":"Lilian","Last":"Rethman","Phone_h":"(986) 931-9570","Phone_m":"(710) 559-8992","Phone_w":"(814) 583-6837","Address":"345 Sugar Blvd.","City":"Persistance","State":"CA"},{"Zip":"92410","LessThan10K":"0.26","MoreThan10K":"0.42","MoreThan25K":"0.25","MoreThan50K":"0.07","First":"Jospeh","Last":"Eaddy","Phone_h":"(947) 661-5793","Phone_m":"(755) 196-6644","Phone_w":"(920) 601-4556","Address":"1715 Scott Dr","City":"St. Petersburg","State":"CA"},{"Zip":"92411","LessThan10K":"0.24","MoreThan10K":"0.42","MoreThan25K":"0.27","MoreThan50K":"0.07","First":"Rigoberto","Last":"Theiss","Phone_h":"(517) 901-0732","Phone_m":"(260) 473-3630","Phone_w":"(934) 070-3735","Address":"67321 West Siam St.","City":"San Mateo","State":"CA"},{"Zip":"92411","LessThan10K":"0.24","MoreThan10K":"0.42","MoreThan25K":"0.27","MoreThan50K":"0.07","First":"Greta","Last":"Overby","Phone_h":"(141) 706-8459","Phone_m":"(003) 146-5085","Phone_w":"(967) 642-8317","Address":"48920 San Carlos","City":"Denver","State":"CA"},{"Zip":"92515","LessThan10K":"0.24","MoreThan10K":"0.29","MoreThan25K":"0.27","MoreThan50K":"0.2","First":"Carmen","Last":"Lentini","Phone_h":"(645) 231-8683","Phone_m":"(603) 125-1893","Phone_w":"(292) 093-8700","Address":"111 Silicon Valley Road","City":"Denver","State":"CA"},{"Zip":"92515","LessThan10K":"0.24","MoreThan10K":"0.29","MoreThan25K":"0.27","MoreThan50K":"0.2","First":"Kris","Last":"Mastro","Phone_h":"(896) 186-3765","Phone_m":"(450) 021-5984","Phone_w":"(096) 191-5595","Address":"111 Silicon Valley Road","City":"St. Petersburg","State":"CA"},{"Zip":"92543","LessThan10K":"0.22","MoreThan10K":"0.38","MoreThan25K":"0.27","MoreThan50K":"0.13","First":"Dayna","Last":"Emerson","Phone_h":"(189) 542-2497","Phone_m":"(014) 388-3739","Phone_w":"(998) 193-2891","Address":"123 Anywhere Street","City":"Ohio","State":"CA"},{"Zip":"92543","LessThan10K":"0.22","MoreThan10K":"0.38","MoreThan25K":"0.27","MoreThan50K":"0.13","First":"Nettie","Last":"Prinz","Phone_h":"(849) 849-4921","Phone_m":"(128) 492-0073","Phone_w":"(366) 303-7089","Address":"9 IBM Path","City":"Santa Fe","State":"CA"},{"Zip":"92548","LessThan10K":"0.21","MoreThan10K":"0.36","MoreThan25K":"0.29","MoreThan50K":"0.14","First":"Harland","Last":"Mays","Phone_h":"(479) 877-1554","Phone_m":"(888) 480-1209","Phone_w":"(572) 327-7349","Address":"321 University Ave.","City":"Sunnyvale","State":"CA"},{"Zip":"92548","LessThan10K":"0.21","MoreThan10K":"0.36","MoreThan25K":"0.29","MoreThan50K":"0.14","First":"Wade","Last":"Keasler","Phone_h":"(305) 405-6372","Phone_m":"(080) 078-6580","Phone_w":"(548) 184-1638","Address":"123 Anywhere Street","City":"Salt Lake City","State":"CA"}]},{"TargetData":[{"Zip":"92700","LessThan10K":"0.22","MoreThan10K":"0.2","MoreThan25K":"0.33","MoreThan50K":"0.25","First":"Gay","Last":"Waltrip","Phone_h":"(331) 725-2747","Phone_m":"(094) 471-6246","Phone_w":"(420) 525-3102","Address":"321 University Ave.","City":"Sunnyvale","State":"CA"},{"Zip":"92700","LessThan10K":"0.22","MoreThan10K":"0.2","MoreThan25K":"0.33","MoreThan50K":"0.25","First":"Hai","Last":"Curnutt","Phone_h":"(338) 725-2611","Phone_m":"(646) 946-4404","Phone_w":"(272) 487-7752","Address":"321 University Ave.","City":"Kansas City","State":"CA"},{"Zip":"93016","LessThan10K":"0.22","MoreThan10K":"0.42","MoreThan25K":"0.22","MoreThan50K":"0.14","First":"Emmanuel","Last":"Suiter","Phone_h":"(416) 678-3701","Phone_m":"(198) 932-3692","Phone_w":"(893) 288-2564","Address":"1715 Scott Dr","City":"St. Petersburg","State":"CA"},{"Zip":"93016","LessThan10K":"0.22","MoreThan10K":"0.42","MoreThan25K":"0.22","MoreThan50K":"0.14","First":"Galen","Last":"Lal","Phone_h":"(652) 361-1317","Phone_m":"(165) 423-7863","Phone_w":"(822) 572-6699","Address":"67321 West Siam St.","City":"Kansas City","State":"CA"},{"Zip":"93032","LessThan10K":"0.24","MoreThan10K":"0.46","MoreThan25K":"0.23","MoreThan50K":"0.08","First":"Tessa","Last":"Yokota","Phone_h":"(461) 330-6682","Phone_m":"(811) 192-6256","Phone_w":"(810) 708-1075","Address":"48920 San Carlos","City":"Cupertino","State":"CA"},{"Zip":"93032","LessThan10K":"0.24","MoreThan10K":"0.46","MoreThan25K":"0.23","MoreThan50K":"0.08","First":"Carmen","Last":"Raasch","Phone_h":"(561) 797-4321","Phone_m":"(568) 628-0757","Phone_w":"(792) 670-4625","Address":"1715 Scott Dr","City":"Persistance","State":"CA"},{"Zip":"93107","LessThan10K":"0.41","MoreThan10K":"0.28","MoreThan25K":"0.21","MoreThan50K":"0.1","First":"Ariel","Last":"Greenhaw","Phone_h":"(043) 068-2199","Phone_m":"(627) 775-3254","Phone_w":"(537) 093-7443","Address":"999 Baker Way","City":"San Mateo","State":"CA"},{"Zip":"93107","LessThan10K":"0.41","MoreThan10K":"0.28","MoreThan25K":"0.21","MoreThan50K":"0.1","First":"Adele","Last":"Paras","Phone_h":"(979) 660-0368","Phone_m":"(446) 183-7057","Phone_w":"(757) 058-0400","Address":"999 Baker Way","City":"Alabama","State":"CA"},{"Zip":"93117","LessThan10K":"0.21","MoreThan10K":"0.24","MoreThan25K":"0.23","MoreThan50K":"0.31","First":"Raymundo","Last":"Charron","Phone_h":"(195) 156-9188","Phone_m":"(542) 338-3618","Phone_w":"(254) 663-1340","Address":"1715 Scott Dr","City":"San Francisco","State":"CA"},{"Zip":"93117","LessThan10K":"0.21","MoreThan10K":"0.24","MoreThan25K":"0.23","MoreThan50K":"0.31","First":"Duncan","Last":"Leveille","Phone_h":"(575) 233-5755","Phone_m":"(062) 064-4238","Phone_w":"(501) 572-6684","Address":"321 University Ave.","City":"Salt Lake City","State":"CA"},{"Zip":"93150","LessThan10K":"0.22","MoreThan10K":"0.14","MoreThan25K":"0.24","MoreThan50K":"0.4","First":"Alyce","Last":"Room","Phone_h":"(108) 743-1345","Phone_m":"(223) 057-2454","Phone_w":"(166) 395-4551","Address":"48920 San Carlos","City":"Kansas City","State":"CA"},{"Zip":"93150","LessThan10K":"0.22","MoreThan10K":"0.14","MoreThan25K":"0.24","MoreThan50K":"0.4","First":"Whitney","Last":"Stines","Phone_h":"(516) 250-9430","Phone_m":"(852) 504-2641","Phone_w":"(969) 457-1952","Address":"321 University Ave.","City":"Alabama","State":"CA"},{"Zip":"93201","LessThan10K":"0.3","MoreThan10K":"0.41","MoreThan25K":"0.19","MoreThan50K":"0.11","First":"Nathaniel","Last":"Gazaway","Phone_h":"(335) 050-2954","Phone_m":"(960) 464-3114","Phone_w":"(660) 172-2149","Address":"321 University Ave.","City":"San Francisco","State":"CA"},{"Zip":"93201","LessThan10K":"0.3","MoreThan10K":"0.41","MoreThan25K":"0.19","MoreThan50K":"0.11","First":"Eldridge","Last":"Farren","Phone_h":"(292) 935-0713","Phone_m":"(572) 159-8784","Phone_w":"(623) 676-5386","Address":"9 IBM Path","City":"San Mateo","State":"CA"},{"Zip":"93202","LessThan10K":"0.21","MoreThan10K":"0.38","MoreThan25K":"0.29","MoreThan50K":"0.12","First":"Kieth","Last":"Duffin","Phone_h":"(051) 611-2926","Phone_m":"(384) 620-2790","Phone_w":"(388) 357-8808","Address":"123 Anywhere Street","City":"St. Petersburg","State":"CA"},{"Zip":"93202","LessThan10K":"0.21","MoreThan10K":"0.38","MoreThan25K":"0.29","MoreThan50K":"0.12","First":"Hannah","Last":"Pickens","Phone_h":"(627) 439-4596","Phone_m":"(947) 736-6899","Phone_w":"(773) 406-6464","Address":"123 Anywhere Street","City":"San Jose","State":"CA"},{"Zip":"93203","LessThan10K":"0.26","MoreThan10K":"0.5","MoreThan25K":"0.19","MoreThan50K":"0.05","First":"Malinda","Last":"Crosland","Phone_h":"(266) 707-6993","Phone_m":"(175) 013-1740","Phone_w":"(322) 886-5363","Address":"67321 West Siam St.","City":"Santa Fe","State":"CA"},{"Zip":"93203","LessThan10K":"0.26","MoreThan10K":"0.5","MoreThan25K":"0.19","MoreThan50K":"0.05","First":"Rey","Last":"Mace","Phone_h":"(684) 234-7214","Phone_m":"(686) 543-9928","Phone_w":"(773) 052-9701","Address":"345 Sugar Blvd.","City":"St. Petersburg","State":"CA"},{"Zip":"93204","LessThan10K":"0.24","MoreThan10K":"0.47","MoreThan25K":"0.22","MoreThan50K":"0.07","First":"Jaime","Last":"Hysell","Phone_h":"(992) 558-8066","Phone_m":"(360) 404-5653","Phone_w":"(671) 941-9335","Address":"1715 Scott Dr","City":"Santa Monica","State":"CA"},{"Zip":"93204","LessThan10K":"0.24","MoreThan10K":"0.47","MoreThan25K":"0.22","MoreThan50K":"0.07","First":"James","Last":"Crooms","Phone_h":"(949) 201-4253","Phone_m":"(781) 905-3922","Phone_w":"(867) 423-9462","Address":"67321 West Siam St.","City":"Santa Monica","State":"CA"},{"Zip":"93205","LessThan10K":"0.24","MoreThan10K":"0.34","MoreThan25K":"0.25","MoreThan50K":"0.17","First":"King","Last":"Nadeau","Phone_h":"(856) 712-1734","Phone_m":"(514) 811-1099","Phone_w":"(006) 232-9210","Address":"999 Baker Way","City":"Salt Lake City","State":"CA"},{"Zip":"93205","LessThan10K":"0.24","MoreThan10K":"0.34","MoreThan25K":"0.25","MoreThan50K":"0.17","First":"Marla","Last":"Adelman","Phone_h":"(512) 673-0931","Phone_m":"(143) 313-8651","Phone_w":"(479) 683-6008","Address":"345 Sugar Blvd.","City":"Cupertino","State":"CA"}]},{"TargetData":[{"Zip":"93206","LessThan10K":"0.22","MoreThan10K":"0.41","MoreThan25K":"0.26","MoreThan50K":"0.1","First":"Paul","Last":"Gutshall","Phone_h":"(309) 633-6564","Phone_m":"(593) 806-7337","Phone_w":"(445) 066-1816","Address":"777 West Filmore","City":"Santa Monica","State":"CA"},{"Zip":"93206","LessThan10K":"0.22","MoreThan10K":"0.41","MoreThan25K":"0.26","MoreThan50K":"0.1","First":"Jamison","Last":"Severin","Phone_h":"(899) 220-2626","Phone_m":"(405) 598-8488","Phone_w":"(538) 210-7587","Address":"345 Sugar Blvd.","City":"Ohio","State":"CA"},{"Zip":"93212","LessThan10K":"0.22","MoreThan10K":"0.37","MoreThan25K":"0.27","MoreThan50K":"0.14","First":"Deann","Last":"Jett","Phone_h":"(165) 937-6047","Phone_m":"(738) 995-5883","Phone_w":"(433) 965-5471","Address":"1715 Scott Dr","City":"Denver","State":"CA"},{"Zip":"93212","LessThan10K":"0.22","MoreThan10K":"0.37","MoreThan25K":"0.27","MoreThan50K":"0.14","First":"Marcelo","Last":"Hodgson","Phone_h":"(015) 790-0405","Phone_m":"(836) 346-8645","Phone_w":"(187) 405-5829","Address":"111 Silicon Valley Road","City":"San Mateo","State":"CA"},{"Zip":"93215","LessThan10K":"0.24","MoreThan10K":"0.44","MoreThan25K":"0.22","MoreThan50K":"0.1","First":"Lynnette","Last":"Sterns","Phone_h":"(914) 265-4624","Phone_m":"(098) 076-8296","Phone_w":"(185) 382-2517","Address":"345 Sugar Blvd.","City":"Alabama","State":"CA"},{"Zip":"93215","LessThan10K":"0.24","MoreThan10K":"0.44","MoreThan25K":"0.22","MoreThan50K":"0.1","First":"Antonia","Last":"Koga","Phone_h":"(536) 975-1356","Phone_m":"(195) 995-9308","Phone_w":"(539) 242-0409","Address":"777 West Filmore","City":"Kansas City","State":"CA"},{"Zip":"93216","LessThan10K":"0.26","MoreThan10K":"0.52","MoreThan25K":"0.16","MoreThan50K":"0.07","First":"Vilma","Last":"Dawe","Phone_h":"(494) 107-7482","Phone_m":"(123) 459-1678","Phone_w":"(618) 566-5271","Address":"321 University Ave.","City":"Santa Monica","State":"CA"},{"Zip":"93216","LessThan10K":"0.26","MoreThan10K":"0.52","MoreThan25K":"0.16","MoreThan50K":"0.07","First":"Sydney","Last":"Hairston","Phone_h":"(658) 417-6870","Phone_m":"(642) 100-0482","Phone_w":"(338) 956-1941","Address":"48920 San Carlos","City":"Kansas City","State":"CA"},{"Zip":"93218","LessThan10K":"0.53","MoreThan10K":"0.27","MoreThan25K":"0.13","MoreThan50K":"0.07","First":"Mindy","Last":"Montalto","Phone_h":"(200) 009-6797","Phone_m":"(152) 415-6044","Phone_w":"(429) 089-1372","Address":"777 West Filmore","City":"Denver","State":"CA"},{"Zip":"93218","LessThan10K":"0.53","MoreThan10K":"0.27","MoreThan25K":"0.13","MoreThan50K":"0.07","First":"Angelica","Last":"Fred","Phone_h":"(441) 519-3565","Phone_m":"(682) 714-4202","Phone_w":"(415) 216-7655","Address":"321 University Ave.","City":"Alabama","State":"CA"},{"Zip":"93219","LessThan10K":"0.29","MoreThan10K":"0.52","MoreThan25K":"0.16","MoreThan50K":"0.03","First":"Nell","Last":"Deas","Phone_h":"(904) 954-5319","Phone_m":"(169) 597-9719","Phone_w":"(695) 697-4355","Address":"321 University Ave.","City":"Salt Lake City","State":"CA"},{"Zip":"93219","LessThan10K":"0.29","MoreThan10K":"0.52","MoreThan25K":"0.16","MoreThan50K":"0.03","First":"Gracie","Last":"Forgey","Phone_h":"(844) 296-8307","Phone_m":"(902) 904-7125","Phone_w":"(442) 837-9725","Address":"111 Silicon Valley Road","City":"Salt Lake City","State":"CA"},{"Zip":"93220","LessThan10K":"0.22","MoreThan10K":"0.41","MoreThan25K":"0.24","MoreThan50K":"0.13","First":"Harriet","Last":"Parkhill","Phone_h":"(691) 204-0998","Phone_m":"(015) 124-6593","Phone_w":"(535) 700-4294","Address":"123 Anywhere Street","City":"Santa Fe","State":"CA"},{"Zip":"93220","LessThan10K":"0.22","MoreThan10K":"0.41","MoreThan25K":"0.24","MoreThan50K":"0.13","First":"Kelsey","Last":"Klatt","Phone_h":"(946) 113-7563","Phone_m":"(881) 693-8236","Phone_w":"(235) 069-5052","Address":"111 Silicon Valley Road","City":"Denver","State":"CA"},{"Zip":"93221","LessThan10K":"0.21","MoreThan10K":"0.29","MoreThan25K":"0.24","MoreThan50K":"0.26","First":"Inez","Last":"Bitter","Phone_h":"(006) 948-2096","Phone_m":"(496) 958-4351","Phone_w":"(359) 908-7717","Address":"321 University Ave.","City":"Denver","State":"CA"},{"Zip":"93221","LessThan10K":"0.21","MoreThan10K":"0.29","MoreThan25K":"0.24","MoreThan50K":"0.26","First":"Marietta","Last":"Ripley","Phone_h":"(194) 735-3385","Phone_m":"(645) 701-2574","Phone_w":"(747) 495-7296","Address":"9 IBM Path","City":"Cupertino","State":"CA"},{"Zip":"93223","LessThan10K":"0.25","MoreThan10K":"0.46","MoreThan25K":"0.22","MoreThan50K":"0.07","First":"Terrie","Last":"Bustamante","Phone_h":"(539) 960-4585","Phone_m":"(049) 130-3068","Phone_w":"(941) 621-6708","Address":"999 Baker Way","City":"Persistance","State":"CA"},{"Zip":"93223","LessThan10K":"0.25","MoreThan10K":"0.46","MoreThan25K":"0.22","MoreThan50K":"0.07","First":"Mattie","Last":"Curtiss","Phone_h":"(111) 908-2883","Phone_m":"(822) 319-3684","Phone_w":"(495) 888-8218","Address":"48920 San Carlos","City":"Santa Fe","State":"CA"},{"Zip":"93227","LessThan10K":"0.25","MoreThan10K":"0.46","MoreThan25K":"0.24","MoreThan50K":"0.05","First":"Deann","Last":"Marone","Phone_h":"(086) 642-3682","Phone_m":"(181) 158-7693","Phone_w":"(299) 139-2539","Address":"123 Anywhere Street","City":"Sunnyvale","State":"CA"},{"Zip":"93227","LessThan10K":"0.25","MoreThan10K":"0.46","MoreThan25K":"0.24","MoreThan50K":"0.05","First":"Tuan","Last":"Routh","Phone_h":"(972) 872-7435","Phone_m":"(941) 397-0914","Phone_w":"(218) 559-7992","Address":"111 Silicon Valley Road","City":"Salt Lake City","State":"CA"},{"Zip":"93234","LessThan10K":"0.29","MoreThan10K":"0.51","MoreThan25K":"0.17","MoreThan50K":"0.03","First":"Jannie","Last":"Vanwingerden","Phone_h":"(989) 129-9888","Phone_m":"(720) 935-6111","Phone_w":"(676) 297-8616","Address":"123 Anywhere Street","City":"Salt Lake City","State":"CA"},{"Zip":"93234","LessThan10K":"0.29","MoreThan10K":"0.51","MoreThan25K":"0.17","MoreThan50K":"0.03","First":"Renee","Last":"Runyon","Phone_h":"(031) 784-4780","Phone_m":"(190) 691-1598","Phone_w":"(875) 003-6148","Address":"1715 Scott Dr","City":"St. Petersburg","State":"CA"}]},{"TargetData":[{"Zip":"93235","LessThan10K":"0.24","MoreThan10K":"0.44","MoreThan25K":"0.24","MoreThan50K":"0.07","First":"Kris","Last":"Mccloud","Phone_h":"(399) 732-4218","Phone_m":"(917) 497-7553","Phone_w":"(723) 412-1958","Address":"1715 Scott Dr","City":"Salt Lake City","State":"CA"},{"Zip":"93235","LessThan10K":"0.24","MoreThan10K":"0.44","MoreThan25K":"0.24","MoreThan50K":"0.07","First":"Gaylord","Last":"Grayson","Phone_h":"(198) 927-8533","Phone_m":"(716) 513-2461","Phone_w":"(433) 119-9847","Address":"999 Baker Way","City":"Santa Fe","State":"CA"},{"Zip":"93239","LessThan10K":"0.22","MoreThan10K":"0.55","MoreThan25K":"0.19","MoreThan50K":"0.04","First":"Tisha","Last":"Thiel","Phone_h":"(350) 921-5680","Phone_m":"(517) 912-2842","Phone_w":"(365) 322-1005","Address":"123 Anywhere Street","City":"Denver","State":"CA"},{"Zip":"93239","LessThan10K":"0.22","MoreThan10K":"0.55","MoreThan25K":"0.19","MoreThan50K":"0.04","First":"Queen","Last":"Prentice","Phone_h":"(312) 185-1604","Phone_m":"(331) 220-8109","Phone_w":"(187) 758-1981","Address":"48920 San Carlos","City":"San Mateo","State":"CA"},{"Zip":"93240","LessThan10K":"0.24","MoreThan10K":"0.29","MoreThan25K":"0.24","MoreThan50K":"0.23","First":"Lolita","Last":"Swann","Phone_h":"(322) 943-2492","Phone_m":"(073) 892-6741","Phone_w":"(884) 745-4791","Address":"67321 West Siam St.","City":"Kansas City","State":"CA"},{"Zip":"93240","LessThan10K":"0.24","MoreThan10K":"0.29","MoreThan25K":"0.24","MoreThan50K":"0.23","First":"Stacey","Last":"Rizzuto","Phone_h":"(205) 428-3940","Phone_m":"(308) 165-8025","Phone_w":"(991) 790-5865","Address":"123 Anywhere Street","City":"Santa Monica","State":"CA"},{"Zip":"93241","LessThan10K":"0.27","MoreThan10K":"0.51","MoreThan25K":"0.19","MoreThan50K":"0.04","First":"Carson","Last":"Barragan","Phone_h":"(700) 366-5031","Phone_m":"(244) 461-7758","Phone_w":"(136) 904-5968","Address":"123 Anywhere Street","City":"San Mateo","State":"CA"},{"Zip":"93241","LessThan10K":"0.27","MoreThan10K":"0.51","MoreThan25K":"0.19","MoreThan50K":"0.04","First":"Modesto","Last":"Spiers","Phone_h":"(331) 755-2864","Phone_m":"(404) 990-8130","Phone_w":"(081) 727-4038","Address":"777 West Filmore","City":"Santa Monica","State":"CA"},{"Zip":"93244","LessThan10K":"0.21","MoreThan10K":"0.26","MoreThan25K":"0.28","MoreThan50K":"0.26","First":"Toney","Last":"Chidester","Phone_h":"(212) 502-9313","Phone_m":"(080) 475-2728","Phone_w":"(245) 764-3664","Address":"321 University Ave.","City":"Santa Monica","State":"CA"},{"Zip":"93244","LessThan10K":"0.21","MoreThan10K":"0.26","MoreThan25K":"0.28","MoreThan50K":"0.26","First":"Mauro","Last":"Blakemore","Phone_h":"(739) 160-2378","Phone_m":"(521) 716-3476","Phone_w":"(696) 277-5446","Address":"345 Sugar Blvd.","City":"San Mateo","State":"CA"},{"Zip":"93247","LessThan10K":"0.26","MoreThan10K":"0.42","MoreThan25K":"0.21","MoreThan50K":"0.11","First":"Hal","Last":"Mosca","Phone_h":"(410) 182-8136","Phone_m":"(804) 165-5040","Phone_w":"(663) 376-3024","Address":"9 IBM Path","City":"San Jose","State":"CA"},{"Zip":"93247","LessThan10K":"0.26","MoreThan10K":"0.42","MoreThan25K":"0.21","MoreThan50K":"0.11","First":"Brittany","Last":"Hayner","Phone_h":"(584) 797-3135","Phone_m":"(045) 088-9270","Phone_w":"(377) 346-1734","Address":"321 University Ave.","City":"Salt Lake City","State":"CA"},{"Zip":"93250","LessThan10K":"0.26","MoreThan10K":"0.46","MoreThan25K":"0.21","MoreThan50K":"0.07","First":"Dewayne","Last":"Cofield","Phone_h":"(612) 560-1132","Phone_m":"(938) 016-9389","Phone_w":"(017) 027-7191","Address":"321 University Ave.","City":"Kansas City","State":"CA"},{"Zip":"93250","LessThan10K":"0.26","MoreThan10K":"0.46","MoreThan25K":"0.21","MoreThan50K":"0.07","First":"Elmer","Last":"Burgoon","Phone_h":"(098) 915-1715","Phone_m":"(000) 517-8277","Phone_w":"(806) 319-4922","Address":"111 Silicon Valley Road","City":"Salt Lake City","State":"CA"},{"Zip":"93251","LessThan10K":"0.24","MoreThan10K":"0.14","MoreThan25K":"0.4","MoreThan50K":"0.21","First":"Tyler","Last":"Ebeling","Phone_h":"(828) 095-0380","Phone_m":"(789) 297-1710","Phone_w":"(369) 815-7556","Address":"9 IBM Path","City":"Denver","State":"CA"},{"Zip":"93251","LessThan10K":"0.24","MoreThan10K":"0.14","MoreThan25K":"0.4","MoreThan50K":"0.21","First":"Curtis","Last":"Maglio","Phone_h":"(861) 472-3836","Phone_m":"(214) 870-2643","Phone_w":"(516) 716-7628","Address":"111 Silicon Valley Road","City":"Ohio","State":"CA"},{"Zip":"93256","LessThan10K":"0.22","MoreThan10K":"0.42","MoreThan25K":"0.28","MoreThan50K":"0.07","First":"Catalina","Last":"Hibbitts","Phone_h":"(765) 054-4544","Phone_m":"(316) 119-8163","Phone_w":"(815) 371-5017","Address":"345 Sugar Blvd.","City":"San Francisco","State":"CA"},{"Zip":"93256","LessThan10K":"0.22","MoreThan10K":"0.42","MoreThan25K":"0.28","MoreThan50K":"0.07","First":"Liliana","Last":"Lemay","Phone_h":"(221) 081-2743","Phone_m":"(260) 592-6018","Phone_w":"(803) 959-8265","Address":"345 Sugar Blvd.","City":"Cupertino","State":"CA"},{"Zip":"93257","LessThan10K":"0.23","MoreThan10K":"0.35","MoreThan25K":"0.23","MoreThan50K":"0.18","First":"Christi","Last":"Coppage","Phone_h":"(013) 411-4539","Phone_m":"(588) 604-1484","Phone_w":"(738) 512-6052","Address":"9 IBM Path","City":"Santa Monica","State":"CA"},{"Zip":"93257","LessThan10K":"0.23","MoreThan10K":"0.35","MoreThan25K":"0.23","MoreThan50K":"0.18","First":"Ben","Last":"Sandusky","Phone_h":"(658) 972-0315","Phone_m":"(720) 071-9268","Phone_w":"(097) 325-5575","Address":"67321 West Siam St.","City":"Cupertino","State":"CA"},{"Zip":"93258","LessThan10K":"0.33","MoreThan10K":"0.44","MoreThan25K":"0.16","MoreThan50K":"0.06","First":"Marta","Last":"Witter","Phone_h":"(932) 117-6214","Phone_m":"(051) 106-5556","Phone_w":"(505) 430-4034","Address":"1715 Scott Dr","City":"Los Angeles","State":"CA"},{"Zip":"93258","LessThan10K":"0.33","MoreThan10K":"0.44","MoreThan25K":"0.16","MoreThan50K":"0.06","First":"Roscoe","Last":"Bedwell","Phone_h":"(843) 356-6952","Phone_m":"(620) 046-4774","Phone_w":"(838) 586-2972","Address":"777 West Filmore","City":"Persistance","State":"CA"}]},{"TargetData":[{"Zip":"93261","LessThan10K":"0.38","MoreThan10K":"0.49","MoreThan25K":"0.12","MoreThan50K":"0.02","First":"Stacey","Last":"Mangano","Phone_h":"(590) 020-6679","Phone_m":"(910) 082-3416","Phone_w":"(659) 316-3286","Address":"777 West Filmore","City":"San Francisco","State":"CA"},{"Zip":"93261","LessThan10K":"0.38","MoreThan10K":"0.49","MoreThan25K":"0.12","MoreThan50K":"0.02","First":"Teodoro","Last":"Lomas","Phone_h":"(144) 795-3662","Phone_m":"(830) 304-8126","Phone_w":"(751) 464-0553","Address":"345 Sugar Blvd.","City":"Denver","State":"CA"},{"Zip":"93263","LessThan10K":"0.24","MoreThan10K":"0.37","MoreThan25K":"0.25","MoreThan50K":"0.14","First":"Bryan","Last":"Barone","Phone_h":"(587) 321-6053","Phone_m":"(596) 366-1721","Phone_w":"(415) 027-6162","Address":"9 IBM Path","City":"Ohio","State":"CA"},{"Zip":"93263","LessThan10K":"0.24","MoreThan10K":"0.37","MoreThan25K":"0.25","MoreThan50K":"0.14","First":"Lidia","Last":"Shell","Phone_h":"(703) 979-6258","Phone_m":"(597) 158-5946","Phone_w":"(237) 120-2063","Address":"9 IBM Path","City":"San Mateo","State":"CA"},{"Zip":"93266","LessThan10K":"0.22","MoreThan10K":"0.42","MoreThan25K":"0.25","MoreThan50K":"0.1","First":"Stefan","Last":"Rundell","Phone_h":"(818) 960-4016","Phone_m":"(474) 800-3608","Phone_w":"(138) 867-3728","Address":"48920 San Carlos","City":"Ohio","State":"CA"},{"Zip":"93266","LessThan10K":"0.22","MoreThan10K":"0.42","MoreThan25K":"0.25","MoreThan50K":"0.1","First":"Jarod","Last":"Woodcock","Phone_h":"(269) 690-4849","Phone_m":"(615) 869-8338","Phone_w":"(620) 379-2342","Address":"345 Sugar Blvd.","City":"Santa Fe","State":"CA"},{"Zip":"93267","LessThan10K":"0.36","MoreThan10K":"0.38","MoreThan25K":"0.17","MoreThan50K":"0.09","First":"Dorothy","Last":"Pelfrey","Phone_h":"(291) 192-0779","Phone_m":"(261) 927-0345","Phone_w":"(673) 411-1786","Address":"48920 San Carlos","City":"St. Petersburg","State":"CA"},{"Zip":"93267","LessThan10K":"0.36","MoreThan10K":"0.38","MoreThan25K":"0.17","MoreThan50K":"0.09","First":"Annabelle","Last":"Tirrell","Phone_h":"(444) 892-0949","Phone_m":"(913) 003-4597","Phone_w":"(576) 761-2956","Address":"1715 Scott Dr","City":"San Jose","State":"CA"},{"Zip":"93270","LessThan10K":"0.41","MoreThan10K":"0.38","MoreThan25K":"0.13","MoreThan50K":"0.08","First":"Leo","Last":"Eyler","Phone_h":"(238) 630-9202","Phone_m":"(010) 247-7624","Phone_w":"(891) 464-4979","Address":"9 IBM Path","City":"Persistance","State":"CA"},{"Zip":"93270","LessThan10K":"0.41","MoreThan10K":"0.38","MoreThan25K":"0.13","MoreThan50K":"0.08","First":"Chandra","Last":"Craighead","Phone_h":"(895) 029-7144","Phone_m":"(623) 394-0662","Phone_w":"(241) 398-7145","Address":"321 University Ave.","City":"Denver","State":"CA"},{"Zip":"93274","LessThan10K":"0.21","MoreThan10K":"0.32","MoreThan25K":"0.27","MoreThan50K":"0.2","First":"Gilberto","Last":"Waid","Phone_h":"(059) 357-9349","Phone_m":"(920) 365-9613","Phone_w":"(850) 961-7341","Address":"48920 San Carlos","City":"Cupertino","State":"CA"},{"Zip":"93274","LessThan10K":"0.21","MoreThan10K":"0.32","MoreThan25K":"0.27","MoreThan50K":"0.2","First":"Winston","Last":"Brittingham","Phone_h":"(633) 068-9124","Phone_m":"(894) 613-6332","Phone_w":"(591) 870-6705","Address":"123 Anywhere Street","City":"Los Angeles","State":"CA"},{"Zip":"93280","LessThan10K":"0.24","MoreThan10K":"0.4","MoreThan25K":"0.24","MoreThan50K":"0.12","First":"Olga","Last":"Sykora","Phone_h":"(284) 970-6975","Phone_m":"(153) 891-4500","Phone_w":"(965) 481-4650","Address":"777 West Filmore","City":"San Jose","State":"CA"},{"Zip":"93280","LessThan10K":"0.24","MoreThan10K":"0.4","MoreThan25K":"0.24","MoreThan50K":"0.12","First":"Jillian","Last":"Carpino","Phone_h":"(290) 896-7494","Phone_m":"(939) 535-5184","Phone_w":"(502) 113-9944","Address":"9 IBM Path","City":"Cupertino","State":"CA"},{"Zip":"93283","LessThan10K":"0.26","MoreThan10K":"0.32","MoreThan25K":"0.25","MoreThan50K":"0.18","First":"Lilia","Last":"Alfonso","Phone_h":"(143) 382-0853","Phone_m":"(784) 580-6791","Phone_w":"(289) 887-8634","Address":"345 Sugar Blvd.","City":"San Francisco","State":"CA"},{"Zip":"93283","LessThan10K":"0.26","MoreThan10K":"0.32","MoreThan25K":"0.25","MoreThan50K":"0.18","First":"Luis","Last":"Backer","Phone_h":"(360) 988-8957","Phone_m":"(393) 802-0678","Phone_w":"(933) 767-5860","Address":"67321 West Siam St.","City":"San Francisco","State":"CA"},{"Zip":"93285","LessThan10K":"0.22","MoreThan10K":"0.3","MoreThan25K":"0.24","MoreThan50K":"0.24","First":"Rey","Last":"Facer","Phone_h":"(622) 688-5137","Phone_m":"(888) 355-4273","Phone_w":"(377) 495-8676","Address":"999 Baker Way","City":"Sunnyvale","State":"CA"},{"Zip":"93285","LessThan10K":"0.22","MoreThan10K":"0.3","MoreThan25K":"0.24","MoreThan50K":"0.24","First":"Anne","Last":"Sather","Phone_h":"(357) 597-0376","Phone_m":"(028) 105-3210","Phone_w":"(873) 165-1598","Address":"67321 West Siam St.","City":"Santa Fe","State":"CA"},{"Zip":"93286","LessThan10K":"0.22","MoreThan10K":"0.41","MoreThan25K":"0.24","MoreThan50K":"0.12","First":"Marcelino","Last":"Mccarthy","Phone_h":"(166) 341-9786","Phone_m":"(837) 500-4603","Phone_w":"(017) 898-2372","Address":"123 Anywhere Street","City":"Los Angeles","State":"CA"},{"Zip":"93286","LessThan10K":"0.22","MoreThan10K":"0.41","MoreThan25K":"0.24","MoreThan50K":"0.12","First":"Branden","Last":"Sweatt","Phone_h":"(044) 777-4848","Phone_m":"(289) 621-3525","Phone_w":"(512) 580-0007","Address":"1715 Scott Dr","City":"Santa Fe","State":"CA"},{"Zip":"93291","LessThan10K":"0.23","MoreThan10K":"0.33","MoreThan25K":"0.23","MoreThan50K":"0.21","First":"Adeline","Last":"Sullins","Phone_h":"(125) 205-2831","Phone_m":"(804) 865-7456","Phone_w":"(530) 376-9552","Address":"48920 San Carlos","City":"Los Angeles","State":"CA"},{"Zip":"93291","LessThan10K":"0.23","MoreThan10K":"0.33","MoreThan25K":"0.23","MoreThan50K":"0.21","First":"Mckinley","Last":"Ma","Phone_h":"(164) 033-5947","Phone_m":"(418) 334-1569","Phone_w":"(953) 346-6724","Address":"67321 West Siam St.","City":"Santa Monica","State":"CA"}]},{"TargetData":[{"Zip":"93301","LessThan10K":"0.24","MoreThan10K":"0.35","MoreThan25K":"0.22","MoreThan50K":"0.18","First":"Casey","Last":"Heider","Phone_h":"(772) 609-4807","Phone_m":"(953) 107-0262","Phone_w":"(819) 979-5433","Address":"111 Silicon Valley Road","City":"San Francisco","State":"CA"},{"Zip":"93301","LessThan10K":"0.24","MoreThan10K":"0.35","MoreThan25K":"0.22","MoreThan50K":"0.18","First":"Ruthie","Last":"Stingley","Phone_h":"(263) 636-8007","Phone_m":"(167) 670-4294","Phone_w":"(619) 871-2351","Address":"345 Sugar Blvd.","City":"Santa Fe","State":"CA"},{"Zip":"93304","LessThan10K":"0.22","MoreThan10K":"0.36","MoreThan25K":"0.27","MoreThan50K":"0.15","First":"Houston","Last":"Carbaugh","Phone_h":"(983) 444-3700","Phone_m":"(863) 543-0203","Phone_w":"(425) 440-2565","Address":"777 West Filmore","City":"San Mateo","State":"CA"},{"Zip":"93304","LessThan10K":"0.22","MoreThan10K":"0.36","MoreThan25K":"0.27","MoreThan50K":"0.15","First":"Petra","Last":"Winer","Phone_h":"(858) 766-4662","Phone_m":"(158) 785-6268","Phone_w":"(829) 261-3060","Address":"999 Baker Way","City":"Santa Fe","State":"CA"},{"Zip":"93305","LessThan10K":"0.26","MoreThan10K":"0.39","MoreThan25K":"0.22","MoreThan50K":"0.13","First":"Claire","Last":"Shelton","Phone_h":"(053) 659-9515","Phone_m":"(545) 025-8663","Phone_w":"(061) 399-6435","Address":"48920 San Carlos","City":"Persistance","State":"CA"},{"Zip":"93305","LessThan10K":"0.26","MoreThan10K":"0.39","MoreThan25K":"0.22","MoreThan50K":"0.13","First":"Lila","Last":"Callicoat","Phone_h":"(872) 632-0496","Phone_m":"(850) 410-9604","Phone_w":"(251) 617-0031","Address":"67321 West Siam St.","City":"Alabama","State":"CA"},{"Zip":"93307","LessThan10K":"0.24","MoreThan10K":"0.41","MoreThan25K":"0.24","MoreThan50K":"0.11","First":"Dawn","Last":"Granado","Phone_h":"(657) 908-6660","Phone_m":"(776) 767-9989","Phone_w":"(139) 559-6619","Address":"9 IBM Path","City":"Alabama","State":"CA"},{"Zip":"93307","LessThan10K":"0.24","MoreThan10K":"0.41","MoreThan25K":"0.24","MoreThan50K":"0.11","First":"Marlon","Last":"Okeefe","Phone_h":"(882) 897-7204","Phone_m":"(273) 198-2876","Phone_w":"(201) 385-5636","Address":"999 Baker Way","City":"San Francisco","State":"CA"},{"Zip":"93383","LessThan10K":"0.21","MoreThan10K":"0.42","MoreThan25K":"0.27","MoreThan50K":"0.1","First":"Karina","Last":"Kresge","Phone_h":"(633) 238-2409","Phone_m":"(356) 221-1810","Phone_w":"(612) 433-0542","Address":"345 Sugar Blvd.","City":"Cupertino","State":"CA"},{"Zip":"93383","LessThan10K":"0.21","MoreThan10K":"0.42","MoreThan25K":"0.27","MoreThan50K":"0.1","First":"Leticia","Last":"Mouzon","Phone_h":"(620) 358-3206","Phone_m":"(323) 187-1779","Phone_w":"(400) 757-0683","Address":"48920 San Carlos","City":"Kansas City","State":"CA"},{"Zip":"93385","LessThan10K":"0.25","MoreThan10K":"0.5","MoreThan25K":"0.16","MoreThan50K":"0.09","First":"Yvette","Last":"Urick","Phone_h":"(536) 380-9787","Phone_m":"(830) 827-5833","Phone_w":"(132) 191-4592","Address":"123 Anywhere Street","City":"Santa Fe","State":"CA"},{"Zip":"93385","LessThan10K":"0.25","MoreThan10K":"0.5","MoreThan25K":"0.16","MoreThan50K":"0.09","First":"Lora","Last":"Cade","Phone_h":"(710) 939-7460","Phone_m":"(984) 503-5725","Phone_w":"(925) 199-1518","Address":"999 Baker Way","City":"Santa Fe","State":"CA"},{"Zip":"93387","LessThan10K":"0.24","MoreThan10K":"0.53","MoreThan25K":"0.17","MoreThan50K":"0.06","First":"Lloyd","Last":"Gowins","Phone_h":"(020) 062-3174","Phone_m":"(041) 291-7117","Phone_w":"(732) 619-6559","Address":"999 Baker Way","City":"Kansas City","State":"CA"},{"Zip":"93387","LessThan10K":"0.24","MoreThan10K":"0.53","MoreThan25K":"0.17","MoreThan50K":"0.06","First":"Winston","Last":"Vanhoose","Phone_h":"(210) 120-9567","Phone_m":"(416) 914-6780","Phone_w":"(635) 527-6944","Address":"123 Anywhere Street","City":"Santa Monica","State":"CA"},{"Zip":"93401","LessThan10K":"0.23","MoreThan10K":"0.24","MoreThan25K":"0.22","MoreThan50K":"0.32","First":"Hubert","Last":"Mascorro","Phone_h":"(171) 643-7973","Phone_m":"(982) 499-3013","Phone_w":"(479) 116-1653","Address":"9 IBM Path","City":"Sunnyvale","State":"CA"},{"Zip":"93401","LessThan10K":"0.23","MoreThan10K":"0.24","MoreThan25K":"0.22","MoreThan50K":"0.32","First":"Bonita","Last":"Arruda","Phone_h":"(183) 485-0589","Phone_m":"(756) 016-8380","Phone_w":"(057) 501-2757","Address":"123 Anywhere Street","City":"Persistance","State":"CA"},{"Zip":"93405","LessThan10K":"0.32","MoreThan10K":"0.22","MoreThan25K":"0.18","MoreThan50K":"0.28","First":"Alexandria","Last":"Negrin","Phone_h":"(820) 248-6763","Phone_m":"(393) 822-3812","Phone_w":"(907) 045-5329","Address":"999 Baker Way","City":"Santa Fe","State":"CA"},{"Zip":"93405","LessThan10K":"0.32","MoreThan10K":"0.22","MoreThan25K":"0.18","MoreThan50K":"0.28","First":"Melinda","Last":"Pesina","Phone_h":"(625) 862-9288","Phone_m":"(198) 181-2999","Phone_w":"(723) 837-1571","Address":"777 West Filmore","City":"Persistance","State":"CA"},{"Zip":"93426","LessThan10K":"0.21","MoreThan10K":"0.22","MoreThan25K":"0.31","MoreThan50K":"0.26","First":"Maxine","Last":"Hassen","Phone_h":"(895) 351-0164","Phone_m":"(495) 493-1662","Phone_w":"(764) 108-5255","Address":"345 Sugar Blvd.","City":"Ohio","State":"CA"},{"Zip":"93426","LessThan10K":"0.21","MoreThan10K":"0.22","MoreThan25K":"0.31","MoreThan50K":"0.26","First":"Bennie","Last":"Derby","Phone_h":"(428) 491-5349","Phone_m":"(400) 100-6325","Phone_w":"(506) 520-9538","Address":"67321 West Siam St.","City":"Ohio","State":"CA"},{"Zip":"93434","LessThan10K":"0.22","MoreThan10K":"0.42","MoreThan25K":"0.25","MoreThan50K":"0.11","First":"Claire","Last":"Edmundson","Phone_h":"(869) 980-4930","Phone_m":"(332) 534-2296","Phone_w":"(967) 305-4929","Address":"321 University Ave.","City":"Persistance","State":"CA"},{"Zip":"93434","LessThan10K":"0.22","MoreThan10K":"0.42","MoreThan25K":"0.25","MoreThan50K":"0.11","First":"Earle","Last":"Granderson","Phone_h":"(492) 840-9188","Phone_m":"(717) 541-2430","Phone_w":"(006) 641-7205","Address":"999 Baker Way","City":"Sunnyvale","State":"CA"}]},{"TargetData":[{"Zip":"93458","LessThan10K":"0.23","MoreThan10K":"0.42","MoreThan25K":"0.24","MoreThan50K":"0.1","First":"Michael","Last":"Langham","Phone_h":"(052) 327-2649","Phone_m":"(079) 419-0218","Phone_w":"(641) 290-1492","Address":"111 Silicon Valley Road","City":"Los Angeles","State":"CA"},{"Zip":"93458","LessThan10K":"0.23","MoreThan10K":"0.42","MoreThan25K":"0.24","MoreThan50K":"0.1","First":"Terry","Last":"Dykstra","Phone_h":"(570) 183-3549","Phone_m":"(878) 552-7674","Phone_w":"(265) 106-0117","Address":"345 Sugar Blvd.","City":"San Mateo","State":"CA"},{"Zip":"93501","LessThan10K":"0.24","MoreThan10K":"0.28","MoreThan25K":"0.26","MoreThan50K":"0.22","First":"Edith","Last":"Burge","Phone_h":"(080) 102-2230","Phone_m":"(595) 465-7931","Phone_w":"(909) 663-8396","Address":"321 University Ave.","City":"Santa Fe","State":"CA"},{"Zip":"93501","LessThan10K":"0.24","MoreThan10K":"0.28","MoreThan25K":"0.26","MoreThan50K":"0.22","First":"Ursula","Last":"Farley","Phone_h":"(333) 999-3358","Phone_m":"(842) 079-0984","Phone_w":"(307) 702-6086","Address":"999 Baker Way","City":"San Mateo","State":"CA"},{"Zip":"93516","LessThan10K":"0.21","MoreThan10K":"0.23","MoreThan25K":"0.2","MoreThan50K":"0.36","First":"Sang","Last":"Crowe","Phone_h":"(906) 205-9052","Phone_m":"(625) 886-6204","Phone_w":"(364) 427-6223","Address":"9 IBM Path","City":"Sunnyvale","State":"CA"},{"Zip":"93516","LessThan10K":"0.21","MoreThan10K":"0.23","MoreThan25K":"0.2","MoreThan50K":"0.36","First":"William","Last":"Dishman","Phone_h":"(830) 367-2336","Phone_m":"(086) 309-8267","Phone_w":"(681) 837-4530","Address":"67321 West Siam St.","City":"Salt Lake City","State":"CA"},{"Zip":"93541","LessThan10K":"0.22","MoreThan10K":"0.29","MoreThan25K":"0.25","MoreThan50K":"0.25","First":"Bret","Last":"Ton","Phone_h":"(045) 245-5190","Phone_m":"(439) 631-6439","Phone_w":"(788) 551-4999","Address":"1715 Scott Dr","City":"San Jose","State":"CA"},{"Zip":"93541","LessThan10K":"0.22","MoreThan10K":"0.29","MoreThan25K":"0.25","MoreThan50K":"0.25","First":"Nina","Last":"Sangster","Phone_h":"(516) 664-4592","Phone_m":"(173) 651-6250","Phone_w":"(846) 962-4944","Address":"9 IBM Path","City":"Los Angeles","State":"CA"},{"Zip":"93545","LessThan10K":"0.23","MoreThan10K":"0.27","MoreThan25K":"0.25","MoreThan50K":"0.26","First":"Jeannette","Last":"Kirst","Phone_h":"(532) 000-6299","Phone_m":"(944) 981-6583","Phone_w":"(673) 860-7962","Address":"999 Baker Way","City":"St. Petersburg","State":"CA"},{"Zip":"93545","LessThan10K":"0.23","MoreThan10K":"0.27","MoreThan25K":"0.25","MoreThan50K":"0.26","First":"Rusty","Last":"Royse","Phone_h":"(641) 472-7384","Phone_m":"(976) 997-4056","Phone_w":"(946) 825-1661","Address":"1715 Scott Dr","City":"Kansas City","State":"CA"},{"Zip":"93562","LessThan10K":"0.23","MoreThan10K":"0.19","MoreThan25K":"0.24","MoreThan50K":"0.34","First":"Michel","Last":"Grant","Phone_h":"(625) 207-7950","Phone_m":"(596) 067-3100","Phone_w":"(176) 298-6269","Address":"67321 West Siam St.","City":"Santa Monica","State":"CA"},{"Zip":"93562","LessThan10K":"0.23","MoreThan10K":"0.19","MoreThan25K":"0.24","MoreThan50K":"0.34","First":"Reyna","Last":"Oliverio","Phone_h":"(846) 396-1213","Phone_m":"(611) 067-3370","Phone_w":"(757) 679-1747","Address":"111 Silicon Valley Road","City":"Cupertino","State":"CA"},{"Zip":"93584","LessThan10K":"0.21","MoreThan10K":"0.31","MoreThan25K":"0.26","MoreThan50K":"0.22","First":"Eloy","Last":"Futrell","Phone_h":"(488) 435-3261","Phone_m":"(122) 139-3664","Phone_w":"(363) 653-4046","Address":"1715 Scott Dr","City":"Santa Fe","State":"CA"},{"Zip":"93584","LessThan10K":"0.21","MoreThan10K":"0.31","MoreThan25K":"0.26","MoreThan50K":"0.22","First":"Antione","Last":"Chacko","Phone_h":"(240) 224-8100","Phone_m":"(026) 589-5641","Phone_w":"(997) 073-1979","Address":"123 Anywhere Street","City":"Denver","State":"CA"},{"Zip":"93591","LessThan10K":"0.21","MoreThan10K":"0.27","MoreThan25K":"0.3","MoreThan50K":"0.23","First":"Charity","Last":"Bose","Phone_h":"(047) 282-9926","Phone_m":"(420) 709-7903","Phone_w":"(521) 249-1686","Address":"67321 West Siam St.","City":"Kansas City","State":"CA"},{"Zip":"93591","LessThan10K":"0.21","MoreThan10K":"0.27","MoreThan25K":"0.3","MoreThan50K":"0.23","First":"Jae","Last":"Ito","Phone_h":"(078) 410-4922","Phone_m":"(534) 252-5822","Phone_w":"(611) 554-4721","Address":"321 University Ave.","City":"San Jose","State":"CA"},{"Zip":"93601","LessThan10K":"0.21","MoreThan10K":"0.26","MoreThan25K":"0.26","MoreThan50K":"0.27","First":"Roscoe","Last":"Plotkin","Phone_h":"(855) 796-1551","Phone_m":"(298) 065-3855","Phone_w":"(918) 972-2318","Address":"9 IBM Path","City":"San Jose","State":"CA"},{"Zip":"93601","LessThan10K":"0.21","MoreThan10K":"0.26","MoreThan25K":"0.26","MoreThan50K":"0.27","First":"Marcellus","Last":"Gudino","Phone_h":"(672) 325-8490","Phone_m":"(675) 576-4087","Phone_w":"(018) 412-4106","Address":"123 Anywhere Street","City":"San Francisco","State":"CA"},{"Zip":"93604","LessThan10K":"0.22","MoreThan10K":"0.22","MoreThan25K":"0.26","MoreThan50K":"0.3","First":"Sheri","Last":"Bucci","Phone_h":"(553) 251-3995","Phone_m":"(477) 245-3893","Phone_w":"(585) 472-5304","Address":"48920 San Carlos","City":"San Jose","State":"CA"},{"Zip":"93604","LessThan10K":"0.22","MoreThan10K":"0.22","MoreThan25K":"0.26","MoreThan50K":"0.3","First":"Jan","Last":"Steller","Phone_h":"(078) 344-9915","Phone_m":"(883) 282-4384","Phone_w":"(766) 886-3431","Address":"48920 San Carlos","City":"Salt Lake City","State":"CA"},{"Zip":"93606","LessThan10K":"0.31","MoreThan10K":"0.49","MoreThan25K":"0.15","MoreThan50K":"0.05","First":"Branden","Last":"Chace","Phone_h":"(321) 516-3687","Phone_m":"(640) 907-8707","Phone_w":"(328) 057-7550","Address":"48920 San Carlos","City":"St. Petersburg","State":"CA"},{"Zip":"93606","LessThan10K":"0.31","MoreThan10K":"0.49","MoreThan25K":"0.15","MoreThan50K":"0.05","First":"Cindy","Last":"Pierre","Phone_h":"(890) 625-9547","Phone_m":"(036) 253-6372","Phone_w":"(052) 550-5151","Address":"321 University Ave.","City":"Santa Fe","State":"CA"}]},{"TargetData":[{"Zip":"93608","LessThan10K":"0.22","MoreThan10K":"0.54","MoreThan25K":"0.21","MoreThan50K":"0.03","First":"Dick","Last":"Ferretti","Phone_h":"(730) 535-4935","Phone_m":"(655) 385-7095","Phone_w":"(130) 256-8466","Address":"67321 West Siam St.","City":"Denver","State":"CA"},{"Zip":"93608","LessThan10K":"0.22","MoreThan10K":"0.54","MoreThan25K":"0.21","MoreThan50K":"0.03","First":"Shelby","Last":"Kirby","Phone_h":"(830) 101-6547","Phone_m":"(392) 064-9125","Phone_w":"(565) 712-8388","Address":"777 West Filmore","City":"St. Petersburg","State":"CA"},{"Zip":"93609","LessThan10K":"0.24","MoreThan10K":"0.38","MoreThan25K":"0.24","MoreThan50K":"0.14","First":"Victor","Last":"Mars","Phone_h":"(296) 239-5235","Phone_m":"(552) 304-9643","Phone_w":"(594) 810-4662","Address":"1715 Scott Dr","City":"Ohio","State":"CA"},{"Zip":"93609","LessThan10K":"0.24","MoreThan10K":"0.38","MoreThan25K":"0.24","MoreThan50K":"0.14","First":"Michale","Last":"Mak","Phone_h":"(144) 554-2771","Phone_m":"(606) 813-8783","Phone_w":"(661) 028-3308","Address":"999 Baker Way","City":"San Jose","State":"CA"},{"Zip":"93610","LessThan10K":"0.22","MoreThan10K":"0.34","MoreThan25K":"0.27","MoreThan50K":"0.17","First":"Jeffrey","Last":"Winsett","Phone_h":"(584) 075-0793","Phone_m":"(370) 730-2657","Phone_w":"(060) 887-2758","Address":"67321 West Siam St.","City":"Denver","State":"CA"},{"Zip":"93610","LessThan10K":"0.22","MoreThan10K":"0.34","MoreThan25K":"0.27","MoreThan50K":"0.17","First":"Sofia","Last":"Lauver","Phone_h":"(823) 013-6035","Phone_m":"(750) 191-8492","Phone_w":"(965) 046-1656","Address":"1715 Scott Dr","City":"Persistance","State":"CA"},{"Zip":"93615","LessThan10K":"0.33","MoreThan10K":"0.47","MoreThan25K":"0.17","MoreThan50K":"0.04","First":"Royal","Last":"Zerangue","Phone_h":"(803) 874-5002","Phone_m":"(576) 356-5953","Phone_w":"(704) 176-0878","Address":"123 Anywhere Street","City":"Los Angeles","State":"CA"},{"Zip":"93615","LessThan10K":"0.33","MoreThan10K":"0.47","MoreThan25K":"0.17","MoreThan50K":"0.04","First":"Tamra","Last":"Friedman","Phone_h":"(732) 925-9863","Phone_m":"(478) 541-6179","Phone_w":"(715) 891-0202","Address":"345 Sugar Blvd.","City":"San Francisco","State":"CA"},{"Zip":"93616","LessThan10K":"0.31","MoreThan10K":"0.44","MoreThan25K":"0.18","MoreThan50K":"0.08","First":"Carlos","Last":"Bowman","Phone_h":"(188) 558-4048","Phone_m":"(472) 262-9660","Phone_w":"(026) 233-5012","Address":"345 Sugar Blvd.","City":"Alabama","State":"CA"},{"Zip":"93616","LessThan10K":"0.31","MoreThan10K":"0.44","MoreThan25K":"0.18","MoreThan50K":"0.08","First":"Delbert","Last":"Parsley","Phone_h":"(184) 964-4863","Phone_m":"(104) 008-5712","Phone_w":"(279) 472-1672","Address":"123 Anywhere Street","City":"Los Angeles","State":"CA"},{"Zip":"93618","LessThan10K":"0.28","MoreThan10K":"0.39","MoreThan25K":"0.21","MoreThan50K":"0.13","First":"Cindy","Last":"Tumlin","Phone_h":"(985) 765-5023","Phone_m":"(642) 535-5359","Phone_w":"(588) 894-3826","Address":"777 West Filmore","City":"St. Petersburg","State":"CA"},{"Zip":"93618","LessThan10K":"0.28","MoreThan10K":"0.39","MoreThan25K":"0.21","MoreThan50K":"0.13","First":"Joel","Last":"Cardella","Phone_h":"(560) 138-1467","Phone_m":"(481) 438-3709","Phone_w":"(389) 612-8400","Address":"48920 San Carlos","City":"Santa Fe","State":"CA"},{"Zip":"93620","LessThan10K":"0.22","MoreThan10K":"0.37","MoreThan25K":"0.26","MoreThan50K":"0.15","First":"Manuel","Last":"Carle","Phone_h":"(166) 355-9373","Phone_m":"(678) 840-8366","Phone_w":"(035) 403-4768","Address":"111 Silicon Valley Road","City":"Persistance","State":"CA"},{"Zip":"93620","LessThan10K":"0.22","MoreThan10K":"0.37","MoreThan25K":"0.26","MoreThan50K":"0.15","First":"Cyril","Last":"Kavanagh","Phone_h":"(162) 667-7950","Phone_m":"(669) 602-1497","Phone_w":"(045) 431-2269","Address":"321 University Ave.","City":"Ohio","State":"CA"},{"Zip":"93621","LessThan10K":"0.21","MoreThan10K":"0.27","MoreThan25K":"0.27","MoreThan50K":"0.25","First":"Derek","Last":"Ebeling","Phone_h":"(300) 024-4871","Phone_m":"(405) 072-5563","Phone_w":"(079) 474-5892","Address":"345 Sugar Blvd.","City":"Los Angeles","State":"CA"},{"Zip":"93621","LessThan10K":"0.21","MoreThan10K":"0.27","MoreThan25K":"0.27","MoreThan50K":"0.25","First":"Leticia","Last":"Bolte","Phone_h":"(013) 365-2319","Phone_m":"(894) 672-9002","Phone_w":"(872) 355-3173","Address":"123 Anywhere Street","City":"San Francisco","State":"CA"},{"Zip":"93622","LessThan10K":"0.24","MoreThan10K":"0.45","MoreThan25K":"0.23","MoreThan50K":"0.08","First":"Antonia","Last":"Schoonover","Phone_h":"(447) 693-6869","Phone_m":"(921) 528-9205","Phone_w":"(572) 327-4434","Address":"111 Silicon Valley Road","City":"Sunnyvale","State":"CA"},{"Zip":"93622","LessThan10K":"0.24","MoreThan10K":"0.45","MoreThan25K":"0.23","MoreThan50K":"0.08","First":"Tonya","Last":"Rearick","Phone_h":"(059) 241-5369","Phone_m":"(335) 351-7544","Phone_w":"(249) 887-1225","Address":"345 Sugar Blvd.","City":"Kansas City","State":"CA"},{"Zip":"93625","LessThan10K":"0.23","MoreThan10K":"0.34","MoreThan25K":"0.24","MoreThan50K":"0.2","First":"Hubert","Last":"Flowers","Phone_h":"(981) 567-4730","Phone_m":"(177) 743-1267","Phone_w":"(468) 922-5267","Address":"123 Anywhere Street","City":"Persistance","State":"CA"},{"Zip":"93625","LessThan10K":"0.23","MoreThan10K":"0.34","MoreThan25K":"0.24","MoreThan50K":"0.2","First":"Mallory","Last":"Mccrary","Phone_h":"(223) 786-6510","Phone_m":"(939) 187-8283","Phone_w":"(464) 944-5265","Address":"777 West Filmore","City":"Denver","State":"CA"},{"Zip":"93628","LessThan10K":"0.25","MoreThan10K":"0.38","MoreThan25K":"0.27","MoreThan50K":"0.1","First":"Kristine","Last":"Santoro","Phone_h":"(498) 355-1170","Phone_m":"(658) 686-1589","Phone_w":"(062) 404-8232","Address":"321 University Ave.","City":"Denver","State":"CA"},{"Zip":"93628","LessThan10K":"0.25","MoreThan10K":"0.38","MoreThan25K":"0.27","MoreThan50K":"0.1","First":"James","Last":"Franco","Phone_h":"(075) 560-2775","Phone_m":"(106) 317-1054","Phone_w":"(256) 648-9548","Address":"999 Baker Way","City":"Santa Monica","State":"CA"}]},{"TargetData":[{"Zip":"93630","LessThan10K":"0.23","MoreThan10K":"0.38","MoreThan25K":"0.24","MoreThan50K":"0.15","First":"Avis","Last":"Lentini","Phone_h":"(499) 161-6379","Phone_m":"(419) 325-3525","Phone_w":"(676) 218-5147","Address":"111 Silicon Valley Road","City":"Kansas City","State":"CA"},{"Zip":"93630","LessThan10K":"0.23","MoreThan10K":"0.38","MoreThan25K":"0.24","MoreThan50K":"0.15","First":"Abe","Last":"Bodiford","Phone_h":"(097) 208-5911","Phone_m":"(990) 350-8754","Phone_w":"(434) 264-7703","Address":"67321 West Siam St.","City":"Persistance","State":"CA"},{"Zip":"93637","LessThan10K":"0.21","MoreThan10K":"0.31","MoreThan25K":"0.26","MoreThan50K":"0.23","First":"Simon","Last":"Bushee","Phone_h":"(462) 671-9003","Phone_m":"(646) 502-5957","Phone_w":"(158) 160-1074","Address":"9 IBM Path","City":"St. Petersburg","State":"CA"},{"Zip":"93637","LessThan10K":"0.21","MoreThan10K":"0.31","MoreThan25K":"0.26","MoreThan50K":"0.23","First":"Reinaldo","Last":"Morse","Phone_h":"(051) 007-4974","Phone_m":"(947) 405-1319","Phone_w":"(186) 651-3840","Address":"67321 West Siam St.","City":"San Francisco","State":"CA"},{"Zip":"93638","LessThan10K":"0.23","MoreThan10K":"0.33","MoreThan25K":"0.22","MoreThan50K":"0.21","First":"Eddie","Last":"Hock","Phone_h":"(365) 166-7819","Phone_m":"(546) 459-1610","Phone_w":"(873) 504-7406","Address":"123 Anywhere Street","City":"Kansas City","State":"CA"},{"Zip":"93638","LessThan10K":"0.23","MoreThan10K":"0.33","MoreThan25K":"0.22","MoreThan50K":"0.21","First":"Shauna","Last":"Dicarlo","Phone_h":"(878) 718-4715","Phone_m":"(120) 265-9909","Phone_w":"(375) 276-2805","Address":"1715 Scott Dr","City":"Sunnyvale","State":"CA"},{"Zip":"93639","LessThan10K":"0.26","MoreThan10K":"0.43","MoreThan25K":"0.18","MoreThan50K":"0.14","First":"Philip","Last":"Mangus","Phone_h":"(224) 007-7295","Phone_m":"(406) 890-4000","Phone_w":"(975) 864-8608","Address":"999 Baker Way","City":"San Jose","State":"CA"},{"Zip":"93639","LessThan10K":"0.26","MoreThan10K":"0.43","MoreThan25K":"0.18","MoreThan50K":"0.14","First":"Kirby","Last":"Vanfleet","Phone_h":"(252) 883-4025","Phone_m":"(237) 593-7087","Phone_w":"(901) 370-2369","Address":"111 Silicon Valley Road","City":"St. Petersburg","State":"CA"},{"Zip":"93640","LessThan10K":"0.3","MoreThan10K":"0.54","MoreThan25K":"0.13","MoreThan50K":"0.03","First":"Hobert","Last":"Bertram","Phone_h":"(869) 988-7447","Phone_m":"(535) 874-2748","Phone_w":"(677) 322-7310","Address":"67321 West Siam St.","City":"Salt Lake City","State":"CA"},{"Zip":"93640","LessThan10K":"0.3","MoreThan10K":"0.54","MoreThan25K":"0.13","MoreThan50K":"0.03","First":"Winifred","Last":"Dorgan","Phone_h":"(732) 829-8574","Phone_m":"(616) 051-6267","Phone_w":"(709) 776-4318","Address":"48920 San Carlos","City":"San Jose","State":"CA"},{"Zip":"93641","LessThan10K":"0.21","MoreThan10K":"0.28","MoreThan25K":"0.28","MoreThan50K":"0.23","First":"Harriett","Last":"Wingate","Phone_h":"(486) 621-7198","Phone_m":"(777) 111-7386","Phone_w":"(000) 681-7861","Address":"9 IBM Path","City":"Salt Lake City","State":"CA"},{"Zip":"93641","LessThan10K":"0.21","MoreThan10K":"0.28","MoreThan25K":"0.28","MoreThan50K":"0.23","First":"Angeline","Last":"Barnaby","Phone_h":"(649) 455-6839","Phone_m":"(429) 097-1051","Phone_w":"(448) 187-6040","Address":"999 Baker Way","City":"Ohio","State":"CA"},{"Zip":"93646","LessThan10K":"0.32","MoreThan10K":"0.48","MoreThan25K":"0.16","MoreThan50K":"0.04","First":"Jonathan","Last":"Roth","Phone_h":"(740) 665-5488","Phone_m":"(164) 337-2646","Phone_w":"(578) 962-0218","Address":"1715 Scott Dr","City":"Salt Lake City","State":"CA"},{"Zip":"93646","LessThan10K":"0.32","MoreThan10K":"0.48","MoreThan25K":"0.16","MoreThan50K":"0.04","First":"Douglass","Last":"Eoff","Phone_h":"(543) 156-6734","Phone_m":"(911) 715-1874","Phone_w":"(464) 701-3960","Address":"999 Baker Way","City":"Ohio","State":"CA"},{"Zip":"93647","LessThan10K":"0.28","MoreThan10K":"0.46","MoreThan25K":"0.2","MoreThan50K":"0.06","First":"Bonita","Last":"Neary","Phone_h":"(080) 007-1126","Phone_m":"(182) 221-8200","Phone_w":"(538) 578-4645","Address":"321 University Ave.","City":"Salt Lake City","State":"CA"},{"Zip":"93647","LessThan10K":"0.28","MoreThan10K":"0.46","MoreThan25K":"0.2","MoreThan50K":"0.06","First":"Michael","Last":"Olmsted","Phone_h":"(117) 613-4843","Phone_m":"(903) 093-0167","Phone_w":"(094) 507-8597","Address":"1715 Scott Dr","City":"Santa Monica","State":"CA"},{"Zip":"93648","LessThan10K":"0.3","MoreThan10K":"0.47","MoreThan25K":"0.19","MoreThan50K":"0.04","First":"Nichole","Last":"Argo","Phone_h":"(945) 667-4728","Phone_m":"(124) 172-2736","Phone_w":"(526) 138-9792","Address":"321 University Ave.","City":"Santa Monica","State":"CA"},{"Zip":"93648","LessThan10K":"0.3","MoreThan10K":"0.47","MoreThan25K":"0.19","MoreThan50K":"0.04","First":"Kurtis","Last":"Mcnees","Phone_h":"(707) 305-0686","Phone_m":"(673) 810-6271","Phone_w":"(786) 795-4241","Address":"345 Sugar Blvd.","City":"Denver","State":"CA"},{"Zip":"93650","LessThan10K":"0.26","MoreThan10K":"0.4","MoreThan25K":"0.25","MoreThan50K":"0.09","First":"Dudley","Last":"Inouye","Phone_h":"(683) 984-5315","Phone_m":"(988) 250-1423","Phone_w":"(262) 625-5262","Address":"1715 Scott Dr","City":"Los Angeles","State":"CA"},{"Zip":"93650","LessThan10K":"0.26","MoreThan10K":"0.4","MoreThan25K":"0.25","MoreThan50K":"0.09","First":"Hipolito","Last":"Mullican","Phone_h":"(818) 637-7226","Phone_m":"(719) 615-7423","Phone_w":"(278) 914-5820","Address":"123 Anywhere Street","City":"Denver","State":"CA"},{"Zip":"93652","LessThan10K":"0.28","MoreThan10K":"0.52","MoreThan25K":"0.16","MoreThan50K":"0.04","First":"Candice","Last":"Cartwright","Phone_h":"(198) 701-0414","Phone_m":"(559) 744-8111","Phone_w":"(387) 110-5441","Address":"999 Baker Way","City":"Salt Lake City","State":"CA"},{"Zip":"93652","LessThan10K":"0.28","MoreThan10K":"0.52","MoreThan25K":"0.16","MoreThan50K":"0.04","First":"Lon","Last":"Keesler","Phone_h":"(848) 670-6494","Phone_m":"(063) 740-0867","Phone_w":"(675) 541-4354","Address":"345 Sugar Blvd.","City":"San Jose","State":"CA"}]},{"TargetData":[{"Zip":"93654","LessThan10K":"0.25","MoreThan10K":"0.37","MoreThan25K":"0.21","MoreThan50K":"0.18","First":"Mina","Last":"Mrozek","Phone_h":"(195) 065-5523","Phone_m":"(293) 324-9652","Phone_w":"(016) 371-0302","Address":"345 Sugar Blvd.","City":"Kansas City","State":"CA"},{"Zip":"93654","LessThan10K":"0.25","MoreThan10K":"0.37","MoreThan25K":"0.21","MoreThan50K":"0.18","First":"Waylon","Last":"Bibby","Phone_h":"(226) 173-7713","Phone_m":"(095) 851-8785","Phone_w":"(284) 552-6882","Address":"321 University Ave.","City":"St. Petersburg","State":"CA"},{"Zip":"93656","LessThan10K":"0.22","MoreThan10K":"0.36","MoreThan25K":"0.29","MoreThan50K":"0.14","First":"Valeria","Last":"Nipper","Phone_h":"(856) 963-3730","Phone_m":"(450) 844-1706","Phone_w":"(824) 724-1637","Address":"1715 Scott Dr","City":"Kansas City","State":"CA"},{"Zip":"93656","LessThan10K":"0.22","MoreThan10K":"0.36","MoreThan25K":"0.29","MoreThan50K":"0.14","First":"Jefferey","Last":"Bejarano","Phone_h":"(732) 787-1111","Phone_m":"(286) 872-2030","Phone_w":"(760) 853-9743","Address":"67321 West Siam St.","City":"Ohio","State":"CA"},{"Zip":"93657","LessThan10K":"0.23","MoreThan10K":"0.35","MoreThan25K":"0.22","MoreThan50K":"0.2","First":"Maryellen","Last":"Mendenhall","Phone_h":"(753) 231-4444","Phone_m":"(992) 241-3416","Phone_w":"(242) 918-1764","Address":"999 Baker Way","City":"Santa Fe","State":"CA"},{"Zip":"93657","LessThan10K":"0.23","MoreThan10K":"0.35","MoreThan25K":"0.22","MoreThan50K":"0.2","First":"Marci","Last":"Lampkin","Phone_h":"(879) 322-1753","Phone_m":"(818) 391-8924","Phone_w":"(189) 123-0158","Address":"345 Sugar Blvd.","City":"St. Petersburg","State":"CA"},{"Zip":"93660","LessThan10K":"0.23","MoreThan10K":"0.53","MoreThan25K":"0.2","MoreThan50K":"0.04","First":"Chuck","Last":"Altieri","Phone_h":"(164) 983-1378","Phone_m":"(538) 503-0438","Phone_w":"(584) 651-4903","Address":"999 Baker Way","City":"Kansas City","State":"CA"},{"Zip":"93660","LessThan10K":"0.23","MoreThan10K":"0.53","MoreThan25K":"0.2","MoreThan50K":"0.04","First":"Richard","Last":"Rigg","Phone_h":"(491) 144-4490","Phone_m":"(416) 116-0442","Phone_w":"(817) 386-1895","Address":"67321 West Siam St.","City":"Los Angeles","State":"CA"},{"Zip":"93662","LessThan10K":"0.24","MoreThan10K":"0.37","MoreThan25K":"0.23","MoreThan50K":"0.16","First":"Teodoro","Last":"Emrick","Phone_h":"(878) 228-6411","Phone_m":"(374) 241-8690","Phone_w":"(548) 902-3370","Address":"111 Silicon Valley Road","City":"Santa Fe","State":"CA"},{"Zip":"93662","LessThan10K":"0.24","MoreThan10K":"0.37","MoreThan25K":"0.23","MoreThan50K":"0.16","First":"Kathrine","Last":"Brainerd","Phone_h":"(959) 167-5317","Phone_m":"(019) 472-5466","Phone_w":"(701) 992-7935","Address":"111 Silicon Valley Road","City":"San Mateo","State":"CA"},{"Zip":"93666","LessThan10K":"0.37","MoreThan10K":"0.48","MoreThan25K":"0.11","MoreThan50K":"0.03","First":"Peter","Last":"Bensen","Phone_h":"(829) 229-2722","Phone_m":"(458) 364-5938","Phone_w":"(624) 713-7446","Address":"111 Silicon Valley Road","City":"Sunnyvale","State":"CA"},{"Zip":"93666","LessThan10K":"0.37","MoreThan10K":"0.48","MoreThan25K":"0.11","MoreThan50K":"0.03","First":"Gerald","Last":"Bingaman","Phone_h":"(774) 458-2129","Phone_m":"(982) 390-6272","Phone_w":"(933) 251-9544","Address":"1715 Scott Dr","City":"Alabama","State":"CA"},{"Zip":"93701","LessThan10K":"0.36","MoreThan10K":"0.49","MoreThan25K":"0.13","MoreThan50K":"0.02","First":"Elvis","Last":"Malick","Phone_h":"(057) 338-3381","Phone_m":"(154) 042-8855","Phone_w":"(357) 601-9818","Address":"1715 Scott Dr","City":"Salt Lake City","State":"CA"},{"Zip":"93701","LessThan10K":"0.36","MoreThan10K":"0.49","MoreThan25K":"0.13","MoreThan50K":"0.02","First":"Rhoda","Last":"Boling","Phone_h":"(528) 155-7805","Phone_m":"(780) 833-2291","Phone_w":"(416) 534-0453","Address":"321 University Ave.","City":"Persistance","State":"CA"},{"Zip":"93702","LessThan10K":"0.29","MoreThan10K":"0.46","MoreThan25K":"0.2","MoreThan50K":"0.05","First":"Lorna","Last":"Seagle","Phone_h":"(687) 165-8676","Phone_m":"(501) 305-7237","Phone_w":"(944) 600-9482","Address":"9 IBM Path","City":"Ohio","State":"CA"},{"Zip":"93702","LessThan10K":"0.29","MoreThan10K":"0.46","MoreThan25K":"0.2","MoreThan50K":"0.05","First":"Julian","Last":"Macintyre","Phone_h":"(578) 901-9767","Phone_m":"(217) 815-5617","Phone_w":"(204) 642-3940","Address":"67321 West Siam St.","City":"San Jose","State":"CA"},{"Zip":"93703","LessThan10K":"0.25","MoreThan10K":"0.4","MoreThan25K":"0.26","MoreThan50K":"0.09","First":"Damon","Last":"Cuellar","Phone_h":"(341) 781-4555","Phone_m":"(907) 164-1952","Phone_w":"(413) 159-6788","Address":"9 IBM Path","City":"Denver","State":"CA"},{"Zip":"93703","LessThan10K":"0.25","MoreThan10K":"0.4","MoreThan25K":"0.26","MoreThan50K":"0.09","First":"Isreal","Last":"Loyola","Phone_h":"(029) 896-8603","Phone_m":"(654) 286-6903","Phone_w":"(079) 758-2316","Address":"1715 Scott Dr","City":"Persistance","State":"CA"},{"Zip":"93705","LessThan10K":"0.22","MoreThan10K":"0.36","MoreThan25K":"0.28","MoreThan50K":"0.14","First":"Sanford","Last":"Parikh","Phone_h":"(711) 769-2718","Phone_m":"(999) 038-2765","Phone_w":"(622) 467-9893","Address":"48920 San Carlos","City":"Denver","State":"CA"},{"Zip":"93705","LessThan10K":"0.22","MoreThan10K":"0.36","MoreThan25K":"0.28","MoreThan50K":"0.14","First":"Cruz","Last":"Reisinger","Phone_h":"(002) 252-2786","Phone_m":"(983) 828-3632","Phone_w":"(349) 229-8214","Address":"321 University Ave.","City":"San Mateo","State":"CA"},{"Zip":"93706","LessThan10K":"0.3","MoreThan10K":"0.41","MoreThan25K":"0.21","MoreThan50K":"0.09","First":"Rhonda","Last":"Crary","Phone_h":"(209) 936-7230","Phone_m":"(421) 042-0800","Phone_w":"(527) 154-1598","Address":"999 Baker Way","City":"Los Angeles","State":"CA"},{"Zip":"93706","LessThan10K":"0.3","MoreThan10K":"0.41","MoreThan25K":"0.21","MoreThan50K":"0.09","First":"Carmela","Last":"Foley","Phone_h":"(148) 264-8094","Phone_m":"(181) 779-0161","Phone_w":"(981) 968-8880","Address":"345 Sugar Blvd.","City":"Santa Monica","State":"CA"}]},{"TargetData":[{"Zip":"93710","LessThan10K":"0.21","MoreThan10K":"0.27","MoreThan25K":"0.25","MoreThan50K":"0.27","First":"Al","Last":"Balducci","Phone_h":"(104) 432-0934","Phone_m":"(082) 224-5808","Phone_w":"(474) 669-6543","Address":"67321 West Siam St.","City":"Alabama","State":"CA"},{"Zip":"93710","LessThan10K":"0.21","MoreThan10K":"0.27","MoreThan25K":"0.25","MoreThan50K":"0.27","First":"Adalberto","Last":"Follmer","Phone_h":"(441) 485-3999","Phone_m":"(836) 514-3304","Phone_w":"(361) 854-3171","Address":"345 Sugar Blvd.","City":"Denver","State":"CA"},{"Zip":"93721","LessThan10K":"0.29","MoreThan10K":"0.4","MoreThan25K":"0.2","MoreThan50K":"0.1","First":"Matilda","Last":"Heap","Phone_h":"(430) 246-7443","Phone_m":"(885) 991-9381","Phone_w":"(973) 906-4671","Address":"9 IBM Path","City":"Denver","State":"CA"},{"Zip":"93721","LessThan10K":"0.29","MoreThan10K":"0.4","MoreThan25K":"0.2","MoreThan50K":"0.1","First":"Jonas","Last":"Goheen","Phone_h":"(210) 650-5105","Phone_m":"(839) 284-1381","Phone_w":"(573) 147-3361","Address":"111 Silicon Valley Road","City":"Denver","State":"CA"},{"Zip":"93725","LessThan10K":"0.25","MoreThan10K":"0.39","MoreThan25K":"0.24","MoreThan50K":"0.12","First":"Cynthia","Last":"Bogue","Phone_h":"(914) 286-8039","Phone_m":"(157) 574-1258","Phone_w":"(269) 876-6616","Address":"9 IBM Path","City":"Ohio","State":"CA"},{"Zip":"93725","LessThan10K":"0.25","MoreThan10K":"0.39","MoreThan25K":"0.24","MoreThan50K":"0.12","First":"Beryl","Last":"Miranda","Phone_h":"(938) 107-9880","Phone_m":"(242) 376-0549","Phone_w":"(874) 333-7785","Address":"321 University Ave.","City":"Alabama","State":"CA"},{"Zip":"93726","LessThan10K":"0.23","MoreThan10K":"0.35","MoreThan25K":"0.28","MoreThan50K":"0.14","First":"Lamar","Last":"Fraise","Phone_h":"(263) 853-0285","Phone_m":"(347) 298-1924","Phone_w":"(920) 612-0762","Address":"777 West Filmore","City":"Los Angeles","State":"CA"},{"Zip":"93726","LessThan10K":"0.23","MoreThan10K":"0.35","MoreThan25K":"0.28","MoreThan50K":"0.14","First":"Cassie","Last":"Selders","Phone_h":"(286) 157-6259","Phone_m":"(556) 768-1036","Phone_w":"(449) 171-4598","Address":"999 Baker Way","City":"Denver","State":"CA"},{"Zip":"93727","LessThan10K":"0.22","MoreThan10K":"0.31","MoreThan25K":"0.27","MoreThan50K":"0.2","First":"Doug","Last":"Obrian","Phone_h":"(139) 872-0452","Phone_m":"(778) 936-8179","Phone_w":"(740) 506-8278","Address":"999 Baker Way","City":"Denver","State":"CA"},{"Zip":"93727","LessThan10K":"0.22","MoreThan10K":"0.31","MoreThan25K":"0.27","MoreThan50K":"0.2","First":"Jannie","Last":"Alberto","Phone_h":"(250) 481-3051","Phone_m":"(012) 439-0440","Phone_w":"(193) 152-8616","Address":"48920 San Carlos","City":"Santa Fe","State":"CA"},{"Zip":"93728","LessThan10K":"0.24","MoreThan10K":"0.37","MoreThan25K":"0.28","MoreThan50K":"0.11","First":"Santiago","Last":"Carpenter","Phone_h":"(743) 231-5663","Phone_m":"(868) 849-7620","Phone_w":"(113) 196-8576","Address":"777 West Filmore","City":"Santa Fe","State":"CA"},{"Zip":"93728","LessThan10K":"0.24","MoreThan10K":"0.37","MoreThan25K":"0.28","MoreThan50K":"0.11","First":"Quinn","Last":"Criddle","Phone_h":"(877) 440-4822","Phone_m":"(630) 643-1376","Phone_w":"(038) 179-9074","Address":"123 Anywhere Street","City":"Salt Lake City","State":"CA"},{"Zip":"93745","LessThan10K":"0.27","MoreThan10K":"0.51","MoreThan25K":"0.17","MoreThan50K":"0.05","First":"Erasmo","Last":"Cogar","Phone_h":"(605) 222-8017","Phone_m":"(040) 891-6707","Phone_w":"(795) 749-4466","Address":"345 Sugar Blvd.","City":"Sunnyvale","State":"CA"},{"Zip":"93745","LessThan10K":"0.27","MoreThan10K":"0.51","MoreThan25K":"0.17","MoreThan50K":"0.05","First":"Liliana","Last":"Blood","Phone_h":"(422) 384-3419","Phone_m":"(152) 602-1800","Phone_w":"(424) 441-7012","Address":"1715 Scott Dr","City":"San Mateo","State":"CA"},{"Zip":"93755","LessThan10K":"0.21","MoreThan10K":"0.28","MoreThan25K":"0.32","MoreThan50K":"0.2","First":"Mandy","Last":"Bolling","Phone_h":"(863) 527-2416","Phone_m":"(692) 347-5361","Phone_w":"(897) 813-3126","Address":"111 Silicon Valley Road","City":"Ohio","State":"CA"},{"Zip":"93755","LessThan10K":"0.21","MoreThan10K":"0.28","MoreThan25K":"0.32","MoreThan50K":"0.2","First":"Margarito","Last":"Granberry","Phone_h":"(611) 478-5470","Phone_m":"(643) 398-8776","Phone_w":"(969) 310-7317","Address":"9 IBM Path","City":"Ohio","State":"CA"},{"Zip":"93790","LessThan10K":"0.22","MoreThan10K":"0.25","MoreThan25K":"0.31","MoreThan50K":"0.22","First":"Chris","Last":"Dilley","Phone_h":"(234) 070-3084","Phone_m":"(732) 856-9799","Phone_w":"(092) 967-1991","Address":"1715 Scott Dr","City":"San Francisco","State":"CA"},{"Zip":"93790","LessThan10K":"0.22","MoreThan10K":"0.25","MoreThan25K":"0.31","MoreThan50K":"0.22","First":"Derick","Last":"Bueno","Phone_h":"(639) 932-4904","Phone_m":"(746) 717-5273","Phone_w":"(634) 408-1110","Address":"1715 Scott Dr","City":"Los Angeles","State":"CA"},{"Zip":"93794","LessThan10K":"0.21","MoreThan10K":"0.24","MoreThan25K":"0.31","MoreThan50K":"0.24","First":"Dominique","Last":"Titcomb","Phone_h":"(894) 854-5972","Phone_m":"(797) 678-2392","Phone_w":"(076) 723-9484","Address":"111 Silicon Valley Road","City":"Santa Fe","State":"CA"},{"Zip":"93794","LessThan10K":"0.21","MoreThan10K":"0.24","MoreThan25K":"0.31","MoreThan50K":"0.24","First":"Thanh","Last":"Konieczny","Phone_h":"(861) 776-7318","Phone_m":"(847) 183-8378","Phone_w":"(521) 332-6869","Address":"345 Sugar Blvd.","City":"Alabama","State":"CA"},{"Zip":"93944","LessThan10K":"0.27","MoreThan10K":"0.61","MoreThan25K":"0.08","MoreThan50K":"0.04","First":"Bryant","Last":"Tapia","Phone_h":"(879) 263-3256","Phone_m":"(729) 118-1643","Phone_w":"(145) 555-4621","Address":"345 Sugar Blvd.","City":"Denver","State":"CA"},{"Zip":"93944","LessThan10K":"0.27","MoreThan10K":"0.61","MoreThan25K":"0.08","MoreThan50K":"0.04","First":"Monte","Last":"Batiste","Phone_h":"(194) 995-0370","Phone_m":"(474) 985-9683","Phone_w":"(304) 606-7813","Address":"1715 Scott Dr","City":"Salt Lake City","State":"CA"}]},{"TargetData":[{"Zip":"94309","LessThan10K":"0.41","MoreThan10K":"0.25","MoreThan25K":"0.15","MoreThan50K":"0.18","First":"Cathryn","Last":"Feaster","Phone_h":"(452) 784-3496","Phone_m":"(049) 159-3136","Phone_w":"(945) 811-8795","Address":"345 Sugar Blvd.","City":"San Mateo","State":"CA"},{"Zip":"94309","LessThan10K":"0.41","MoreThan10K":"0.25","MoreThan25K":"0.15","MoreThan50K":"0.18","First":"Latonya","Last":"Eskew","Phone_h":"(041) 856-7357","Phone_m":"(795) 469-6443","Phone_w":"(842) 853-3107","Address":"9 IBM Path","City":"Alabama","State":"CA"},{"Zip":"94508","LessThan10K":"0.22","MoreThan10K":"0.19","MoreThan25K":"0.22","MoreThan50K":"0.36","First":"Marilyn","Last":"Zermeno","Phone_h":"(913) 479-7867","Phone_m":"(260) 998-3860","Phone_w":"(437) 406-7295","Address":"67321 West Siam St.","City":"Sunnyvale","State":"CA"},{"Zip":"94508","LessThan10K":"0.22","MoreThan10K":"0.19","MoreThan25K":"0.22","MoreThan50K":"0.36","First":"Hobert","Last":"Stansfield","Phone_h":"(130) 501-1506","Phone_m":"(755) 551-7808","Phone_w":"(671) 996-4984","Address":"777 West Filmore","City":"Los Angeles","State":"CA"},{"Zip":"94516","LessThan10K":"0.23","MoreThan10K":"0.18","MoreThan25K":"0.15","MoreThan50K":"0.43","First":"Hiram","Last":"Stephenson","Phone_h":"(168) 237-3299","Phone_m":"(276) 518-9050","Phone_w":"(275) 298-8091","Address":"9 IBM Path","City":"Sunnyvale","State":"CA"},{"Zip":"94516","LessThan10K":"0.23","MoreThan10K":"0.18","MoreThan25K":"0.15","MoreThan50K":"0.43","First":"Edison","Last":"Napoleon","Phone_h":"(995) 263-5063","Phone_m":"(283) 681-6240","Phone_w":"(766) 204-1716","Address":"9 IBM Path","City":"Persistance","State":"CA"},{"Zip":"94607","LessThan10K":"0.22","MoreThan10K":"0.33","MoreThan25K":"0.29","MoreThan50K":"0.17","First":"Felicia","Last":"Cate","Phone_h":"(102) 819-0135","Phone_m":"(278) 724-1817","Phone_w":"(454) 190-6951","Address":"777 West Filmore","City":"Salt Lake City","State":"CA"},{"Zip":"94607","LessThan10K":"0.22","MoreThan10K":"0.33","MoreThan25K":"0.29","MoreThan50K":"0.17","First":"Eddie","Last":"Huntington","Phone_h":"(808) 554-5036","Phone_m":"(722) 890-8926","Phone_w":"(856) 907-1155","Address":"345 Sugar Blvd.","City":"San Mateo","State":"CA"},{"Zip":"94613","LessThan10K":"0.41","MoreThan10K":"0.12","MoreThan25K":"0.24","MoreThan50K":"0.24","First":"Katie","Last":"Hertzler","Phone_h":"(810) 956-9178","Phone_m":"(164) 124-2564","Phone_w":"(197) 628-5599","Address":"9 IBM Path","City":"Los Angeles","State":"CA"},{"Zip":"94613","LessThan10K":"0.41","MoreThan10K":"0.12","MoreThan25K":"0.24","MoreThan50K":"0.24","First":"Elvira","Last":"Swofford","Phone_h":"(717) 357-9873","Phone_m":"(710) 434-4571","Phone_w":"(923) 061-5287","Address":"999 Baker Way","City":"Denver","State":"CA"},{"Zip":"94704","LessThan10K":"0.28","MoreThan10K":"0.26","MoreThan25K":"0.27","MoreThan50K":"0.2","First":"Neal","Last":"Lofton","Phone_h":"(504) 968-6995","Phone_m":"(723) 292-2707","Phone_w":"(768) 952-3170","Address":"111 Silicon Valley Road","City":"St. Petersburg","State":"CA"},{"Zip":"94704","LessThan10K":"0.28","MoreThan10K":"0.26","MoreThan25K":"0.27","MoreThan50K":"0.2","First":"Luisa","Last":"Brann","Phone_h":"(776) 938-2205","Phone_m":"(060) 811-7121","Phone_w":"(171) 584-0854","Address":"777 West Filmore","City":"Alabama","State":"CA"},{"Zip":"94720","LessThan10K":"0.42","MoreThan10K":"0.34","MoreThan25K":"0.16","MoreThan50K":"0.09","First":"Nadia","Last":"Hedstrom","Phone_h":"(823) 651-1143","Phone_m":"(525) 999-9343","Phone_w":"(261) 009-1105","Address":"321 University Ave.","City":"Santa Monica","State":"CA"},{"Zip":"94720","LessThan10K":"0.42","MoreThan10K":"0.34","MoreThan25K":"0.16","MoreThan50K":"0.09","First":"Ivory","Last":"Worsley","Phone_h":"(872) 458-7487","Phone_m":"(777) 606-7122","Phone_w":"(217) 013-0520","Address":"48920 San Carlos","City":"Kansas City","State":"CA"},{"Zip":"94922","LessThan10K":"0.23","MoreThan10K":"0.26","MoreThan25K":"0.21","MoreThan50K":"0.3","First":"Scottie","Last":"Norden","Phone_h":"(920) 708-9380","Phone_m":"(745) 800-6155","Phone_w":"(539) 184-2381","Address":"345 Sugar Blvd.","City":"San Francisco","State":"CA"},{"Zip":"94922","LessThan10K":"0.23","MoreThan10K":"0.26","MoreThan25K":"0.21","MoreThan50K":"0.3","First":"Leola","Last":"Mcguinness","Phone_h":"(720) 964-9562","Phone_m":"(267) 915-2440","Phone_w":"(140) 765-0775","Address":"123 Anywhere Street","City":"San Jose","State":"CA"},{"Zip":"94924","LessThan10K":"0.25","MoreThan10K":"0.24","MoreThan25K":"0.23","MoreThan50K":"0.28","First":"Ty","Last":"Girouard","Phone_h":"(238) 921-7316","Phone_m":"(025) 184-1784","Phone_w":"(721) 544-0697","Address":"123 Anywhere Street","City":"Persistance","State":"CA"},{"Zip":"94924","LessThan10K":"0.25","MoreThan10K":"0.24","MoreThan25K":"0.23","MoreThan50K":"0.28","First":"Dean","Last":"Weatherwax","Phone_h":"(025) 045-4895","Phone_m":"(841) 540-3060","Phone_w":"(030) 224-6835","Address":"48920 San Carlos","City":"Alabama","State":"CA"},{"Zip":"94940","LessThan10K":"0.27","MoreThan10K":"0.19","MoreThan25K":"0.29","MoreThan50K":"0.25","First":"Stephen","Last":"Gosney","Phone_h":"(179) 106-4587","Phone_m":"(164) 317-7768","Phone_w":"(625) 583-8839","Address":"999 Baker Way","City":"San Francisco","State":"CA"},{"Zip":"94940","LessThan10K":"0.27","MoreThan10K":"0.19","MoreThan25K":"0.29","MoreThan50K":"0.25","First":"Tad","Last":"Mcculloch","Phone_h":"(701) 213-8944","Phone_m":"(793) 282-7161","Phone_w":"(981) 452-6405","Address":"123 Anywhere Street","City":"Salt Lake City","State":"CA"},{"Zip":"95064","LessThan10K":"0.39","MoreThan10K":"0.23","MoreThan25K":"0.17","MoreThan50K":"0.2","First":"Numbers","Last":"Labarge","Phone_h":"(330) 851-9526","Phone_m":"(246) 352-5698","Phone_w":"(859) 518-4127","Address":"9 IBM Path","City":"Sunnyvale","State":"CA"},{"Zip":"95064","LessThan10K":"0.39","MoreThan10K":"0.23","MoreThan25K":"0.17","MoreThan50K":"0.2","First":"Jannie","Last":"Darnell","Phone_h":"(368) 464-0370","Phone_m":"(741) 829-7910","Phone_w":"(681) 475-7353","Address":"777 West Filmore","City":"San Francisco","State":"CA"}]},{"TargetData":[{"Zip":"95075","LessThan10K":"0.21","MoreThan10K":"0.17","MoreThan25K":"0.2","MoreThan50K":"0.41","First":"Wally","Last":"Gulley","Phone_h":"(272) 614-0640","Phone_m":"(799) 839-2437","Phone_w":"(875) 445-8135","Address":"777 West Filmore","City":"Sunnyvale","State":"CA"},{"Zip":"95075","LessThan10K":"0.21","MoreThan10K":"0.17","MoreThan25K":"0.2","MoreThan50K":"0.41","First":"Nellie","Last":"Holter","Phone_h":"(797) 914-3071","Phone_m":"(054) 720-0856","Phone_w":"(735) 518-9999","Address":"111 Silicon Valley Road","City":"Santa Monica","State":"CA"},{"Zip":"95202","LessThan10K":"0.37","MoreThan10K":"0.43","MoreThan25K":"0.16","MoreThan50K":"0.04","First":"Teddy","Last":"Carrion","Phone_h":"(769) 960-7763","Phone_m":"(117) 699-2696","Phone_w":"(176) 506-0246","Address":"777 West Filmore","City":"Alabama","State":"CA"},{"Zip":"95202","LessThan10K":"0.37","MoreThan10K":"0.43","MoreThan25K":"0.16","MoreThan50K":"0.04","First":"Mayra","Last":"Sweitzer","Phone_h":"(174) 305-4738","Phone_m":"(658) 363-6300","Phone_w":"(445) 140-5539","Address":"321 University Ave.","City":"Denver","State":"CA"},{"Zip":"95205","LessThan10K":"0.24","MoreThan10K":"0.39","MoreThan25K":"0.28","MoreThan50K":"0.1","First":"Tamara","Last":"Chancellor","Phone_h":"(510) 617-9962","Phone_m":"(782) 545-8470","Phone_w":"(489) 789-4750","Address":"1715 Scott Dr","City":"Santa Fe","State":"CA"},{"Zip":"95205","LessThan10K":"0.24","MoreThan10K":"0.39","MoreThan25K":"0.28","MoreThan50K":"0.1","First":"Lindsay","Last":"Denniston","Phone_h":"(589) 077-6991","Phone_m":"(199) 746-7734","Phone_w":"(811) 102-7967","Address":"345 Sugar Blvd.","City":"Cupertino","State":"CA"},{"Zip":"95210","LessThan10K":"0.21","MoreThan10K":"0.29","MoreThan25K":"0.29","MoreThan50K":"0.2","First":"Eduardo","Last":"Featherstone","Phone_h":"(393) 905-3146","Phone_m":"(364) 001-3151","Phone_w":"(114) 748-9314","Address":"777 West Filmore","City":"Denver","State":"CA"},{"Zip":"95210","LessThan10K":"0.21","MoreThan10K":"0.29","MoreThan25K":"0.29","MoreThan50K":"0.2","First":"Mara","Last":"Colwell","Phone_h":"(148) 457-8269","Phone_m":"(827) 887-9107","Phone_w":"(162) 656-9903","Address":"777 West Filmore","City":"San Mateo","State":"CA"},{"Zip":"95221","LessThan10K":"0.21","MoreThan10K":"0.26","MoreThan25K":"0.27","MoreThan50K":"0.26","First":"Sam","Last":"Sansone","Phone_h":"(615) 429-7100","Phone_m":"(729) 689-6532","Phone_w":"(153) 852-3990","Address":"345 Sugar Blvd.","City":"Denver","State":"CA"},{"Zip":"95221","LessThan10K":"0.21","MoreThan10K":"0.26","MoreThan25K":"0.27","MoreThan50K":"0.26","First":"Pat","Last":"Seagraves","Phone_h":"(224) 875-6164","Phone_m":"(471) 870-1898","Phone_w":"(621) 828-2909","Address":"777 West Filmore","City":"Kansas City","State":"CA"},{"Zip":"95248","LessThan10K":"0.22","MoreThan10K":"0.32","MoreThan25K":"0.23","MoreThan50K":"0.23","First":"Rosalie","Last":"Bonnett","Phone_h":"(197) 655-6983","Phone_m":"(915) 051-0586","Phone_w":"(974) 924-4166","Address":"777 West Filmore","City":"Kansas City","State":"CA"},{"Zip":"95248","LessThan10K":"0.22","MoreThan10K":"0.32","MoreThan25K":"0.23","MoreThan50K":"0.23","First":"Sal","Last":"Moak","Phone_h":"(382) 467-4127","Phone_m":"(102) 571-1628","Phone_w":"(915) 141-3585","Address":"321 University Ave.","City":"Kansas City","State":"CA"},{"Zip":"95253","LessThan10K":"0.23","MoreThan10K":"0.47","MoreThan25K":"0.21","MoreThan50K":"0.09","First":"Christopher","Last":"Suitt","Phone_h":"(553) 455-5430","Phone_m":"(636) 228-9648","Phone_w":"(804) 806-4978","Address":"999 Baker Way","City":"Cupertino","State":"CA"},{"Zip":"95253","LessThan10K":"0.23","MoreThan10K":"0.47","MoreThan25K":"0.21","MoreThan50K":"0.09","First":"Wayne","Last":"Riding","Phone_h":"(997) 282-4323","Phone_m":"(939) 825-5049","Phone_w":"(346) 296-3511","Address":"777 West Filmore","City":"Los Angeles","State":"CA"},{"Zip":"95257","LessThan10K":"0.21","MoreThan10K":"0.3","MoreThan25K":"0.29","MoreThan50K":"0.21","First":"Kelley","Last":"Vida","Phone_h":"(016) 644-0257","Phone_m":"(170) 075-3032","Phone_w":"(474) 796-8063","Address":"321 University Ave.","City":"Denver","State":"CA"},{"Zip":"95257","LessThan10K":"0.21","MoreThan10K":"0.3","MoreThan25K":"0.29","MoreThan50K":"0.21","First":"Bryce","Last":"Jesse","Phone_h":"(392) 451-9587","Phone_m":"(571) 304-9654","Phone_w":"(629) 533-9455","Address":"777 West Filmore","City":"San Jose","State":"CA"},{"Zip":"95303","LessThan10K":"0.21","MoreThan10K":"0.38","MoreThan25K":"0.23","MoreThan50K":"0.18","First":"Marcelo","Last":"Diego","Phone_h":"(757) 654-3712","Phone_m":"(923) 290-8218","Phone_w":"(346) 282-4007","Address":"777 West Filmore","City":"San Francisco","State":"CA"},{"Zip":"95303","LessThan10K":"0.21","MoreThan10K":"0.38","MoreThan25K":"0.23","MoreThan50K":"0.18","First":"Zelma","Last":"Sebring","Phone_h":"(780) 868-9651","Phone_m":"(287) 526-3378","Phone_w":"(539) 610-6156","Address":"999 Baker Way","City":"Santa Monica","State":"CA"},{"Zip":"95305","LessThan10K":"0.22","MoreThan10K":"0.32","MoreThan25K":"0.27","MoreThan50K":"0.19","First":"Mallory","Last":"Crosier","Phone_h":"(239) 706-1782","Phone_m":"(713) 465-4374","Phone_w":"(440) 767-8470","Address":"48920 San Carlos","City":"Cupertino","State":"CA"},{"Zip":"95305","LessThan10K":"0.22","MoreThan10K":"0.32","MoreThan25K":"0.27","MoreThan50K":"0.19","First":"Calvin","Last":"Reed","Phone_h":"(742) 096-8955","Phone_m":"(015) 891-9623","Phone_w":"(309) 374-7815","Address":"1715 Scott Dr","City":"San Mateo","State":"CA"},{"Zip":"95309","LessThan10K":"0.22","MoreThan10K":"0.24","MoreThan25K":"0.23","MoreThan50K":"0.31","First":"Shaun","Last":"Minter","Phone_h":"(376) 607-1973","Phone_m":"(121) 207-7277","Phone_w":"(203) 177-4023","Address":"1715 Scott Dr","City":"Santa Fe","State":"CA"},{"Zip":"95309","LessThan10K":"0.22","MoreThan10K":"0.24","MoreThan25K":"0.23","MoreThan50K":"0.31","First":"Andrea","Last":"Haman","Phone_h":"(085) 176-1387","Phone_m":"(872) 883-6108","Phone_w":"(802) 682-4784","Address":"321 University Ave.","City":"St. Petersburg","State":"CA"}]},{"TargetData":[{"Zip":"95310","LessThan10K":"0.21","MoreThan10K":"0.29","MoreThan25K":"0.24","MoreThan50K":"0.26","First":"Clay","Last":"Client","Phone_h":"(638) 673-9861","Phone_m":"(378) 129-8253","Phone_w":"(302) 275-7472","Address":"67321 West Siam St.","City":"Santa Fe","State":"CA"},{"Zip":"95310","LessThan10K":"0.21","MoreThan10K":"0.29","MoreThan25K":"0.24","MoreThan50K":"0.26","First":"Bernardo","Last":"Friar","Phone_h":"(278) 869-2647","Phone_m":"(153) 335-3645","Phone_w":"(034) 321-6909","Address":"123 Anywhere Street","City":"Denver","State":"CA"},{"Zip":"95312","LessThan10K":"0.23","MoreThan10K":"0.43","MoreThan25K":"0.26","MoreThan50K":"0.09","First":"Jamel","Last":"Frankel","Phone_h":"(903) 214-2001","Phone_m":"(020) 464-1338","Phone_w":"(460) 042-1698","Address":"111 Silicon Valley Road","City":"Cupertino","State":"CA"},{"Zip":"95312","LessThan10K":"0.23","MoreThan10K":"0.43","MoreThan25K":"0.26","MoreThan50K":"0.09","First":"Dee","Last":"Hofmann","Phone_h":"(153) 061-6496","Phone_m":"(092) 815-5109","Phone_w":"(840) 192-7423","Address":"67321 West Siam St.","City":"Ohio","State":"CA"},{"Zip":"95313","LessThan10K":"0.21","MoreThan10K":"0.41","MoreThan25K":"0.26","MoreThan50K":"0.12","First":"Devon","Last":"Klima","Phone_h":"(464) 094-1974","Phone_m":"(383) 302-0545","Phone_w":"(670) 758-9209","Address":"123 Anywhere Street","City":"Sunnyvale","State":"CA"},{"Zip":"95313","LessThan10K":"0.21","MoreThan10K":"0.41","MoreThan25K":"0.26","MoreThan50K":"0.12","First":"Ramiro","Last":"Gonzales","Phone_h":"(443) 227-4136","Phone_m":"(483) 593-5387","Phone_w":"(535) 816-8016","Address":"777 West Filmore","City":"San Mateo","State":"CA"},{"Zip":"95319","LessThan10K":"0.22","MoreThan10K":"0.42","MoreThan25K":"0.26","MoreThan50K":"0.1","First":"Winfred","Last":"Marcantel","Phone_h":"(359) 396-4047","Phone_m":"(144) 802-4647","Phone_w":"(372) 788-3713","Address":"67321 West Siam St.","City":"Sunnyvale","State":"CA"},{"Zip":"95319","LessThan10K":"0.22","MoreThan10K":"0.42","MoreThan25K":"0.26","MoreThan50K":"0.1","First":"Olen","Last":"Lor","Phone_h":"(311) 492-2997","Phone_m":"(506) 933-5037","Phone_w":"(277) 094-0919","Address":"777 West Filmore","City":"Los Angeles","State":"CA"},{"Zip":"95327","LessThan10K":"0.21","MoreThan10K":"0.25","MoreThan25K":"0.27","MoreThan50K":"0.26","First":"Olin","Last":"Blum","Phone_h":"(553) 021-6332","Phone_m":"(832) 994-1050","Phone_w":"(770) 971-5192","Address":"67321 West Siam St.","City":"St. Petersburg","State":"CA"},{"Zip":"95327","LessThan10K":"0.21","MoreThan10K":"0.25","MoreThan25K":"0.27","MoreThan50K":"0.26","First":"Socorro","Last":"Gleaton","Phone_h":"(272) 171-5377","Phone_m":"(602) 629-3525","Phone_w":"(661) 975-1212","Address":"48920 San Carlos","City":"Ohio","State":"CA"},{"Zip":"95328","LessThan10K":"0.24","MoreThan10K":"0.37","MoreThan25K":"0.3","MoreThan50K":"0.09","First":"Selma","Last":"Wysong","Phone_h":"(685) 817-0993","Phone_m":"(012) 670-3765","Phone_w":"(668) 992-7666","Address":"345 Sugar Blvd.","City":"Sunnyvale","State":"CA"},{"Zip":"95328","LessThan10K":"0.24","MoreThan10K":"0.37","MoreThan25K":"0.3","MoreThan50K":"0.09","First":"Isidro","Last":"Ebersole","Phone_h":"(119) 873-9363","Phone_m":"(806) 548-5777","Phone_w":"(160) 883-2859","Address":"1715 Scott Dr","City":"San Francisco","State":"CA"},{"Zip":"95333","LessThan10K":"0.24","MoreThan10K":"0.36","MoreThan25K":"0.25","MoreThan50K":"0.15","First":"Nestor","Last":"Ellman","Phone_h":"(649) 570-0115","Phone_m":"(920) 940-4279","Phone_w":"(324) 854-8217","Address":"123 Anywhere Street","City":"San Jose","State":"CA"},{"Zip":"95333","LessThan10K":"0.24","MoreThan10K":"0.36","MoreThan25K":"0.25","MoreThan50K":"0.15","First":"Bernardo","Last":"Krull","Phone_h":"(067) 009-4554","Phone_m":"(932) 554-3492","Phone_w":"(072) 081-0485","Address":"123 Anywhere Street","City":"Kansas City","State":"CA"},{"Zip":"95334","LessThan10K":"0.21","MoreThan10K":"0.41","MoreThan25K":"0.28","MoreThan50K":"0.1","First":"Hugh","Last":"Brickner","Phone_h":"(096) 866-1291","Phone_m":"(877) 026-1885","Phone_w":"(772) 305-9977","Address":"1715 Scott Dr","City":"Alabama","State":"CA"},{"Zip":"95334","LessThan10K":"0.21","MoreThan10K":"0.41","MoreThan25K":"0.28","MoreThan50K":"0.1","First":"Lindsey","Last":"Ordaz","Phone_h":"(716) 016-7837","Phone_m":"(427) 905-5036","Phone_w":"(150) 519-9145","Address":"9 IBM Path","City":"Salt Lake City","State":"CA"},{"Zip":"95338","LessThan10K":"0.21","MoreThan10K":"0.24","MoreThan25K":"0.25","MoreThan50K":"0.3","First":"Katelyn","Last":"Gregson","Phone_h":"(236) 070-9289","Phone_m":"(265) 361-0391","Phone_w":"(120) 002-7361","Address":"1715 Scott Dr","City":"Denver","State":"CA"},{"Zip":"95338","LessThan10K":"0.21","MoreThan10K":"0.24","MoreThan25K":"0.25","MoreThan50K":"0.3","First":"Fern","Last":"Mills","Phone_h":"(532) 253-2330","Phone_m":"(829) 810-9536","Phone_w":"(620) 710-4675","Address":"999 Baker Way","City":"San Jose","State":"CA"},{"Zip":"95340","LessThan10K":"0.23","MoreThan10K":"0.3","MoreThan25K":"0.23","MoreThan50K":"0.24","First":"Dave","Last":"Poteet","Phone_h":"(183) 346-3757","Phone_m":"(813) 158-2984","Phone_w":"(415) 556-7155","Address":"111 Silicon Valley Road","City":"Santa Monica","State":"CA"},{"Zip":"95340","LessThan10K":"0.23","MoreThan10K":"0.3","MoreThan25K":"0.23","MoreThan50K":"0.24","First":"Brice","Last":"Mielke","Phone_h":"(428) 637-9149","Phone_m":"(219) 969-4852","Phone_w":"(541) 063-0522","Address":"1715 Scott Dr","City":"Santa Fe","State":"CA"},{"Zip":"95341","LessThan10K":"0.26","MoreThan10K":"0.42","MoreThan25K":"0.22","MoreThan50K":"0.1","First":"Ruth","Last":"Fawcett","Phone_h":"(452) 904-5274","Phone_m":"(973) 860-0599","Phone_w":"(998) 626-1787","Address":"1715 Scott Dr","City":"Ohio","State":"CA"},{"Zip":"95341","LessThan10K":"0.26","MoreThan10K":"0.42","MoreThan25K":"0.22","MoreThan50K":"0.1","First":"Harriet","Last":"Munch","Phone_h":"(925) 920-3979","Phone_m":"(795) 080-0725","Phone_w":"(159) 275-8519","Address":"321 University Ave.","City":"Santa Monica","State":"CA"}]},{"TargetData":[{"Zip":"95348","LessThan10K":"0.21","MoreThan10K":"0.3","MoreThan25K":"0.27","MoreThan50K":"0.22","First":"Bennie","Last":"Laufer","Phone_h":"(698) 764-9340","Phone_m":"(328) 719-4377","Phone_w":"(017) 089-1322","Address":"321 University Ave.","City":"Los Angeles","State":"CA"},{"Zip":"95348","LessThan10K":"0.21","MoreThan10K":"0.3","MoreThan25K":"0.27","MoreThan50K":"0.22","First":"Mandy","Last":"Unruh","Phone_h":"(697) 961-3820","Phone_m":"(928) 700-0412","Phone_w":"(435) 489-2470","Address":"999 Baker Way","City":"Santa Monica","State":"CA"},{"Zip":"95351","LessThan10K":"0.25","MoreThan10K":"0.34","MoreThan25K":"0.27","MoreThan50K":"0.14","First":"Jan","Last":"Raphael","Phone_h":"(576) 556-1822","Phone_m":"(686) 284-3976","Phone_w":"(915) 799-1223","Address":"67321 West Siam St.","City":"San Mateo","State":"CA"},{"Zip":"95351","LessThan10K":"0.25","MoreThan10K":"0.34","MoreThan25K":"0.27","MoreThan50K":"0.14","First":"Maynard","Last":"Hallett","Phone_h":"(766) 986-9951","Phone_m":"(003) 368-0024","Phone_w":"(563) 900-8574","Address":"123 Anywhere Street","City":"San Jose","State":"CA"},{"Zip":"95353","LessThan10K":"0.21","MoreThan10K":"0.28","MoreThan25K":"0.3","MoreThan50K":"0.21","First":"Johnathon","Last":"Cortinas","Phone_h":"(488) 617-6836","Phone_m":"(325) 928-0098","Phone_w":"(048) 013-0544","Address":"111 Silicon Valley Road","City":"San Jose","State":"CA"},{"Zip":"95353","LessThan10K":"0.21","MoreThan10K":"0.28","MoreThan25K":"0.3","MoreThan50K":"0.21","First":"Monica","Last":"Alderson","Phone_h":"(737) 841-3901","Phone_m":"(816) 838-9079","Phone_w":"(164) 770-0468","Address":"1715 Scott Dr","City":"Santa Fe","State":"CA"},{"Zip":"95358","LessThan10K":"0.21","MoreThan10K":"0.3","MoreThan25K":"0.27","MoreThan50K":"0.23","First":"Ferdinand","Last":"Etchison","Phone_h":"(987) 972-7874","Phone_m":"(582) 667-9145","Phone_w":"(759) 679-3594","Address":"345 Sugar Blvd.","City":"Cupertino","State":"CA"},{"Zip":"95358","LessThan10K":"0.21","MoreThan10K":"0.3","MoreThan25K":"0.27","MoreThan50K":"0.23","First":"Carla","Last":"Lobel","Phone_h":"(118) 563-8770","Phone_m":"(709) 352-7469","Phone_w":"(105) 922-7270","Address":"111 Silicon Valley Road","City":"San Francisco","State":"CA"},{"Zip":"95365","LessThan10K":"0.28","MoreThan10K":"0.49","MoreThan25K":"0.2","MoreThan50K":"0.04","First":"Rod","Last":"Lamons","Phone_h":"(138) 610-4027","Phone_m":"(186) 279-6215","Phone_w":"(779) 426-2138","Address":"67321 West Siam St.","City":"Santa Fe","State":"CA"},{"Zip":"95365","LessThan10K":"0.28","MoreThan10K":"0.49","MoreThan25K":"0.2","MoreThan50K":"0.04","First":"Cecile","Last":"Charland","Phone_h":"(377) 666-8353","Phone_m":"(945) 684-2078","Phone_w":"(690) 784-5674","Address":"1715 Scott Dr","City":"San Francisco","State":"CA"},{"Zip":"95374","LessThan10K":"0.23","MoreThan10K":"0.3","MoreThan25K":"0.28","MoreThan50K":"0.19","First":"Vito","Last":"Koerner","Phone_h":"(095) 325-9856","Phone_m":"(030) 652-7650","Phone_w":"(086) 490-3546","Address":"67321 West Siam St.","City":"Salt Lake City","State":"CA"},{"Zip":"95374","LessThan10K":"0.23","MoreThan10K":"0.3","MoreThan25K":"0.28","MoreThan50K":"0.19","First":"Ira","Last":"Jaramillo","Phone_h":"(954) 864-0925","Phone_m":"(973) 128-8075","Phone_w":"(262) 101-7863","Address":"9 IBM Path","City":"St. Petersburg","State":"CA"},{"Zip":"95379","LessThan10K":"0.22","MoreThan10K":"0.27","MoreThan25K":"0.25","MoreThan50K":"0.26","First":"Leonor","Last":"Pedrick","Phone_h":"(702) 967-1108","Phone_m":"(785) 399-5994","Phone_w":"(638) 392-7964","Address":"777 West Filmore","City":"Kansas City","State":"CA"},{"Zip":"95379","LessThan10K":"0.22","MoreThan10K":"0.27","MoreThan25K":"0.25","MoreThan50K":"0.26","First":"Ofelia","Last":"Premo","Phone_h":"(781) 149-8099","Phone_m":"(469) 784-7141","Phone_w":"(684) 390-4401","Address":"9 IBM Path","City":"Ohio","State":"CA"},{"Zip":"95380","LessThan10K":"0.21","MoreThan10K":"0.31","MoreThan25K":"0.28","MoreThan50K":"0.21","First":"Mollie","Last":"Higdon","Phone_h":"(744) 788-3732","Phone_m":"(949) 295-4934","Phone_w":"(765) 503-0626","Address":"321 University Ave.","City":"St. Petersburg","State":"CA"},{"Zip":"95380","LessThan10K":"0.21","MoreThan10K":"0.31","MoreThan25K":"0.28","MoreThan50K":"0.21","First":"Cary","Last":"Hartsfield","Phone_h":"(015) 647-1105","Phone_m":"(360) 628-8549","Phone_w":"(053) 348-9804","Address":"67321 West Siam St.","City":"San Mateo","State":"CA"},{"Zip":"95383","LessThan10K":"0.21","MoreThan10K":"0.22","MoreThan25K":"0.23","MoreThan50K":"0.35","First":"Gregg","Last":"Toles","Phone_h":"(310) 017-7433","Phone_m":"(136) 037-9867","Phone_w":"(008) 130-5633","Address":"111 Silicon Valley Road","City":"Sunnyvale","State":"CA"},{"Zip":"95383","LessThan10K":"0.21","MoreThan10K":"0.22","MoreThan25K":"0.23","MoreThan50K":"0.35","First":"Craig","Last":"Ambler","Phone_h":"(490) 775-4936","Phone_m":"(851) 702-6821","Phone_w":"(817) 106-0171","Address":"1715 Scott Dr","City":"Alabama","State":"CA"},{"Zip":"95385","LessThan10K":"0.22","MoreThan10K":"0.35","MoreThan25K":"0.26","MoreThan50K":"0.17","First":"Wes","Last":"Ashbrook","Phone_h":"(108) 657-3725","Phone_m":"(843) 840-1260","Phone_w":"(243) 572-7122","Address":"48920 San Carlos","City":"Cupertino","State":"CA"},{"Zip":"95385","LessThan10K":"0.22","MoreThan10K":"0.35","MoreThan25K":"0.26","MoreThan50K":"0.17","First":"Alisa","Last":"Trapp","Phone_h":"(439) 399-1888","Phone_m":"(283) 251-4328","Phone_w":"(676) 554-2958","Address":"123 Anywhere Street","City":"Santa Monica","State":"CA"},{"Zip":"95386","LessThan10K":"0.22","MoreThan10K":"0.28","MoreThan25K":"0.28","MoreThan50K":"0.22","First":"Carolyn","Last":"Knights","Phone_h":"(863) 683-1466","Phone_m":"(512) 549-4902","Phone_w":"(206) 944-6057","Address":"321 University Ave.","City":"San Francisco","State":"CA"},{"Zip":"95386","LessThan10K":"0.22","MoreThan10K":"0.28","MoreThan25K":"0.28","MoreThan50K":"0.22","First":"Ernestine","Last":"Mahler","Phone_h":"(179) 479-8973","Phone_m":"(770) 241-2349","Phone_w":"(813) 791-6729","Address":"345 Sugar Blvd.","City":"Los Angeles","State":"CA"}]},{"TargetData":[{"Zip":"95388","LessThan10K":"0.23","MoreThan10K":"0.38","MoreThan25K":"0.28","MoreThan50K":"0.12","First":"Christina","Last":"Hunger","Phone_h":"(597) 381-9146","Phone_m":"(425) 525-6022","Phone_w":"(543) 079-5690","Address":"67321 West Siam St.","City":"Cupertino","State":"CA"},{"Zip":"95388","LessThan10K":"0.23","MoreThan10K":"0.38","MoreThan25K":"0.28","MoreThan50K":"0.12","First":"Rick","Last":"Menard","Phone_h":"(954) 415-5365","Phone_m":"(231) 180-9647","Phone_w":"(459) 489-0745","Address":"111 Silicon Valley Road","City":"Salt Lake City","State":"CA"},{"Zip":"95410","LessThan10K":"0.25","MoreThan10K":"0.34","MoreThan25K":"0.21","MoreThan50K":"0.2","First":"Kenneth","Last":"Fannin","Phone_h":"(050) 201-8005","Phone_m":"(802) 595-4115","Phone_w":"(045) 776-6007","Address":"111 Silicon Valley Road","City":"Cupertino","State":"CA"},{"Zip":"95410","LessThan10K":"0.25","MoreThan10K":"0.34","MoreThan25K":"0.21","MoreThan50K":"0.2","First":"Shauna","Last":"Luff","Phone_h":"(558) 022-9705","Phone_m":"(276) 797-8159","Phone_w":"(394) 887-1386","Address":"123 Anywhere Street","City":"Ohio","State":"CA"},{"Zip":"95412","LessThan10K":"0.21","MoreThan10K":"0.23","MoreThan25K":"0.38","MoreThan50K":"0.17","First":"Junior","Last":"Hawn","Phone_h":"(446) 713-4469","Phone_m":"(798) 551-9067","Phone_w":"(117) 923-4575","Address":"999 Baker Way","City":"Kansas City","State":"CA"},{"Zip":"95412","LessThan10K":"0.21","MoreThan10K":"0.23","MoreThan25K":"0.38","MoreThan50K":"0.17","First":"Dong","Last":"Mercuri","Phone_h":"(081) 551-4865","Phone_m":"(761) 296-7454","Phone_w":"(742) 938-6228","Address":"1715 Scott Dr","City":"San Mateo","State":"CA"},{"Zip":"95420","LessThan10K":"0.23","MoreThan10K":"0.3","MoreThan25K":"0.25","MoreThan50K":"0.22","First":"Gabriel","Last":"Friar","Phone_h":"(399) 258-3788","Phone_m":"(429) 507-4159","Phone_w":"(194) 959-1684","Address":"777 West Filmore","City":"Santa Monica","State":"CA"},{"Zip":"95420","LessThan10K":"0.23","MoreThan10K":"0.3","MoreThan25K":"0.25","MoreThan50K":"0.22","First":"Aron","Last":"Follett","Phone_h":"(427) 465-7115","Phone_m":"(615) 931-5142","Phone_w":"(264) 086-5519","Address":"9 IBM Path","City":"San Jose","State":"CA"},{"Zip":"95422","LessThan10K":"0.27","MoreThan10K":"0.36","MoreThan25K":"0.23","MoreThan50K":"0.14","First":"Homer","Last":"Saver","Phone_h":"(684) 560-8971","Phone_m":"(193) 312-4120","Phone_w":"(732) 295-2676","Address":"345 Sugar Blvd.","City":"Ohio","State":"CA"},{"Zip":"95422","LessThan10K":"0.27","MoreThan10K":"0.36","MoreThan25K":"0.23","MoreThan50K":"0.14","First":"Rachael","Last":"Guido","Phone_h":"(993) 272-8015","Phone_m":"(541) 416-1624","Phone_w":"(235) 920-2423","Address":"123 Anywhere Street","City":"Ohio","State":"CA"},{"Zip":"95423","LessThan10K":"0.23","MoreThan10K":"0.31","MoreThan25K":"0.26","MoreThan50K":"0.19","First":"Fabian","Last":"Poor","Phone_h":"(906) 044-2027","Phone_m":"(015) 014-6400","Phone_w":"(413) 230-0595","Address":"321 University Ave.","City":"Persistance","State":"CA"},{"Zip":"95423","LessThan10K":"0.23","MoreThan10K":"0.31","MoreThan25K":"0.26","MoreThan50K":"0.19","First":"Shari","Last":"Manno","Phone_h":"(646) 435-6986","Phone_m":"(691) 980-5710","Phone_w":"(376) 683-4394","Address":"48920 San Carlos","City":"San Francisco","State":"CA"},{"Zip":"95424","LessThan10K":"0.31","MoreThan10K":"0.36","MoreThan25K":"0.19","MoreThan50K":"0.14","First":"Bridgett","Last":"Townley","Phone_h":"(982) 927-9724","Phone_m":"(356) 711-5325","Phone_w":"(415) 492-7756","Address":"48920 San Carlos","City":"Sunnyvale","State":"CA"},{"Zip":"95424","LessThan10K":"0.31","MoreThan10K":"0.36","MoreThan25K":"0.19","MoreThan50K":"0.14","First":"Marion","Last":"Polster","Phone_h":"(926) 878-3459","Phone_m":"(315) 542-0538","Phone_w":"(789) 989-5750","Address":"321 University Ave.","City":"St. Petersburg","State":"CA"},{"Zip":"95428","LessThan10K":"0.29","MoreThan10K":"0.38","MoreThan25K":"0.22","MoreThan50K":"0.11","First":"Gail","Last":"Flannery","Phone_h":"(417) 441-1136","Phone_m":"(146) 087-8601","Phone_w":"(404) 568-4040","Address":"1715 Scott Dr","City":"San Mateo","State":"CA"},{"Zip":"95428","LessThan10K":"0.29","MoreThan10K":"0.38","MoreThan25K":"0.22","MoreThan50K":"0.11","First":"Barrett","Last":"Bracy","Phone_h":"(525) 261-9486","Phone_m":"(685) 118-9510","Phone_w":"(288) 218-1709","Address":"111 Silicon Valley Road","City":"Alabama","State":"CA"},{"Zip":"95432","LessThan10K":"0.25","MoreThan10K":"0.31","MoreThan25K":"0.22","MoreThan50K":"0.22","First":"Scot","Last":"Burr","Phone_h":"(371) 220-1273","Phone_m":"(495) 198-7163","Phone_w":"(499) 451-5476","Address":"67321 West Siam St.","City":"Salt Lake City","State":"CA"},{"Zip":"95432","LessThan10K":"0.25","MoreThan10K":"0.31","MoreThan25K":"0.22","MoreThan50K":"0.22","First":"Alyce","Last":"Reyes","Phone_h":"(375) 487-1379","Phone_m":"(682) 905-1169","Phone_w":"(693) 547-0206","Address":"321 University Ave.","City":"Santa Fe","State":"CA"},{"Zip":"95437","LessThan10K":"0.21","MoreThan10K":"0.3","MoreThan25K":"0.28","MoreThan50K":"0.21","First":"Vickie","Last":"Sowards","Phone_h":"(636) 932-2152","Phone_m":"(229) 604-5029","Phone_w":"(060) 119-3648","Address":"777 West Filmore","City":"Persistance","State":"CA"},{"Zip":"95437","LessThan10K":"0.21","MoreThan10K":"0.3","MoreThan25K":"0.28","MoreThan50K":"0.21","First":"Allison","Last":"Geno","Phone_h":"(816) 032-3943","Phone_m":"(876) 419-7922","Phone_w":"(965) 249-6119","Address":"1715 Scott Dr","City":"Alabama","State":"CA"},{"Zip":"95454","LessThan10K":"0.25","MoreThan10K":"0.31","MoreThan25K":"0.27","MoreThan50K":"0.17","First":"Leopoldo","Last":"Reed","Phone_h":"(524) 975-2328","Phone_m":"(131) 552-8224","Phone_w":"(058) 408-1257","Address":"9 IBM Path","City":"St. Petersburg","State":"CA"},{"Zip":"95454","LessThan10K":"0.25","MoreThan10K":"0.31","MoreThan25K":"0.27","MoreThan50K":"0.17","First":"German","Last":"Braswell","Phone_h":"(746) 629-9217","Phone_m":"(175) 485-3926","Phone_w":"(684) 498-6722","Address":"123 Anywhere Street","City":"Santa Fe","State":"CA"}]},{"TargetData":[{"Zip":"95456","LessThan10K":"0.23","MoreThan10K":"0.28","MoreThan25K":"0.27","MoreThan50K":"0.22","First":"Estela","Last":"Minks","Phone_h":"(370) 073-6124","Phone_m":"(713) 894-1971","Phone_w":"(904) 113-9101","Address":"999 Baker Way","City":"San Francisco","State":"CA"},{"Zip":"95456","LessThan10K":"0.23","MoreThan10K":"0.28","MoreThan25K":"0.27","MoreThan50K":"0.22","First":"Emma","Last":"Ralph","Phone_h":"(168) 458-4932","Phone_m":"(370) 226-6198","Phone_w":"(965) 167-0634","Address":"999 Baker Way","City":"San Francisco","State":"CA"},{"Zip":"95458","LessThan10K":"0.24","MoreThan10K":"0.36","MoreThan25K":"0.23","MoreThan50K":"0.17","First":"Ingrid","Last":"Sparling","Phone_h":"(243) 467-5421","Phone_m":"(881) 220-8680","Phone_w":"(240) 542-4478","Address":"67321 West Siam St.","City":"Sunnyvale","State":"CA"},{"Zip":"95458","LessThan10K":"0.24","MoreThan10K":"0.36","MoreThan25K":"0.23","MoreThan50K":"0.17","First":"Diego","Last":"Wright","Phone_h":"(696) 984-5348","Phone_m":"(611) 283-3979","Phone_w":"(630) 833-4295","Address":"1715 Scott Dr","City":"Salt Lake City","State":"CA"},{"Zip":"95460","LessThan10K":"0.21","MoreThan10K":"0.3","MoreThan25K":"0.22","MoreThan50K":"0.28","First":"Josue","Last":"Labrecque","Phone_h":"(154) 484-5263","Phone_m":"(836) 190-2924","Phone_w":"(873) 931-1016","Address":"1715 Scott Dr","City":"Denver","State":"CA"},{"Zip":"95460","LessThan10K":"0.21","MoreThan10K":"0.3","MoreThan25K":"0.22","MoreThan50K":"0.28","First":"Elbert","Last":"Heinrich","Phone_h":"(093) 054-8365","Phone_m":"(137) 054-4726","Phone_w":"(367) 253-1765","Address":"1715 Scott Dr","City":"Cupertino","State":"CA"},{"Zip":"95462","LessThan10K":"0.21","MoreThan10K":"0.26","MoreThan25K":"0.28","MoreThan50K":"0.26","First":"Barton","Last":"Mccaslin","Phone_h":"(643) 052-2002","Phone_m":"(625) 330-6362","Phone_w":"(339) 766-3465","Address":"777 West Filmore","City":"San Jose","State":"CA"},{"Zip":"95462","LessThan10K":"0.21","MoreThan10K":"0.26","MoreThan25K":"0.28","MoreThan50K":"0.26","First":"Katrina","Last":"Pell","Phone_h":"(265) 721-4257","Phone_m":"(024) 707-2631","Phone_w":"(371) 037-0871","Address":"48920 San Carlos","City":"Salt Lake City","State":"CA"},{"Zip":"95464","LessThan10K":"0.27","MoreThan10K":"0.31","MoreThan25K":"0.27","MoreThan50K":"0.15","First":"Rosemarie","Last":"Percival","Phone_h":"(539) 445-5133","Phone_m":"(491) 569-5334","Phone_w":"(122) 648-5390","Address":"777 West Filmore","City":"Santa Monica","State":"CA"},{"Zip":"95464","LessThan10K":"0.27","MoreThan10K":"0.31","MoreThan25K":"0.27","MoreThan50K":"0.15","First":"Concepcion","Last":"Keesler","Phone_h":"(569) 408-2710","Phone_m":"(861) 724-4093","Phone_w":"(723) 709-2236","Address":"345 Sugar Blvd.","City":"Santa Fe","State":"CA"},{"Zip":"95468","LessThan10K":"0.25","MoreThan10K":"0.32","MoreThan25K":"0.27","MoreThan50K":"0.17","First":"Fay","Last":"Stinnett","Phone_h":"(528) 851-6246","Phone_m":"(869) 071-1305","Phone_w":"(765) 673-4702","Address":"123 Anywhere Street","City":"San Francisco","State":"CA"},{"Zip":"95468","LessThan10K":"0.25","MoreThan10K":"0.32","MoreThan25K":"0.27","MoreThan50K":"0.17","First":"Newton","Last":"Lowry","Phone_h":"(339) 639-0184","Phone_m":"(491) 228-6497","Phone_w":"(140) 215-2939","Address":"1715 Scott Dr","City":"Sunnyvale","State":"CA"},{"Zip":"95480","LessThan10K":"0.25","MoreThan10K":"0.29","MoreThan25K":"0.2","MoreThan50K":"0.25","First":"Jerald","Last":"Bulluck","Phone_h":"(115) 813-6378","Phone_m":"(267) 535-5978","Phone_w":"(818) 337-7172","Address":"345 Sugar Blvd.","City":"St. Petersburg","State":"CA"},{"Zip":"95480","LessThan10K":"0.25","MoreThan10K":"0.29","MoreThan25K":"0.2","MoreThan50K":"0.25","First":"Cheri","Last":"Argo","Phone_h":"(169) 440-9881","Phone_m":"(827) 558-8069","Phone_w":"(016) 704-0806","Address":"345 Sugar Blvd.","City":"Ohio","State":"CA"},{"Zip":"95481","LessThan10K":"0.25","MoreThan10K":"0.44","MoreThan25K":"0.22","MoreThan50K":"0.08","First":"George","Last":"Whitmire","Phone_h":"(384) 264-1502","Phone_m":"(820) 878-7442","Phone_w":"(675) 853-1920","Address":"48920 San Carlos","City":"San Jose","State":"CA"},{"Zip":"95481","LessThan10K":"0.25","MoreThan10K":"0.44","MoreThan25K":"0.22","MoreThan50K":"0.08","First":"Gwendolyn","Last":"Unruh","Phone_h":"(330) 967-5101","Phone_m":"(618) 845-1943","Phone_w":"(721) 850-4230","Address":"123 Anywhere Street","City":"San Mateo","State":"CA"},{"Zip":"95485","LessThan10K":"0.21","MoreThan10K":"0.34","MoreThan25K":"0.29","MoreThan50K":"0.17","First":"Domenic","Last":"Bangert","Phone_h":"(237) 567-7719","Phone_m":"(543) 656-7350","Phone_w":"(655) 178-4956","Address":"999 Baker Way","City":"Santa Fe","State":"CA"},{"Zip":"95485","LessThan10K":"0.21","MoreThan10K":"0.34","MoreThan25K":"0.29","MoreThan50K":"0.17","First":"Augustus","Last":"Griswold","Phone_h":"(575) 682-9287","Phone_m":"(318) 366-0246","Phone_w":"(429) 527-7156","Address":"123 Anywhere Street","City":"Persistance","State":"CA"},{"Zip":"95488","LessThan10K":"0.23","MoreThan10K":"0.21","MoreThan25K":"0.35","MoreThan50K":"0.21","First":"Hallie","Last":"Pichardo","Phone_h":"(993) 277-8054","Phone_m":"(300) 427-2007","Phone_w":"(822) 308-4250","Address":"321 University Ave.","City":"St. Petersburg","State":"CA"},{"Zip":"95488","LessThan10K":"0.23","MoreThan10K":"0.21","MoreThan25K":"0.35","MoreThan50K":"0.21","First":"Guadalupe","Last":"Burris","Phone_h":"(040) 630-6970","Phone_m":"(610) 089-6898","Phone_w":"(495) 880-6307","Address":"67321 West Siam St.","City":"Santa Monica","State":"CA"},{"Zip":"95490","LessThan10K":"0.22","MoreThan10K":"0.27","MoreThan25K":"0.28","MoreThan50K":"0.23","First":"Taylor","Last":"Peake","Phone_h":"(035) 452-6409","Phone_m":"(975) 474-6679","Phone_w":"(435) 660-1333","Address":"777 West Filmore","City":"Persistance","State":"CA"},{"Zip":"95490","LessThan10K":"0.22","MoreThan10K":"0.27","MoreThan25K":"0.28","MoreThan50K":"0.23","First":"Sybil","Last":"Ek","Phone_h":"(670) 792-2800","Phone_m":"(471) 290-7912","Phone_w":"(080) 199-2653","Address":"67321 West Siam St.","City":"Cupertino","State":"CA"}]},{"TargetData":[{"Zip":"95501","LessThan10K":"0.24","MoreThan10K":"0.34","MoreThan25K":"0.24","MoreThan50K":"0.17","First":"Lazaro","Last":"Kliebert","Phone_h":"(544) 518-6414","Phone_m":"(162) 470-9255","Phone_w":"(417) 678-6060","Address":"1715 Scott Dr","City":"San Mateo","State":"CA"},{"Zip":"95501","LessThan10K":"0.24","MoreThan10K":"0.34","MoreThan25K":"0.24","MoreThan50K":"0.17","First":"Cameron","Last":"Diehl","Phone_h":"(616) 189-8141","Phone_m":"(947) 658-4955","Phone_w":"(146) 441-5294","Address":"321 University Ave.","City":"Santa Fe","State":"CA"},{"Zip":"95502","LessThan10K":"0.21","MoreThan10K":"0.33","MoreThan25K":"0.27","MoreThan50K":"0.2","First":"Marcos","Last":"Willsey","Phone_h":"(835) 258-2539","Phone_m":"(582) 469-3398","Phone_w":"(652) 236-7555","Address":"321 University Ave.","City":"Denver","State":"CA"},{"Zip":"95502","LessThan10K":"0.21","MoreThan10K":"0.33","MoreThan25K":"0.27","MoreThan50K":"0.2","First":"Joaquin","Last":"Surber","Phone_h":"(458) 430-2614","Phone_m":"(335) 814-7438","Phone_w":"(163) 659-0063","Address":"48920 San Carlos","City":"Cupertino","State":"CA"},{"Zip":"95518","LessThan10K":"0.25","MoreThan10K":"0.3","MoreThan25K":"0.24","MoreThan50K":"0.21","First":"Parker","Last":"Crunk","Phone_h":"(380) 405-4548","Phone_m":"(438) 550-7125","Phone_w":"(267) 821-6437","Address":"999 Baker Way","City":"Salt Lake City","State":"CA"},{"Zip":"95518","LessThan10K":"0.25","MoreThan10K":"0.3","MoreThan25K":"0.24","MoreThan50K":"0.21","First":"Michale","Last":"Vadnais","Phone_h":"(989) 834-1982","Phone_m":"(836) 030-9267","Phone_w":"(881) 046-6552","Address":"111 Silicon Valley Road","City":"San Jose","State":"CA"},{"Zip":"95521","LessThan10K":"0.33","MoreThan10K":"0.29","MoreThan25K":"0.19","MoreThan50K":"0.19","First":"Krista","Last":"Florence","Phone_h":"(447) 084-0657","Phone_m":"(666) 648-2049","Phone_w":"(861) 506-1104","Address":"345 Sugar Blvd.","City":"Salt Lake City","State":"CA"},{"Zip":"95521","LessThan10K":"0.33","MoreThan10K":"0.29","MoreThan25K":"0.19","MoreThan50K":"0.19","First":"Brenda","Last":"Paik","Phone_h":"(576) 641-5747","Phone_m":"(059) 435-4236","Phone_w":"(898) 130-0709","Address":"999 Baker Way","City":"Salt Lake City","State":"CA"},{"Zip":"95524","LessThan10K":"0.24","MoreThan10K":"0.21","MoreThan25K":"0.2","MoreThan50K":"0.35","First":"Eloy","Last":"Siniard","Phone_h":"(418) 700-4760","Phone_m":"(415) 011-4439","Phone_w":"(718) 662-7555","Address":"777 West Filmore","City":"Kansas City","State":"CA"},{"Zip":"95524","LessThan10K":"0.24","MoreThan10K":"0.21","MoreThan25K":"0.2","MoreThan50K":"0.35","First":"Anne","Last":"Alderete","Phone_h":"(164) 875-8725","Phone_m":"(914) 696-5545","Phone_w":"(470) 579-5013","Address":"48920 San Carlos","City":"Denver","State":"CA"},{"Zip":"95525","LessThan10K":"0.21","MoreThan10K":"0.3","MoreThan25K":"0.29","MoreThan50K":"0.21","First":"Margery","Last":"Desouza","Phone_h":"(113) 274-2527","Phone_m":"(768) 937-2995","Phone_w":"(872) 608-9241","Address":"111 Silicon Valley Road","City":"Denver","State":"CA"},{"Zip":"95525","LessThan10K":"0.21","MoreThan10K":"0.3","MoreThan25K":"0.29","MoreThan50K":"0.21","First":"Mack","Last":"Lheureux","Phone_h":"(279) 392-5623","Phone_m":"(003) 937-2041","Phone_w":"(462) 936-3677","Address":"48920 San Carlos","City":"Alabama","State":"CA"},{"Zip":"95526","LessThan10K":"0.25","MoreThan10K":"0.29","MoreThan25K":"0.33","MoreThan50K":"0.13","First":"Patti","Last":"Halligan","Phone_h":"(159) 282-9676","Phone_m":"(766) 618-8700","Phone_w":"(935) 279-1670","Address":"999 Baker Way","City":"Cupertino","State":"CA"},{"Zip":"95526","LessThan10K":"0.25","MoreThan10K":"0.29","MoreThan25K":"0.33","MoreThan50K":"0.13","First":"Jana","Last":"Gualtieri","Phone_h":"(943) 180-3652","Phone_m":"(393) 565-9681","Phone_w":"(341) 461-1036","Address":"9 IBM Path","City":"Kansas City","State":"CA"},{"Zip":"95527","LessThan10K":"0.26","MoreThan10K":"0.26","MoreThan25K":"0.29","MoreThan50K":"0.19","First":"Christina","Last":"Lawhon","Phone_h":"(757) 560-7868","Phone_m":"(842) 148-5764","Phone_w":"(143) 976-6797","Address":"9 IBM Path","City":"San Mateo","State":"CA"},{"Zip":"95527","LessThan10K":"0.26","MoreThan10K":"0.26","MoreThan25K":"0.29","MoreThan50K":"0.19","First":"Linda","Last":"Plain","Phone_h":"(781) 239-2704","Phone_m":"(742) 532-4511","Phone_w":"(898) 090-8684","Address":"999 Baker Way","City":"Santa Monica","State":"CA"},{"Zip":"95531","LessThan10K":"0.23","MoreThan10K":"0.26","MoreThan25K":"0.23","MoreThan50K":"0.27","First":"Josh","Last":"Papenfuss","Phone_h":"(018) 249-4709","Phone_m":"(037) 645-5802","Phone_w":"(393) 327-7800","Address":"321 University Ave.","City":"Alabama","State":"CA"},{"Zip":"95531","LessThan10K":"0.23","MoreThan10K":"0.26","MoreThan25K":"0.23","MoreThan50K":"0.27","First":"Maureen","Last":"Smead","Phone_h":"(509) 075-6072","Phone_m":"(597) 741-2198","Phone_w":"(314) 640-5524","Address":"48920 San Carlos","City":"St. Petersburg","State":"CA"},{"Zip":"95537","LessThan10K":"0.28","MoreThan10K":"0.37","MoreThan25K":"0.25","MoreThan50K":"0.1","First":"Malinda","Last":"Varghese","Phone_h":"(888) 817-8002","Phone_m":"(350) 413-2800","Phone_w":"(303) 599-2247","Address":"999 Baker Way","City":"San Francisco","State":"CA"},{"Zip":"95537","LessThan10K":"0.28","MoreThan10K":"0.37","MoreThan25K":"0.25","MoreThan50K":"0.1","First":"Lupe","Last":"Massingill","Phone_h":"(309) 756-5054","Phone_m":"(450) 777-5866","Phone_w":"(545) 695-0603","Address":"345 Sugar Blvd.","City":"Cupertino","State":"CA"},{"Zip":"95542","LessThan10K":"0.24","MoreThan10K":"0.32","MoreThan25K":"0.23","MoreThan50K":"0.21","First":"Emilie","Last":"Banister","Phone_h":"(393) 601-1036","Phone_m":"(808) 267-4571","Phone_w":"(617) 262-1383","Address":"9 IBM Path","City":"Kansas City","State":"CA"},{"Zip":"95542","LessThan10K":"0.24","MoreThan10K":"0.32","MoreThan25K":"0.23","MoreThan50K":"0.21","First":"Russel","Last":"Kaster","Phone_h":"(340) 174-1210","Phone_m":"(632) 206-4381","Phone_w":"(733) 878-3855","Address":"345 Sugar Blvd.","City":"Los Angeles","State":"CA"}]},{"TargetData":[{"Zip":"95546","LessThan10K":"0.3","MoreThan10K":"0.39","MoreThan25K":"0.23","MoreThan50K":"0.08","First":"Edison","Last":"Rockey","Phone_h":"(417) 406-5119","Phone_m":"(501) 022-3720","Phone_w":"(130) 435-6930","Address":"67321 West Siam St.","City":"Alabama","State":"CA"},{"Zip":"95546","LessThan10K":"0.3","MoreThan10K":"0.39","MoreThan25K":"0.23","MoreThan50K":"0.08","First":"Ernestine","Last":"Mannings","Phone_h":"(874) 824-4077","Phone_m":"(381) 097-8339","Phone_w":"(589) 082-2509","Address":"1715 Scott Dr","City":"Alabama","State":"CA"},{"Zip":"95548","LessThan10K":"0.28","MoreThan10K":"0.37","MoreThan25K":"0.23","MoreThan50K":"0.12","First":"Estelle","Last":"Mccallister","Phone_h":"(470) 999-2353","Phone_m":"(836) 050-6691","Phone_w":"(884) 295-6917","Address":"777 West Filmore","City":"Cupertino","State":"CA"},{"Zip":"95548","LessThan10K":"0.28","MoreThan10K":"0.37","MoreThan25K":"0.23","MoreThan50K":"0.12","First":"Carson","Last":"Schuster","Phone_h":"(625) 606-7301","Phone_m":"(517) 264-5745","Phone_w":"(711) 238-2205","Address":"1715 Scott Dr","City":"Ohio","State":"CA"},{"Zip":"95552","LessThan10K":"0.33","MoreThan10K":"0.28","MoreThan25K":"0.26","MoreThan50K":"0.13","First":"Burton","Last":"Dial","Phone_h":"(247) 924-5360","Phone_m":"(980) 661-1269","Phone_w":"(029) 855-2496","Address":"111 Silicon Valley Road","City":"Persistance","State":"CA"},{"Zip":"95552","LessThan10K":"0.33","MoreThan10K":"0.28","MoreThan25K":"0.26","MoreThan50K":"0.13","First":"Alice","Last":"Redden","Phone_h":"(698) 529-2951","Phone_m":"(085) 688-8238","Phone_w":"(607) 420-1878","Address":"48920 San Carlos","City":"San Jose","State":"CA"},{"Zip":"95553","LessThan10K":"0.27","MoreThan10K":"0.27","MoreThan25K":"0.24","MoreThan50K":"0.21","First":"Wendy","Last":"Hearon","Phone_h":"(605) 855-6949","Phone_m":"(523) 231-9377","Phone_w":"(310) 281-8476","Address":"123 Anywhere Street","City":"Alabama","State":"CA"},{"Zip":"95553","LessThan10K":"0.27","MoreThan10K":"0.27","MoreThan25K":"0.24","MoreThan50K":"0.21","First":"Hank","Last":"Blackburn","Phone_h":"(757) 331-0906","Phone_m":"(394) 262-6434","Phone_w":"(180) 721-9041","Address":"67321 West Siam St.","City":"Santa Monica","State":"CA"},{"Zip":"95555","LessThan10K":"0.24","MoreThan10K":"0.33","MoreThan25K":"0.31","MoreThan50K":"0.12","First":"Wendy","Last":"Elwood","Phone_h":"(019) 187-6619","Phone_m":"(847) 554-5914","Phone_w":"(132) 512-8221","Address":"777 West Filmore","City":"Sunnyvale","State":"CA"},{"Zip":"95555","LessThan10K":"0.24","MoreThan10K":"0.33","MoreThan25K":"0.31","MoreThan50K":"0.12","First":"Leon","Last":"Winsor","Phone_h":"(090) 830-2839","Phone_m":"(590) 371-4174","Phone_w":"(425) 026-5447","Address":"777 West Filmore","City":"Persistance","State":"CA"},{"Zip":"95556","LessThan10K":"0.23","MoreThan10K":"0.28","MoreThan25K":"0.32","MoreThan50K":"0.17","First":"Lesa","Last":"Mclachlan","Phone_h":"(111) 530-2302","Phone_m":"(281) 741-3971","Phone_w":"(245) 606-6400","Address":"111 Silicon Valley Road","City":"Ohio","State":"CA"},{"Zip":"95556","LessThan10K":"0.23","MoreThan10K":"0.28","MoreThan25K":"0.32","MoreThan50K":"0.17","First":"Johnathon","Last":"Edick","Phone_h":"(041) 792-4310","Phone_m":"(956) 441-3737","Phone_w":"(802) 234-7183","Address":"67321 West Siam St.","City":"Santa Fe","State":"CA"},{"Zip":"95560","LessThan10K":"0.29","MoreThan10K":"0.37","MoreThan25K":"0.23","MoreThan50K":"0.12","First":"Berry","Last":"Louviere","Phone_h":"(769) 650-0740","Phone_m":"(870) 213-9059","Phone_w":"(892) 171-2677","Address":"321 University Ave.","City":"Cupertino","State":"CA"},{"Zip":"95560","LessThan10K":"0.29","MoreThan10K":"0.37","MoreThan25K":"0.23","MoreThan50K":"0.12","First":"Vonda","Last":"Wisniewski","Phone_h":"(913) 851-4244","Phone_m":"(861) 105-6884","Phone_w":"(157) 703-2193","Address":"999 Baker Way","City":"Salt Lake City","State":"CA"},{"Zip":"95562","LessThan10K":"0.23","MoreThan10K":"0.33","MoreThan25K":"0.29","MoreThan50K":"0.15","First":"Evangeline","Last":"Orzechowski","Phone_h":"(351) 673-1014","Phone_m":"(594) 932-3184","Phone_w":"(379) 739-1072","Address":"9 IBM Path","City":"Santa Monica","State":"CA"},{"Zip":"95562","LessThan10K":"0.23","MoreThan10K":"0.33","MoreThan25K":"0.29","MoreThan50K":"0.15","First":"Noemi","Last":"Carman","Phone_h":"(647) 706-1922","Phone_m":"(023) 239-4231","Phone_w":"(194) 221-5463","Address":"321 University Ave.","City":"St. Petersburg","State":"CA"},{"Zip":"95563","LessThan10K":"0.22","MoreThan10K":"0.27","MoreThan25K":"0.29","MoreThan50K":"0.22","First":"Jordan","Last":"Mooneyham","Phone_h":"(496) 568-5117","Phone_m":"(438) 588-9724","Phone_w":"(634) 810-2068","Address":"67321 West Siam St.","City":"Persistance","State":"CA"},{"Zip":"95563","LessThan10K":"0.22","MoreThan10K":"0.27","MoreThan25K":"0.29","MoreThan50K":"0.22","First":"Reyes","Last":"Grove","Phone_h":"(607) 865-5312","Phone_m":"(294) 396-1493","Phone_w":"(350) 999-1340","Address":"345 Sugar Blvd.","City":"San Francisco","State":"CA"},{"Zip":"95564","LessThan10K":"0.24","MoreThan10K":"0.34","MoreThan25K":"0.29","MoreThan50K":"0.13","First":"Sheri","Last":"Heller","Phone_h":"(981) 031-4924","Phone_m":"(115) 584-9721","Phone_w":"(249) 102-8711","Address":"1715 Scott Dr","City":"Salt Lake City","State":"CA"},{"Zip":"95564","LessThan10K":"0.24","MoreThan10K":"0.34","MoreThan25K":"0.29","MoreThan50K":"0.13","First":"Tracy","Last":"Hazlett","Phone_h":"(610) 614-5316","Phone_m":"(477) 950-0857","Phone_w":"(086) 083-7977","Address":"67321 West Siam St.","City":"San Mateo","State":"CA"},{"Zip":"95567","LessThan10K":"0.22","MoreThan10K":"0.33","MoreThan25K":"0.25","MoreThan50K":"0.21","First":"Waldo","Last":"Parra","Phone_h":"(409) 624-2351","Phone_m":"(221) 822-4021","Phone_w":"(395) 166-4865","Address":"48920 San Carlos","City":"Sunnyvale","State":"CA"},{"Zip":"95567","LessThan10K":"0.22","MoreThan10K":"0.33","MoreThan25K":"0.25","MoreThan50K":"0.21","First":"Norberto","Last":"Squire","Phone_h":"(749) 323-1862","Phone_m":"(085) 806-4887","Phone_w":"(624) 480-2778","Address":"777 West Filmore","City":"San Francisco","State":"CA"}]},{"TargetData":[{"Zip":"95573","LessThan10K":"0.24","MoreThan10K":"0.26","MoreThan25K":"0.26","MoreThan50K":"0.25","First":"Briana","Last":"Gimenez","Phone_h":"(305) 560-7325","Phone_m":"(027) 160-0275","Phone_w":"(315) 591-6418","Address":"48920 San Carlos","City":"St. Petersburg","State":"CA"},{"Zip":"95573","LessThan10K":"0.24","MoreThan10K":"0.26","MoreThan25K":"0.26","MoreThan50K":"0.25","First":"Ernest","Last":"Lueck","Phone_h":"(163) 758-6342","Phone_m":"(389) 301-7939","Phone_w":"(639) 199-4116","Address":"48920 San Carlos","City":"Los Angeles","State":"CA"},{"Zip":"95589","LessThan10K":"0.28","MoreThan10K":"0.35","MoreThan25K":"0.21","MoreThan50K":"0.16","First":"Jimmie","Last":"Lamson","Phone_h":"(404) 216-7415","Phone_m":"(072) 163-8800","Phone_w":"(047) 322-6109","Address":"48920 San Carlos","City":"Santa Fe","State":"CA"},{"Zip":"95589","LessThan10K":"0.28","MoreThan10K":"0.35","MoreThan25K":"0.21","MoreThan50K":"0.16","First":"Ismael","Last":"Mccown","Phone_h":"(629) 501-8400","Phone_m":"(446) 195-5339","Phone_w":"(119) 061-6001","Address":"111 Silicon Valley Road","City":"Ohio","State":"CA"},{"Zip":"95595","LessThan10K":"0.25","MoreThan10K":"0.33","MoreThan25K":"0.22","MoreThan50K":"0.2","First":"Claud","Last":"Mayle","Phone_h":"(258) 189-2803","Phone_m":"(165) 505-4611","Phone_w":"(467) 313-9509","Address":"111 Silicon Valley Road","City":"Los Angeles","State":"CA"},{"Zip":"95595","LessThan10K":"0.25","MoreThan10K":"0.33","MoreThan25K":"0.22","MoreThan50K":"0.2","First":"Bridgett","Last":"Rollins","Phone_h":"(660) 915-4514","Phone_m":"(124) 212-2842","Phone_w":"(706) 495-4139","Address":"345 Sugar Blvd.","City":"Santa Fe","State":"CA"},{"Zip":"95605","LessThan10K":"0.22","MoreThan10K":"0.36","MoreThan25K":"0.29","MoreThan50K":"0.13","First":"Angelo","Last":"Mcmillon","Phone_h":"(774) 904-9011","Phone_m":"(864) 039-4834","Phone_w":"(092) 301-0839","Address":"123 Anywhere Street","City":"San Jose","State":"CA"},{"Zip":"95605","LessThan10K":"0.22","MoreThan10K":"0.36","MoreThan25K":"0.29","MoreThan50K":"0.13","First":"Earnestine","Last":"Kerby","Phone_h":"(849) 696-2137","Phone_m":"(944) 062-5959","Phone_w":"(919) 620-2791","Address":"321 University Ave.","City":"Santa Fe","State":"CA"},{"Zip":"95613","LessThan10K":"0.21","MoreThan10K":"0.21","MoreThan25K":"0.23","MoreThan50K":"0.34","First":"Donna","Last":"Bible","Phone_h":"(265) 004-3110","Phone_m":"(579) 720-7847","Phone_w":"(915) 191-8394","Address":"48920 San Carlos","City":"Santa Fe","State":"CA"},{"Zip":"95613","LessThan10K":"0.21","MoreThan10K":"0.21","MoreThan25K":"0.23","MoreThan50K":"0.34","First":"Jesus","Last":"Glassman","Phone_h":"(945) 137-0253","Phone_m":"(106) 113-5823","Phone_w":"(519) 751-8991","Address":"9 IBM Path","City":"Sunnyvale","State":"CA"},{"Zip":"95615","LessThan10K":"0.21","MoreThan10K":"0.39","MoreThan25K":"0.23","MoreThan50K":"0.17","First":"Herschel","Last":"Medina","Phone_h":"(850) 721-4478","Phone_m":"(043) 482-5951","Phone_w":"(727) 176-3835","Address":"9 IBM Path","City":"Cupertino","State":"CA"},{"Zip":"95615","LessThan10K":"0.21","MoreThan10K":"0.39","MoreThan25K":"0.23","MoreThan50K":"0.17","First":"Arline","Last":"Furguson","Phone_h":"(788) 787-1763","Phone_m":"(309) 559-4195","Phone_w":"(987) 424-4024","Address":"9 IBM Path","City":"San Mateo","State":"CA"},{"Zip":"95616","LessThan10K":"0.22","MoreThan10K":"0.2","MoreThan25K":"0.19","MoreThan50K":"0.39","First":"Margarita","Last":"Jessup","Phone_h":"(162) 704-4395","Phone_m":"(799) 230-9711","Phone_w":"(144) 840-3664","Address":"9 IBM Path","City":"Santa Monica","State":"CA"},{"Zip":"95616","LessThan10K":"0.22","MoreThan10K":"0.2","MoreThan25K":"0.19","MoreThan50K":"0.39","First":"Ginger","Last":"Macgregor","Phone_h":"(215) 608-5509","Phone_m":"(445) 622-8248","Phone_w":"(318) 832-0292","Address":"999 Baker Way","City":"Alabama","State":"CA"},{"Zip":"95675","LessThan10K":"0.24","MoreThan10K":"0.26","MoreThan25K":"0.22","MoreThan50K":"0.28","First":"Roberta","Last":"Darosa","Phone_h":"(098) 865-6402","Phone_m":"(686) 769-8196","Phone_w":"(181) 456-3263","Address":"1715 Scott Dr","City":"San Jose","State":"CA"},{"Zip":"95676","LessThan10K":"0.22","MoreThan10K":"0.27","MoreThan25K":"0.27","MoreThan50K":"0.25","First":"Boyd","Last":"Froelich","Phone_h":"(337) 832-1417","Phone_m":"(195) 835-1769","Phone_w":"(607) 786-2583","Address":"9 IBM Path","City":"San Francisco","State":"CA"},{"Zip":"95715","LessThan10K":"0.21","MoreThan10K":"0.21","MoreThan25K":"0.33","MoreThan50K":"0.25","First":"Rodger","Last":"Constable","Phone_h":"(955) 729-0095","Phone_m":"(303) 836-6838","Phone_w":"(376) 218-9431","Address":"48920 San Carlos","City":"San Francisco","State":"CA"},{"Zip":"95800","LessThan10K":"0.21","MoreThan10K":"0.26","MoreThan25K":"0.21","MoreThan50K":"0.31","First":"Alejandro","Last":"Teran","Phone_h":"(650) 932-0392","Phone_m":"(050) 574-4257","Phone_w":"(305) 981-6166","Address":"321 University Ave.","City":"San Francisco","State":"CA"},{"Zip":"95815","LessThan10K":"0.21","MoreThan10K":"0.36","MoreThan25K":"0.3","MoreThan50K":"0.13","First":"Sal","Last":"Jaffe","Phone_h":"(396) 674-1144","Phone_m":"(627) 631-9258","Phone_w":"(637) 898-0781","Address":"123 Anywhere Street","City":"Ohio","State":"CA"},{"Zip":"95817","LessThan10K":"0.22","MoreThan10K":"0.31","MoreThan25K":"0.29","MoreThan50K":"0.18","First":"Pedro","Last":"Mandell","Phone_h":"(252) 274-2977","Phone_m":"(980) 034-6691","Phone_w":"(758) 923-6991","Address":"321 University Ave.","City":"Cupertino","State":"CA"},{"Zip":"95824","LessThan10K":"0.24","MoreThan10K":"0.37","MoreThan25K":"0.29","MoreThan50K":"0.09","First":"Megan","Last":"Halford","Phone_h":"(681) 806-4056","Phone_m":"(643) 952-1620","Phone_w":"(531) 770-0648","Address":"777 West Filmore","City":"Persistance","State":"CA"},{"Zip":"95832","LessThan10K":"0.28","MoreThan10K":"0.35","MoreThan25K":"0.28","MoreThan50K":"0.09","First":"Adolfo","Last":"Alexander","Phone_h":"(100) 995-2749","Phone_m":"(405) 932-5664","Phone_w":"(032) 704-4928","Address":"9 IBM Path","City":"St. Petersburg","State":"CA"}]},{"TargetData":[{"Zip":"95838","LessThan10K":"0.22","MoreThan10K":"0.33","MoreThan25K":"0.29","MoreThan50K":"0.16","First":"Margie","Last":"Lord","Phone_h":"(866) 200-9918","Phone_m":"(667) 616-4480","Phone_w":"(487) 460-8008","Address":"123 Anywhere Street","City":"Ohio","State":"CA"},{"Zip":"95901","LessThan10K":"0.22","MoreThan10K":"0.32","MoreThan25K":"0.27","MoreThan50K":"0.19","First":"Michelle","Last":"Lunsford","Phone_h":"(601) 891-0745","Phone_m":"(765) 117-9465","Phone_w":"(637) 197-9962","Address":"999 Baker Way","City":"Kansas City","State":"CA"},{"Zip":"95912","LessThan10K":"0.21","MoreThan10K":"0.36","MoreThan25K":"0.27","MoreThan50K":"0.16","First":"Gina","Last":"Insley","Phone_h":"(813) 453-9134","Phone_m":"(701) 138-9431","Phone_w":"(644) 690-5591","Address":"345 Sugar Blvd.","City":"St. Petersburg","State":"CA"},{"Zip":"95913","LessThan10K":"0.21","MoreThan10K":"0.26","MoreThan25K":"0.27","MoreThan50K":"0.25","First":"Genaro","Last":"Westervelt","Phone_h":"(159) 015-2357","Phone_m":"(922) 452-7210","Phone_w":"(398) 183-4321","Address":"321 University Ave.","City":"Persistance","State":"CA"},{"Zip":"95916","LessThan10K":"0.26","MoreThan10K":"0.27","MoreThan25K":"0.25","MoreThan50K":"0.22","First":"Earlene","Last":"Macon","Phone_h":"(214) 954-7674","Phone_m":"(536) 960-3220","Phone_w":"(689) 409-4065","Address":"345 Sugar Blvd.","City":"Persistance","State":"CA"},{"Zip":"95917","LessThan10K":"0.22","MoreThan10K":"0.31","MoreThan25K":"0.27","MoreThan50K":"0.21","First":"Letitia","Last":"Mccumber","Phone_h":"(346) 656-2176","Phone_m":"(905) 078-1834","Phone_w":"(754) 195-6756","Address":"777 West Filmore","City":"Sunnyvale","State":"CA"},{"Zip":"95922","LessThan10K":"0.23","MoreThan10K":"0.28","MoreThan25K":"0.26","MoreThan50K":"0.23","First":"Preston","Last":"Nitz","Phone_h":"(700) 388-9522","Phone_m":"(328) 974-5866","Phone_w":"(604) 624-0465","Address":"999 Baker Way","City":"Denver","State":"CA"},{"Zip":"95925","LessThan10K":"0.24","MoreThan10K":"0.3","MoreThan25K":"0.18","MoreThan50K":"0.28","First":"Terri","Last":"Ives","Phone_h":"(158) 533-5966","Phone_m":"(606) 206-7646","Phone_w":"(309) 260-1821","Address":"345 Sugar Blvd.","City":"Kansas City","State":"CA"},{"Zip":"95926","LessThan10K":"0.27","MoreThan10K":"0.27","MoreThan25K":"0.22","MoreThan50K":"0.25","First":"Kerri","Last":"Borgen","Phone_h":"(774) 501-0327","Phone_m":"(224) 612-9285","Phone_w":"(398) 856-5568","Address":"9 IBM Path","City":"San Francisco","State":"CA"},{"Zip":"95927","LessThan10K":"0.21","MoreThan10K":"0.31","MoreThan25K":"0.27","MoreThan50K":"0.21","First":"Dewey","Last":"Carpentier","Phone_h":"(284) 395-9325","Phone_m":"(601) 827-4670","Phone_w":"(098) 928-4814","Address":"111 Silicon Valley Road","City":"Santa Fe","State":"CA"},{"Zip":"95928","LessThan10K":"0.26","MoreThan10K":"0.28","MoreThan25K":"0.22","MoreThan50K":"0.24","First":"Isabelle","Last":"Bandy","Phone_h":"(225) 304-9986","Phone_m":"(515) 261-4363","Phone_w":"(390) 763-7463","Address":"345 Sugar Blvd.","City":"Salt Lake City","State":"CA"},{"Zip":"95930","LessThan10K":"0.22","MoreThan10K":"0.23","MoreThan25K":"0.32","MoreThan50K":"0.23","First":"Gale","Last":"Stowers","Phone_h":"(609) 265-5546","Phone_m":"(949) 110-3548","Phone_w":"(271) 580-6315","Address":"321 University Ave.","City":"Salt Lake City","State":"CA"},{"Zip":"95934","LessThan10K":"0.28","MoreThan10K":"0.31","MoreThan25K":"0.21","MoreThan50K":"0.2","First":"Lucius","Last":"Duran","Phone_h":"(861) 958-8308","Phone_m":"(501) 586-1504","Phone_w":"(127) 531-1911","Address":"9 IBM Path","City":"Santa Monica","State":"CA"},{"Zip":"95936","LessThan10K":"0.23","MoreThan10K":"0.23","MoreThan25K":"0.27","MoreThan50K":"0.27","First":"Trey","Last":"Lunt","Phone_h":"(969) 036-5058","Phone_m":"(409) 711-9328","Phone_w":"(255) 525-6858","Address":"9 IBM Path","City":"Persistance","State":"CA"},{"Zip":"95939","LessThan10K":"0.23","MoreThan10K":"0.26","MoreThan25K":"0.27","MoreThan50K":"0.23","First":"Hope","Last":"Hurlbut","Phone_h":"(807) 642-7484","Phone_m":"(440) 796-5977","Phone_w":"(034) 797-6395","Address":"48920 San Carlos","City":"Kansas City","State":"CA"},{"Zip":"95941","LessThan10K":"0.22","MoreThan10K":"0.23","MoreThan25K":"0.34","MoreThan50K":"0.2","First":"Arlen","Last":"Ditch","Phone_h":"(855) 160-8527","Phone_m":"(520) 516-6302","Phone_w":"(137) 794-8243","Address":"777 West Filmore","City":"Sunnyvale","State":"CA"},{"Zip":"95943","LessThan10K":"0.23","MoreThan10K":"0.26","MoreThan25K":"0.23","MoreThan50K":"0.28","First":"Darell","Last":"Olds","Phone_h":"(969) 351-9900","Phone_m":"(198) 273-2221","Phone_w":"(228) 601-4028","Address":"67321 West Siam St.","City":"Persistance","State":"CA"},{"Zip":"95947","LessThan10K":"0.22","MoreThan10K":"0.27","MoreThan25K":"0.27","MoreThan50K":"0.24","First":"Cathryn","Last":"Symons","Phone_h":"(139) 897-2003","Phone_m":"(771) 685-7139","Phone_w":"(850) 908-0518","Address":"9 IBM Path","City":"Kansas City","State":"CA"},{"Zip":"95948","LessThan10K":"0.23","MoreThan10K":"0.33","MoreThan25K":"0.26","MoreThan50K":"0.18","First":"Rosemarie","Last":"Fitzmaurice","Phone_h":"(438) 152-6697","Phone_m":"(748) 453-6655","Phone_w":"(985) 894-1676","Address":"111 Silicon Valley Road","City":"Salt Lake City","State":"CA"},{"Zip":"95953","LessThan10K":"0.24","MoreThan10K":"0.36","MoreThan25K":"0.27","MoreThan50K":"0.14","First":"Eve","Last":"Bernardi","Phone_h":"(715) 115-1344","Phone_m":"(619) 819-5670","Phone_w":"(610) 378-4924","Address":"777 West Filmore","City":"Santa Fe","State":"CA"},{"Zip":"95957","LessThan10K":"0.21","MoreThan10K":"0.29","MoreThan25K":"0.26","MoreThan50K":"0.25","First":"Ronald","Last":"Bouie","Phone_h":"(788) 743-2489","Phone_m":"(140) 831-9951","Phone_w":"(107) 821-8376","Address":"321 University Ave.","City":"Santa Fe","State":"CA"},{"Zip":"95960","LessThan10K":"0.27","MoreThan10K":"0.34","MoreThan25K":"0.25","MoreThan50K":"0.14","First":"Jere","Last":"Pyne","Phone_h":"(149) 298-4175","Phone_m":"(040) 672-3180","Phone_w":"(147) 890-7354","Address":"123 Anywhere Street","City":"Ohio","State":"CA"}]},{"TargetData":[{"Zip":"95961","LessThan10K":"0.22","MoreThan10K":"0.38","MoreThan25K":"0.29","MoreThan50K":"0.11","First":"Quinton","Last":"Schmeling","Phone_h":"(382) 802-5019","Phone_m":"(274) 292-1135","Phone_w":"(278) 146-1072","Address":"67321 West Siam St.","City":"St. Petersburg","State":"CA"},{"Zip":"95962","LessThan10K":"0.24","MoreThan10K":"0.25","MoreThan25K":"0.2","MoreThan50K":"0.31","First":"Jasmine","Last":"Dragoo","Phone_h":"(600) 313-5061","Phone_m":"(134) 067-7879","Phone_w":"(917) 999-7428","Address":"777 West Filmore","City":"Ohio","State":"CA"},{"Zip":"95963","LessThan10K":"0.21","MoreThan10K":"0.32","MoreThan25K":"0.27","MoreThan50K":"0.2","First":"Jodi","Last":"Mcmakin","Phone_h":"(469) 761-0575","Phone_m":"(393) 223-3599","Phone_w":"(037) 723-4790","Address":"9 IBM Path","City":"Los Angeles","State":"CA"},{"Zip":"95965","LessThan10K":"0.24","MoreThan10K":"0.34","MoreThan25K":"0.25","MoreThan50K":"0.17","First":"Philip","Last":"Spiegel","Phone_h":"(476) 166-9367","Phone_m":"(336) 325-8512","Phone_w":"(972) 245-3013","Address":"777 West Filmore","City":"Persistance","State":"CA"},{"Zip":"95968","LessThan10K":"0.24","MoreThan10K":"0.36","MoreThan25K":"0.27","MoreThan50K":"0.13","First":"Amie","Last":"Rembert","Phone_h":"(505) 575-8992","Phone_m":"(134) 030-4878","Phone_w":"(270) 398-6799","Address":"123 Anywhere Street","City":"Los Angeles","State":"CA"},{"Zip":"95971","LessThan10K":"0.22","MoreThan10K":"0.23","MoreThan25K":"0.26","MoreThan50K":"0.29","First":"Valentin","Last":"Whitney","Phone_h":"(356) 668-8552","Phone_m":"(108) 094-9182","Phone_w":"(723) 535-2252","Address":"777 West Filmore","City":"Salt Lake City","State":"CA"},{"Zip":"95988","LessThan10K":"0.23","MoreThan10K":"0.28","MoreThan25K":"0.26","MoreThan50K":"0.23","First":"Adrian","Last":"Northrop","Phone_h":"(794) 155-2789","Phone_m":"(881) 761-1017","Phone_w":"(444) 102-9510","Address":"9 IBM Path","City":"Cupertino","State":"CA"},{"Zip":"95992","LessThan10K":"0.21","MoreThan10K":"0.37","MoreThan25K":"0.25","MoreThan50K":"0.17","First":"Jaclyn","Last":"Roles","Phone_h":"(337) 746-3818","Phone_m":"(335) 741-1779","Phone_w":"(562) 853-6101","Address":"48920 San Carlos","City":"Los Angeles","State":"CA"},{"Zip":"96002","LessThan10K":"0.22","MoreThan10K":"0.31","MoreThan25K":"0.24","MoreThan50K":"0.24","First":"Katy","Last":"Hickson","Phone_h":"(725) 066-4367","Phone_m":"(541) 789-6079","Phone_w":"(575) 815-2658","Address":"321 University Ave.","City":"Persistance","State":"CA"},{"Zip":"96007","LessThan10K":"0.22","MoreThan10K":"0.31","MoreThan25K":"0.27","MoreThan50K":"0.2","First":"Brice","Last":"Lemke","Phone_h":"(296) 943-2174","Phone_m":"(510) 148-4977","Phone_w":"(655) 892-0889","Address":"9 IBM Path","City":"Santa Fe","State":"CA"},{"Zip":"96010","LessThan10K":"0.29","MoreThan10K":"0.39","MoreThan25K":"0.17","MoreThan50K":"0.15","First":"Frederick","Last":"Braxton","Phone_h":"(338) 773-2354","Phone_m":"(498) 603-8363","Phone_w":"(203) 671-4766","Address":"48920 San Carlos","City":"San Jose","State":"CA"},{"Zip":"96015","LessThan10K":"0.27","MoreThan10K":"0.33","MoreThan25K":"0.28","MoreThan50K":"0.12","First":"Angie","Last":"Sites","Phone_h":"(394) 347-9305","Phone_m":"(221) 242-5660","Phone_w":"(396) 925-6814","Address":"9 IBM Path","City":"Los Angeles","State":"CA"},{"Zip":"96017","LessThan10K":"0.28","MoreThan10K":"0.32","MoreThan25K":"0.23","MoreThan50K":"0.17","First":"Rachel","Last":"Badilla","Phone_h":"(238) 513-9684","Phone_m":"(651) 244-1588","Phone_w":"(846) 124-7589","Address":"48920 San Carlos","City":"Salt Lake City","State":"CA"},{"Zip":"96019","LessThan10K":"0.23","MoreThan10K":"0.32","MoreThan25K":"0.26","MoreThan50K":"0.19","First":"Debra","Last":"Royer","Phone_h":"(969) 009-1771","Phone_m":"(873) 660-7556","Phone_w":"(354) 526-8910","Address":"9 IBM Path","City":"Kansas City","State":"CA"},{"Zip":"96021","LessThan10K":"0.23","MoreThan10K":"0.33","MoreThan25K":"0.28","MoreThan50K":"0.16","First":"Cornelia","Last":"Roselli","Phone_h":"(317) 617-9378","Phone_m":"(302) 217-7386","Phone_w":"(118) 074-9437","Address":"777 West Filmore","City":"Persistance","State":"CA"},{"Zip":"96023","LessThan10K":"0.26","MoreThan10K":"0.37","MoreThan25K":"0.21","MoreThan50K":"0.16","First":"Hilary","Last":"Huerta","Phone_h":"(085) 343-6457","Phone_m":"(525) 038-0326","Phone_w":"(144) 506-2935","Address":"67321 West Siam St.","City":"San Mateo","State":"CA"},{"Zip":"96024","LessThan10K":"0.25","MoreThan10K":"0.27","MoreThan25K":"0.22","MoreThan50K":"0.26","First":"Kristine","Last":"Bianchi","Phone_h":"(790) 163-3510","Phone_m":"(391) 874-5523","Phone_w":"(220) 224-1441","Address":"321 University Ave.","City":"Sunnyvale","State":"CA"},{"Zip":"96025","LessThan10K":"0.23","MoreThan10K":"0.31","MoreThan25K":"0.26","MoreThan50K":"0.19","First":"Caleb","Last":"Frampton","Phone_h":"(595) 913-1386","Phone_m":"(428) 406-1721","Phone_w":"(251) 091-0303","Address":"48920 San Carlos","City":"Cupertino","State":"CA"},{"Zip":"96027","LessThan10K":"0.21","MoreThan10K":"0.26","MoreThan25K":"0.28","MoreThan50K":"0.25","First":"Oscar","Last":"Cavitt","Phone_h":"(519) 868-8925","Phone_m":"(608) 492-2798","Phone_w":"(239) 618-0288","Address":"123 Anywhere Street","City":"Salt Lake City","State":"CA"},{"Zip":"96028","LessThan10K":"0.21","MoreThan10K":"0.26","MoreThan25K":"0.27","MoreThan50K":"0.25","First":"Ramiro","Last":"Harold","Phone_h":"(348) 522-4377","Phone_m":"(002) 649-9190","Phone_w":"(996) 462-4776","Address":"777 West Filmore","City":"Salt Lake City","State":"CA"},{"Zip":"96035","LessThan10K":"0.21","MoreThan10K":"0.34","MoreThan25K":"0.31","MoreThan50K":"0.14","First":"Evelyn","Last":"Tevis","Phone_h":"(904) 261-2667","Phone_m":"(896) 575-0100","Phone_w":"(175) 271-4558","Address":"67321 West Siam St.","City":"Ohio","State":"CA"},{"Zip":"96038","LessThan10K":"0.21","MoreThan10K":"0.33","MoreThan25K":"0.28","MoreThan50K":"0.18","First":"Bernadine","Last":"Swan","Phone_h":"(786) 128-2580","Phone_m":"(452) 919-3757","Phone_w":"(189) 850-2148","Address":"67321 West Siam St.","City":"Ohio","State":"CA"}]},{"TargetData":[{"Zip":"96039","LessThan10K":"0.24","MoreThan10K":"0.32","MoreThan25K":"0.27","MoreThan50K":"0.17","First":"Clint","Last":"Kahler","Phone_h":"(085) 174-5596","Phone_m":"(142) 523-9710","Phone_w":"(219) 536-0063","Address":"999 Baker Way","City":"San Mateo","State":"CA"},{"Zip":"96040","LessThan10K":"0.21","MoreThan10K":"0.22","MoreThan25K":"0.31","MoreThan50K":"0.25","First":"Kelsey","Last":"Burrage","Phone_h":"(898) 931-5258","Phone_m":"(244) 902-1243","Phone_w":"(275) 911-0259","Address":"777 West Filmore","City":"Alabama","State":"CA"},{"Zip":"96041","LessThan10K":"0.25","MoreThan10K":"0.34","MoreThan25K":"0.26","MoreThan50K":"0.15","First":"Pamala","Last":"Warnke","Phone_h":"(963) 575-4505","Phone_m":"(213) 108-1425","Phone_w":"(470) 009-6041","Address":"111 Silicon Valley Road","City":"Ohio","State":"CA"},{"Zip":"96048","LessThan10K":"0.26","MoreThan10K":"0.24","MoreThan25K":"0.31","MoreThan50K":"0.19","First":"Quentin","Last":"Keel","Phone_h":"(082) 017-3663","Phone_m":"(235) 355-8565","Phone_w":"(013) 977-1823","Address":"67321 West Siam St.","City":"San Francisco","State":"CA"},{"Zip":"96051","LessThan10K":"0.26","MoreThan10K":"0.25","MoreThan25K":"0.21","MoreThan50K":"0.28","First":"Keith","Last":"Laforge","Phone_h":"(245) 057-2009","Phone_m":"(857) 313-0204","Phone_w":"(732) 105-4075","Address":"123 Anywhere Street","City":"Santa Fe","State":"CA"},{"Zip":"96052","LessThan10K":"0.21","MoreThan10K":"0.28","MoreThan25K":"0.29","MoreThan50K":"0.22","First":"Israel","Last":"Rafferty","Phone_h":"(572) 884-3441","Phone_m":"(958) 983-5114","Phone_w":"(728) 968-8148","Address":"9 IBM Path","City":"Santa Fe","State":"CA"},{"Zip":"96056","LessThan10K":"0.22","MoreThan10K":"0.26","MoreThan25K":"0.29","MoreThan50K":"0.23","First":"Erika","Last":"Chavarria","Phone_h":"(350) 898-6907","Phone_m":"(947) 400-3228","Phone_w":"(446) 533-0480","Address":"9 IBM Path","City":"Los Angeles","State":"CA"},{"Zip":"96057","LessThan10K":"0.21","MoreThan10K":"0.27","MoreThan25K":"0.32","MoreThan50K":"0.2","First":"Arthur","Last":"Sasser","Phone_h":"(799) 153-1815","Phone_m":"(635) 246-7516","Phone_w":"(928) 688-6980","Address":"9 IBM Path","City":"Denver","State":"CA"},{"Zip":"96058","LessThan10K":"0.23","MoreThan10K":"0.33","MoreThan25K":"0.31","MoreThan50K":"0.13","First":"Philip","Last":"Firth","Phone_h":"(921) 346-9036","Phone_m":"(923) 146-0817","Phone_w":"(522) 040-9238","Address":"1715 Scott Dr","City":"Santa Fe","State":"CA"},{"Zip":"96062","LessThan10K":"0.21","MoreThan10K":"0.2","MoreThan25K":"0.17","MoreThan50K":"0.41","First":"Ernest","Last":"Sikes","Phone_h":"(767) 771-5401","Phone_m":"(510) 217-3411","Phone_w":"(211) 895-1491","Address":"345 Sugar Blvd.","City":"Santa Monica","State":"CA"},{"Zip":"96064","LessThan10K":"0.23","MoreThan10K":"0.3","MoreThan25K":"0.29","MoreThan50K":"0.18","First":"Hugh","Last":"Mckenney","Phone_h":"(551) 024-8963","Phone_m":"(821) 173-7378","Phone_w":"(385) 912-8622","Address":"1715 Scott Dr","City":"Los Angeles","State":"CA"},{"Zip":"96065","LessThan10K":"0.26","MoreThan10K":"0.25","MoreThan25K":"0.27","MoreThan50K":"0.22","First":"Hayden","Last":"Darwin","Phone_h":"(895) 984-6094","Phone_m":"(633) 520-4238","Phone_w":"(397) 807-4711","Address":"999 Baker Way","City":"Sunnyvale","State":"CA"},{"Zip":"96067","LessThan10K":"0.23","MoreThan10K":"0.25","MoreThan25K":"0.23","MoreThan50K":"0.29","First":"Kelley","Last":"Shorts","Phone_h":"(450) 019-6259","Phone_m":"(445) 905-3953","Phone_w":"(962) 661-7331","Address":"345 Sugar Blvd.","City":"Santa Monica","State":"CA"},{"Zip":"96071","LessThan10K":"0.23","MoreThan10K":"0.28","MoreThan25K":"0.23","MoreThan50K":"0.26","First":"Stuart","Last":"Amado","Phone_h":"(391) 715-0469","Phone_m":"(718) 234-2611","Phone_w":"(957) 557-7321","Address":"48920 San Carlos","City":"Cupertino","State":"CA"},{"Zip":"96075","LessThan10K":"0.32","MoreThan10K":"0.33","MoreThan25K":"0.2","MoreThan50K":"0.14","First":"Carson","Last":"Fullen","Phone_h":"(083) 776-9636","Phone_m":"(697) 406-9603","Phone_w":"(854) 444-1111","Address":"345 Sugar Blvd.","City":"Alabama","State":"CA"}]}]
